,AWND,CDSD,CLDD,DATE,DSNW,DYHF,DYTS,DailyAverageDewPointTemperature,DailyAverageDryBulbTemperature,DailyAverageRelativeHumidity,DailyAverageSeaLevelPressure,DailyAverageStationPressure,DailyAverageWetBulbTemperature,DailyAverageWindSpeed,DailyCoolingDegreeDays,DailyDepartureFromNormalAverageTemperature,DailyHeatingDegreeDays,DailyMaximumDryBulbTemperature,DailyMinimumDryBulbTemperature,DailyPeakWindDirection,DailyPeakWindSpeed,DailyPrecipitation,DailySnowDepth,DailySnowfall,DailySustainedWindDirection,DailySustainedWindSpeed,DailyWeather,HDSD,HTDD,HourlyAltimeterSetting,HourlyDewPointTemperature,HourlyDryBulbTemperature,HourlyPrecipitation,HourlyPresentWeatherType,HourlyPressureChange,HourlyPressureTendency,HourlyRelativeHumidity,HourlySeaLevelPressure,HourlySkyConditions,HourlyStationPressure,HourlyVisibility,HourlyWetBulbTemperature,HourlyWindDirection,HourlyWindGustSpeed,HourlyWindSpeed,MonthlyAverageRH,MonthlyDaysWithGT001Precip,MonthlyDaysWithGT010Precip,MonthlyDaysWithGT32Temp,MonthlyDaysWithGT90Temp,MonthlyDaysWithLT0Temp,MonthlyDaysWithLT32Temp,MonthlyDepartureFromNormalAverageTemperature,MonthlyDepartureFromNormalCoolingDegreeDays,MonthlyDepartureFromNormalHeatingDegreeDays,MonthlyDepartureFromNormalMaximumTemperature,MonthlyDepartureFromNormalMinimumTemperature,MonthlyDepartureFromNormalPrecipitation,MonthlyDewpointTemperature,MonthlyGreatestPrecip,MonthlyGreatestPrecipDate,MonthlyGreatestSnowDepth,MonthlyGreatestSnowDepthDate,MonthlyGreatestSnowfall,MonthlyGreatestSnowfallDate,MonthlyMaxSeaLevelPressureValue,MonthlyMaxSeaLevelPressureValueDate,MonthlyMaxSeaLevelPressureValueTime,MonthlyMaximumTemperature,MonthlyMeanTemperature,MonthlyMinSeaLevelPressureValue,MonthlyMinSeaLevelPressureValueDate,MonthlyMinSeaLevelPressureValueTime,MonthlyMinimumTemperature,MonthlySeaLevelPressure,MonthlyStationPressure,MonthlyTotalLiquidPrecipitation,MonthlyTotalSnowfall,MonthlyWetBulb,NormalsCoolingDegreeDay,NormalsHeatingDegreeDay,REM,REPORT_TYPE,REPORT_TYPE.1,SOURCE,SOURCE.1,STATION,ShortDurationEndDate005,ShortDurationEndDate010,ShortDurationEndDate015,ShortDurationEndDate020,ShortDurationEndDate030,ShortDurationEndDate045,ShortDurationEndDate060,ShortDurationEndDate080,ShortDurationEndDate100,ShortDurationEndDate120,ShortDurationEndDate150,ShortDurationEndDate180,ShortDurationPrecipitationValue005,ShortDurationPrecipitationValue010,ShortDurationPrecipitationValue015,ShortDurationPrecipitationValue020,ShortDurationPrecipitationValue030,ShortDurationPrecipitationValue045,ShortDurationPrecipitationValue060,ShortDurationPrecipitationValue080,ShortDurationPrecipitationValue100,ShortDurationPrecipitationValue120,ShortDurationPrecipitationValue150,ShortDurationPrecipitationValue180,Sunrise,Sunset,state
0,,,,2021-01-01T00:00:00,,,,,,,,,,,,,,,,,,,,,,,,,,,57,59,,||RA,0.07,8.0,93.0,29.95,8,29.29,6.84,58.0,110,,11.0,,,,,,,,,,,,,,,,,,,,,,,,,,,,,,,,,,,,,SYN09272323 11361 81110 10150 20139 39918 40142 58025 69901 761// 90553 333 10150 20100 555 90106=,FM-12,FM-12,4.0,4.0,72323003856.0,,,,,,,,,,,,,,,,,,,,,,,,,,,alabama
1,7.4,0.0,0.0,2021-01-31T23:59:00,0.0,2.0,3.0,,,,,,,,,,,,,,,,,,,,,1807.0,688.0,,,,,,,,,,,,,,,,,,10,7,16,0,0.0,0.0,1.3,0.0,-41.0,1.0,1.6,-2.56,,0.66,24-25,T,11.0,0.3,11-11,30.59,28.0,953.0,52.2,42.8,29.67,15.0,1353.0,33.4,30.09,29.39,2.33,0.3,,-7777.0,729.0,SOM835PCP MTOT:2.33 PCP GT 24HRS:0.66 DATE(S):24-25 DAYS W/PCP >=.01:10 DAYS W/PCP >=.10:7  DAYS W/ PCP >=.50:2 DAYS W/PCP >=1.00:0 MSDP AMTS W/DATE-TIME TAGS:MIN:5 0.09  01/0609 MIN:10 0.11  01/0609 MIN:15 0.12  01/0618 MIN:20 0.14  01/0619 MIN:30 0.16  25/0112 MIN:45 0.17  25/0126 MIN:60 0.20  01/0703 MIN:80 0.24  25/0112 MIN:100 0.32  25/0112 MIN:120 0.34  25/0132 MIN:150 0.36  07/1854 MIN:180 0.42  07/1911 SN GT IN 24HRS:0.4 DATE(S): 11SN MTOT:0.4 AVG DLY MIN:33.4  AVG DLY MAX:52.2  AVG MLY TMP:42.8  MIN TMP:20 DATE(S):13 MAX TMP:74  DATE(S):01 DAYS MAX <=32:0 DAYS MAX >=90:0  DAYS MIN <=32:16 DAYS MIN  <=0:0  AVG STP:29.395 LWST SLP:29.66 DATE/TIME:151352 HGST SLP:30.60 DATE/TIME:281008 HDD MTH TOT:683 DEP NORM:-2553 SEASON(JUL 1-JUN 30):1787 DEP NORM:-25536 CDD MTH TOT:0 DEP NORM:-2553 SEASON(JAN 1-DEC 31):0 DEP NORM:-25536,SOM  ,SOM  ,6.0,6.0,72323003856.0,2021-01-01 06:09,2021-01-01 06:09,2021-01-01 06:18,2021-01-01 06:19,2021-01-25 01:12,2021-01-25 01:26,2021-01-01 07:03,2021-01-25 01:12,2021-01-25 01:12,2021-01-25 01:32,2021-01-07 18:54,2021-01-07 19:11,0.09,0.11,0.12,0.14,0.16,0.17,0.2,0.24,0.32,0.34,0.36,0.42,,,alabama
2,8.3,4.0,4.0,2021-02-28T23:59:00,1.0,1.0,,,,,,,,,,,,,,,,,,,,,,2468.0,662.0,,,,,,,,,,,,,,,,,,14,9,18,0,0.0,2.0,-4.2,3.0,120.0,-4.8,-3.7,0.60,,1.46,26-26,2,18.0,3.1,17-17,30.46,20.0,943.0,51.1,41.5,29.69,4.0,2129.0,31.8,30.11,29.4,5.44,3.3,,1.0,542.0,SOM790PCP MTOT:5.44 PCP GT 24HRS:1.46 DATE(S):26 DAYS W/PCP >=.01:14 DAYS W/PCP >=.10:9  DAYS W/ PCP >=.50:4 DAYS W/PCP >=1.00:2 MSDP AMTS W/DATE-TIME TAGS:MIN:5 0.10  28/2337 MIN:10 0.15  28/2339 MIN:15 0.20  28/2344 MIN:20 0.21  28/2347 MIN:30 0.25  28/2358 MIN:45 0.27  15/1229 MIN:60 0.34  17/2048 MIN:80 0.46  15/1308 MIN:100 0.55  15/1329 MIN:120 0.60  15/1337 MIN:150 0.69  17/2144 MIN:180 0.76  17/2231 AVG DLY MIN:31.8  AVG DLY MAX:51.1  AVG MLY TMP:41.5  MIN TMP:13 DATE(S):16 MAX TMP:75  DATE(S):28 DAYS MAX <=32:2 DAYS MAX >=90:0  DAYS MIN <=32:18 DAYS MIN  <=0:0  AVG STP:29.405 LWST SLP:29.69 DATE/TIME:042129 HGST SLP:30.46 DATE/TIME:200943 HDD MTH TOT:656 DEP NORM:-2553 SEASON(JUL 1-JUN 30):2443 DEP NORM:-25536 CDD MTH TOT:4 DEP NORM:-2553 SEASON(JAN 1-DEC 31):4 DEP NORM:-25536,SOM  ,SOM  ,6.0,6.0,72323003856.0,2021-02-28 23:37,2021-02-28 23:39,2021-02-28 23:44,2021-02-28 23:47,2021-02-28 23:58,2021-02-15 12:29,2021-02-17 20:48,2021-02-15 13:08,2021-02-15 13:29,2021-02-15 13:37,2021-02-17 21:44,2021-02-17 22:31,0.1,0.15,0.2,0.21,0.25,0.27,0.34,0.46,0.55,0.6,0.69,0.76,,,alabama
3,8.1,12.0,8.0,2021-03-31T23:59:00,0.0,2.0,7.0,,,,,,,,,,,,,,,,,,,,,2734.0,266.0,,,,,,,,,,,,,,,,,,12,9,2,0,0.0,0.0,3.2,-5.0,-102.0,3.1,3.2,6.11,,2.35,25-25,0,,0.0,,30.57,8.0,1015.0,68.0,56.7,29.62,18.0,410.0,45.4,30.13,29.43,11.32,,,13.0,368.0,SOM795PCP MTOT:11.31 PCP GT 24HRS:2.35 DATE(S):25 DAYS W/PCP >=.01:12 DAYS W/PCP >=.10:8  DAYS W/ PCP >=.50:7 DAYS W/PCP >=1.00:5 MSDP AMTS W/DATE-TIME TAGS:MIN:5 0.42  27/1805 MIN:10 0.59  16/0230 MIN:15 0.77  16/0232 MIN:20 0.86  16/0232 MIN:30 0.97  16/0238 MIN:45 1.02  28/0453 MIN:60 1.29  28/0506 MIN:80 1.32  28/0522 MIN:100 1.59  16/0233 MIN:120 1.76  16/0238 MIN:150 1.80  16/0238 MIN:180 1.82  16/0238 AVG DLY MIN:45.4  AVG DLY MAX:68.0  AVG MLY TMP:56.7  MIN TMP:28 DATE(S):07 MAX TMP:80  DATE(S):27 14 DAYS MAX <=32:0 DAYS MAX >=90:0  DAYS MIN <=32:2  DAYS MIN  <=0:0  AVG STP:29.435 LWST SLP:29.62 DATE/TIME:180410 HGST SLP:30.57 DATE/TIME:081015 HDD MTH TOT:259 DEP NORM:-2553 SEASON(JUL 1-JUN 30):2702 DEP NORM:-25536 CDD MTH TOT:9 DEP NORM:-2553 SEASON(JAN 1-DEC 31):13 DEP NORM:-25536,SOM  ,SOM  ,6.0,6.0,72323003856.0,2021-03-27 18:05,2021-03-16 02:30,2021-03-16 02:32,2021-03-16 02:32,2021-03-16 02:38,2021-03-28 04:53,2021-03-28 05:06,2021-03-28 05:22,2021-03-16 02:33,2021-03-16 02:38,2021-03-16 02:38,2021-03-16 02:38,0.42,0.59,0.77,0.86,0.97,1.02,1.29,1.32,1.59,1.76,1.8,1.82,,,alabama
4,6.5,41.0,29.0,2021-04-30T23:59:00,0.0,,3.0,,,,,,,,,,,,,,,,,,,,,2921.0,186.0,,,,,,,,,,,,,,,,,,8,3,2,0,0.0,0.0,-2.0,-29.0,32.0,-1.4,-2.7,-1.28,,1.64,07-08,0,,0.0,,30.53,2.0,1028.0,72.2,59.8,29.59,10.0,1553.0,47.3,30.02,29.33,3.04,,,58.0,154.0,SOM794PCP MTOT:2.85 PCP GT 24HRS:1.62 DATE(S):8 DAYS W/PCP >=.01:7  DAYS W/PCP >=.10:2  DAYS W/ PCP >=.50:2 DAYS W/PCP >=1.00:2 MSDP AMTS W/DATE-TIME TAGS:MIN:5 0.02  29/0858 MIN:10 0.03  29/0847 MIN:15 0.04  29/0855 MIN:20 0.05  29/0858 MIN:30 0.06  29/0909 MIN:45 0.06  29/0909 MIN:60 0.06  29/0909 MIN:80 0.06  29/0909 MIN:100 0.06  29/0909 MIN:120 0.06  29/0909 MIN:150 0.06  29/0909 MIN:180 0.06  29/0909 AVG DLY MIN:47.3  AVG DLY MAX:72.2  AVG MLY TMP:59.8  MIN TMP:30 DATE(S):02 MAX TMP:83  DATE(S):28 27 DAYS MAX <=32:0 DAYS MAX >=90:0  DAYS MIN <=32:2  DAYS MIN  <=0:0  AVG STP:29.330 LWST SLP:29.58 DATE/TIME:241530 HGST SLP:30.53 DATE/TIME:021028 HDD MTH TOT:180 DEP NORM:-2553 SEASON(JUL 1-JUN 30):2882 DEP NORM:-25536 CDD MTH TOT:31 DEP NORM:-2553 SEASON(JAN 1-DEC 31):44 DEP NORM:-25536,SOM  ,SOM  ,6.0,6.0,72323003856.0,,,,,,,,,,,,,,,,,,,,,,,,,,,alabama
5,7.2,180.0,139.0,2021-05-31T23:59:00,0.0,1.0,2.0,,,,,,,,,,,,,,,,,,,,,2968.0,47.0,,,,,,,,,,,,,,,,,,10,3,0,3,0.0,0.0,-2.3,-52.0,20.0,-2.1,-2.6,0.11,,3.25,04-04,0,,0.0,,30.41,22.0,822.0,79.2,68.0,29.7,3.0,353.0,56.7,30.09,29.41,5.22,,,191.0,27.0,SOM798PCP MTOT:5.22 PCP GT 24HRS:3.25 DATE(S):4-5+ DAYS W/PCP >=.01:10 DAYS W/PCP >=.10:3  DAYS W/ PCP >=.50:2 DAYS W/PCP >=1.00:2 MSDP AMTS W/DATE-TIME TAGS:MIN:5 0.44  04/0805 MIN:10 0.74  04/0805 MIN:15 0.96  04/0806 MIN:20 1.13  04/0807 MIN:30 1.46  04/0806 MIN:45 1.89  04/0806 MIN:60 2.02  04/0821 MIN:80 2.16  04/0841 MIN:100 2.20  04/0900 MIN:120 2.20  04/0900 MIN:150 2.21  04/0935 MIN:180 2.21  04/0935 AVG DLY MIN:56.7  AVG DLY MAX:79.2  AVG MLY TMP:68.0  MIN TMP:45 DATE(S):14 07 MAX TMP:92  DATE(S):25 DAYS MAX <=32:0 DAYS MAX >=90:3  DAYS MIN <=32:0  DAYS MIN  <=0:0  AVG STP:29.415 LWST SLP:29.69 DATE/TIME:030220 HGST SLP:30.41 DATE/TIME:220822 HDD MTH TOT:46 DEP NORM:-2553 SEASON(JUL 1-JUN 30):2928 DEP NORM:-25536 CDD MTH TOT:144 DEP NORM:-2553 SEASON(JAN 1-DEC 31):188 DEP NORM:-25536,SOM  ,SOM  ,6.0,6.0,72323003856.0,2021-05-04 08:05,2021-05-04 08:05,2021-05-04 08:06,2021-05-04 08:07,2021-05-04 08:06,2021-05-04 08:06,2021-05-04 08:21,2021-05-04 08:41,2021-05-04 09:00,2021-05-04 09:00,2021-05-04 09:35,2021-05-04 09:35,0.44,0.74,0.96,1.13,1.46,1.89,2.02,2.16,2.2,2.2,2.21,2.21,,,alabama
6,6.5,529.0,348.0,2021-06-30T23:59:00,0.0,3.0,7.0,,,,,,,,,,,,,,,,,,,,,2968.0,0.0,,,,,,,,,,,,,,,,,,14,10,0,6,0.0,0.0,-1.1,-32.0,-1.0,-2.2,0.1,1.44,,1.46,02-02,0,,0.0,,30.2,29.0,847.0,86.0,76.6,29.8,20.0,53.0,67.2,30.01,29.34,5.73,,,380.0,1.0,SOM791PCP MTOT:5.73 PCP GT 24HRS:1.46 DATE(S):2 DAYS W/PCP >=.01:14 DAYS W/PCP >=.10:10 DAYS W/ PCP >=.50:5 DAYS W/PCP >=1.00:1 MSDP AMTS W/DATE-TIME TAGS:MIN:5 0.36  21/1351 MIN:10 0.55  21/1354 MIN:15 0.71  21/1359 MIN:20 0.80  21/1403 MIN:30 0.81  21/1406 MIN:45 0.81  21/1406 MIN:60 0.81  21/1406 MIN:80 0.81  21/1406 MIN:100 0.81  21/1406 MIN:120 0.81  21/1406 MIN:150 0.81  21/1406 MIN:180 0.81  21/1406 AVG DLY MIN:67.2  AVG DLY MAX:86.0  AVG MLY TMP:76.6  MIN TMP:59 DATE(S):23 MAX TMP:93  DATE(S):13 DAYS MAX <=32:0 DAYS MAX >=90:6  DAYS MIN <=32:0  DAYS MIN  <=0:0  AVG STP:29.335 LWST SLP:29.79 DATE/TIME:211319 HGST SLP:30.20 DATE/TIME:290847 HDD MTH TOT:0 DEP NORM:-2553 SEASON(JUL 1-JUN 30):2928 DEP NORM:-25536 CDD MTH TOT:355 DEP NORM:-2553 SEASON(JAN 1-DEC 31):543 DEP NORM:-25536,SOM  ,SOM  ,6.0,6.0,72323003856.0,,,,,,,,,,,,,,,,,,,,,,,,,,,alabama
7,4.7,981.0,453.0,2021-07-31T23:59:00,0.0,2.0,13.0,,,,,,,,,,,,,,,,,,,,,0.0,0.0,,,,,,,,,,,,,,,,,,16,11,0,12,0.0,0.0,-1.0,-29.0,0.0,-2.2,0.3,5.03,,2.30,19-19,0,,0.0,,30.25,14.0,1053.0,88.5,79.6,29.84,2.0,1623.0,70.7,30.03,29.36,9.08,,,482.0,0.0,SOM796PCP MTOT:9.08 PCP GT 24HRS:2.30 DATE(S):19 DAYS W/PCP >=.01:16 DAYS W/PCP >=.10:11 DAYS W/ PCP >=.50:6 DAYS W/PCP >=1.00:3 MSDP AMTS W/DATE-TIME TAGS:MIN:5 0.41  11/1456 MIN:10 0.63  11/1457 MIN:15 0.81  11/1501 MIN:20 0.98  11/1501 MIN:30 1.08  11/1505 MIN:45 1.24  19/2025 MIN:60 1.38  19/2041 MIN:80 1.45  19/2101 MIN:100 1.50  19/2121 MIN:120 1.57  19/2139 MIN:150 1.66  19/2209 MIN:180 1.73  19/2240 AVG DLY MIN:70.7  AVG DLY MAX:88.5  AVG MLY TMP:79.6  MIN TMP:59 DATE(S):04 MAX TMP:95  DATE(S):29 28 27 DAYS MAX <=32:0 DAYS MAX >=90:12 DAYS MIN <=32:0  DAYS MIN  <=0:0  AVG STP:29.355 LWST SLP:29.84 DATE/TIME:021623 HGST SLP:30.26 DATE/TIME:140740 HDD MTH TOT:0 DEP NORM:-2553 SEASON(JUL 1-JUN 30):0 DEP NORM:-25536 CDD MTH TOT:462 DEP NORM:-2553 SEASON(JAN 1-DEC 31):1005 DEP NORM:-25536,SOM  ,SOM  ,6.0,6.0,72323003856.0,2021-07-11 14:56,2021-07-11 14:57,2021-07-11 15:01,2021-07-11 15:01,2021-07-11 15:05,2021-07-19 20:25,2021-07-19 20:41,2021-07-19 21:01,2021-07-19 21:21,2021-07-19 21:39,2021-07-19 22:09,2021-07-19 22:40,0.41,0.63,0.81,0.98,1.08,1.24,1.38,1.45,1.5,1.57,1.66,1.73,,,alabama
8,4.7,1419.0,438.0,2021-08-31T23:59:00,0.0,,12.0,,,,,,,,,,,,,,,,,,,,,0.0,0.0,,,,,,,,,,,,,,,,,,15,9,0,12,0.0,0.0,-1.0,-32.0,0.0,-3.1,1.0,2.80,,2.44,30-31,0,,0.0,,30.19,12.0,1032.0,87.8,79.1,29.5,31.0,1413.0,70.4,30.02,29.35,6.41,,,470.0,-7777.0,SOM793PCP MTOT:6.41 PCP GT 24HRS:2.44 DATE(S):30-31 DAYS W/PCP >=.01:15 DAYS W/PCP >=.10:9  DAYS W/ PCP >=.50:5 DAYS W/PCP >=1.00:3 MSDP AMTS W/DATE-TIME TAGS:MIN:5 0.30  07/1040 MIN:10 0.49  07/1045 MIN:15 0.62  07/1049 MIN:20 0.62  07/1049 MIN:30 0.74  15/1651 MIN:45 0.86  15/1700 MIN:60 0.94  15/1704 MIN:80 1.25  15/1654 MIN:100 1.32  15/1710 MIN:120 1.36  15/1710 MIN:150 1.40  15/1741 MIN:180 1.42  15/1811 AVG DLY MIN:70.4  AVG DLY MAX:87.8  AVG MLY TMP:79.1  MIN TMP:62 DATE(S):04 MAX TMP:96  DATE(S):25 DAYS MAX <=32:0 DAYS MAX >=90:12 DAYS MIN <=32:0  DAYS MIN  <=0:0  AVG STP:29.350 LWST SLP:29.50 DATE/TIME:311413 HGST SLP:30.19 DATE/TIME:121032 HDD MTH TOT:0 DEP NORM:-2553 SEASON(JUL 1-JUN 30):0 DEP NORM:-25536 CDD MTH TOT:445 DEP NORM:-2553 SEASON(JAN 1-DEC 31):1450 DEP NORM:-25536,SOM  ,SOM  ,6.0,6.0,72323003856.0,2021-08-07 10:40,2021-08-07 10:45,2021-08-07 10:49,2021-08-07 10:49,2021-08-15 16:51,2021-08-15 17:00,2021-08-15 17:04,2021-08-15 16:54,2021-08-15 17:10,2021-08-15 17:10,2021-08-15 17:41,2021-08-15 18:11,0.3,0.49,0.62,0.62,0.74,0.86,0.94,1.25,1.32,1.36,1.4,1.42,,,alabama
9,4.7,1656.0,236.0,2021-09-30T23:59:00,0.0,2.0,4.0,,,,,,,,,,,,,,,,,,,,,9.0,9.0,,,,,,,,,,,,,,,,,,8,8,0,0,0.0,0.0,-1.1,-39.0,-4.0,-2.2,-0.1,2.24,,3.80,19-20,0,,0.0,,30.26,12.0,1012.0,82.8,72.6,29.72,1.0,153.0,62.4,30.02,29.35,5.96,,,275.0,13.0,SOM796PCP MTOT:5.33 PCP GT 24HRS:3.80 DATE(S):19-20 DAYS W/PCP >=.01:6  DAYS W/PCP >=.10:6  DAYS W/ PCP >=.50:3 DAYS W/PCP >=1.00:1 MSDP AMTS W/DATE-TIME TAGS:MIN:5 0.20  19/1253 MIN:10 0.31  19/1255 MIN:15 0.39  19/1258 MIN:20 0.45  19/1258 MIN:30 0.52  19/1305 MIN:45 0.63  19/1107 MIN:60 0.77  19/1120 MIN:80 0.84  19/1119 MIN:100 0.96  19/1125 MIN:120 1.02  19/1154 MIN:150 1.39  19/1257 MIN:180 1.56  19/1305 AVG DLY MIN:62.4  AVG DLY MAX:82.8  AVG MLY TMP:72.6  MIN TMP:48 DATE(S):24 23 MAX TMP:89  DATE(S):13 DAYS MAX <=32:0 DAYS MAX >=90:0  DAYS MIN <=32:0  DAYS MIN  <=0:0  AVG STP:29.350 LWST SLP:29.71 DATE/TIME:010016 HGST SLP:30.26 DATE/TIME:121012 HDD MTH TOT:8 DEP NORM:-2553 SEASON(JUL 1-JUN 30):8 DEP NORM:-25536 CDD MTH TOT:242 DEP NORM:-2553 SEASON(JAN 1-DEC 31):1692 DEP NORM:-25536,SOM  ,SOM  ,6.0,6.0,72323003856.0,2021-09-19 12:53,2021-09-19 12:55,2021-09-19 12:58,2021-09-19 12:58,2021-09-19 13:05,2021-09-19 11:07,2021-09-19 11:20,2021-09-19 11:19,2021-09-19 11:25,2021-09-19 11:54,2021-09-19 12:57,2021-09-19 13:05,0.2,0.31,0.39,0.45,0.52,0.63,0.77,0.84,0.96,1.02,1.39,1.56,,,alabama
10,5.8,1767.0,111.0,2021-10-31T23:59:00,0.0,5.0,4.0,,,,,,,,,,,,,,,,,,,,,104.0,95.0,,,,,,,,,,,,,,,,,,11,8,0,0,0.0,0.0,2.7,41.0,-43.0,1.4,4.1,-0.23,,1.76,05-06,0,,0.0,,30.27,20.0,924.0,76.0,65.5,29.43,29.0,331.0,55.1,29.99,29.31,3.36,,,70.0,138.0,SOM794PCP MTOT:3.36 PCP GT 24HRS:1.76 DATE(S):5-6 DAYS W/PCP >=.01:11 DAYS W/PCP >=.10:8  DAYS W/ PCP >=.50:2 DAYS W/PCP >=1.00:1 MSDP AMTS W/DATE-TIME TAGS:MIN:5 0.13  06/1936 MIN:10 0.21  06/1941 MIN:15 0.25  06/1946 MIN:20 0.27  06/1940 MIN:30 0.33  06/1948 MIN:45 0.41  05/2223 MIN:60 0.49  05/2223 MIN:80 0.58  05/2223 MIN:100 0.65  05/2225 MIN:120 0.80  05/2223 MIN:150 0.90  05/2225 MIN:180 0.98  05/2225 AVG DLY MIN:55.1  AVG DLY MAX:76.0  AVG MLY TMP:65.6  MIN TMP:39 DATE(S):18 MAX TMP:86  DATE(S):01 DAYS MAX <=32:0 DAYS MAX >=90:0  DAYS MIN <=32:0  DAYS MIN  <=0:0  AVG STP:29.310 LWST SLP:29.43 DATE/TIME:290331 HGST SLP:30.27 DATE/TIME:200924 HDD MTH TOT:93 DEP NORM:-2553 SEASON(JUL 1-JUN 30):101 DEP NORM:-25536 CDD MTH TOT:118 DEP NORM:-2553 SEASON(JAN 1-DEC 31):1810 DEP NORM:-25536,SOM  ,SOM  ,6.0,6.0,72323003856.0,2021-10-06 19:36,2021-10-06 19:41,2021-10-06 19:46,2021-10-06 19:40,2021-10-06 19:48,2021-10-05 22:23,2021-10-05 22:23,2021-10-05 22:23,2021-10-05 22:25,2021-10-05 22:23,2021-10-05 22:25,2021-10-05 22:25,0.13,0.21,0.25,0.27,0.33,0.41,0.49,0.58,0.65,0.8,0.9,0.98,,,alabama
11,5.6,1767.0,0.0,2021-11-30T23:59:00,0.0,3.0,1.0,,,,,,,,,,,,,,,,,,,,,592.0,488.0,,,,,,,,,,,,,,,,,,6,4,15,0,0.0,0.0,-4.0,-9.0,112.0,-1.3,-6.8,-3.32,,0.70,21-21,0,,0.0,,30.5,19.0,950.0,62.4,48.7,29.85,11.0,1309.0,35.0,30.2,29.49,1.62,,,9.0,376.0,SOM796PCP MTOT:1.62 PCP GT 24HRS:0.70 DATE(S):21+ DAYS W/PCP >=.01:6  DAYS W/PCP >=.10:4  DAYS W/ PCP >=.50:1 DAYS W/PCP >=1.00:0 MSDP AMTS W/DATE-TIME TAGS:MIN:5 0.19  21/1917 MIN:10 0.25  21/1923 MIN:15 0.27  21/1926 MIN:20 0.31  21/1933 MIN:30 0.34  21/1943 MIN:45 0.38  21/1955 MIN:60 0.42  21/2009 MIN:80 0.47  21/1946 MIN:100 0.54  21/2004 MIN:120 0.58  21/2024 MIN:150 0.59  21/2024 MIN:180 0.61  21/2024 AVG DLY MIN:35.0  AVG DLY MAX:62.4  AVG MLY TMP:48.7  MIN TMP:25 DATE(S):27 23 MAX TMP:76  DATE(S):09 DAYS MAX <=32:0 DAYS MAX >=90:0  DAYS MIN <=32:15 DAYS MIN  <=0:0  AVG STP:29.495 LWST SLP:29.85 DATE/TIME:111309 HGST SLP:30.50 DATE/TIME:190950 HDD MTH TOT:481 DEP NORM:-2553 SEASON(JUL 1-JUN 30):582 DEP NORM:-25536 CDD MTH TOT:0 DEP NORM:-2553 SEASON(JAN 1-DEC 31):1810 DEP NORM:-25536,SOM  ,SOM  ,6.0,6.0,72323003856.0,2021-11-21 19:17,2021-11-21 19:23,2021-11-21 19:26,2021-11-21 19:33,2021-11-21 19:43,2021-11-21 19:55,2021-11-21 20:09,2021-11-21 19:46,2021-11-21 20:04,2021-11-21 20:24,2021-11-21 20:24,2021-11-21 20:24,0.19,0.25,0.27,0.31,0.34,0.38,0.42,0.47,0.54,0.58,0.59,0.61,,,alabama
12,6.9,1770.0,3.0,2021-12-31T23:59:00,0.0,4.0,6.0,,,,,,,,,,,,,,,,,,,,,941.0,349.0,,,,,,,,,,,,,,,,,,12,5,8,0,0.0,0.0,9.9,1.0,-305.0,11.1,8.6,-1.04,,1.64,28-29,0,,0.0,,30.45,14.0,953.0,64.6,53.8,29.74,29.0,1753.0,43.0,30.06,29.37,4.73,,,2.0,654.0,SOM795PCP MTOT:4.73 PCP GT 24HRS:1.64 DATE(S):28-29 DAYS W/PCP >=.01:12 DAYS W/PCP >=.10:5  DAYS W/ PCP >=.50:4 DAYS W/PCP >=1.00:3 MSDP AMTS W/DATE-TIME TAGS:MIN:5 0.35  29/1922 MIN:10 0.44  29/1923 MIN:15 0.54  29/1923 MIN:20 0.60  29/1928 MIN:30 0.70  29/1935 MIN:45 0.78  29/1939 MIN:60 0.84  06/0908 MIN:80 0.93  06/0908 MIN:100 0.98  06/0922 MIN:120 1.02  06/0935 MIN:150 1.04  06/0935 MIN:180 1.04  06/0935 AVG DLY MIN:43.0  AVG DLY MAX:64.6  AVG MLY TMP:53.8  MIN TMP:26 DATE(S):23 MAX TMP:75  DATE(S):03 DAYS MAX <=32:0 DAYS MAX >=90:0  DAYS MIN <=32:8  DAYS MIN  <=0:0  AVG STP:29.370 LWST SLP:29.73 DATE/TIME:281546 HGST SLP:30.46 DATE/TIME:140944 HDD MTH TOT:342 DEP NORM:-2553 SEASON(JUL 1-JUN 30):924 DEP NORM:-25536 CDD MTH TOT:4 DEP NORM:-2553 SEASON(JAN 1-DEC 31):1814 DEP NORM:-25536,SOM  ,SOM  ,6.0,6.0,72323003856.0,2021-12-29 19:22,2021-12-29 19:23,2021-12-29 19:23,2021-12-29 19:28,2021-12-29 19:35,2021-12-29 19:39,2021-12-06 09:08,2021-12-06 09:08,2021-12-06 09:22,2021-12-06 09:35,2021-12-06 09:35,2021-12-06 09:35,0.35,0.44,0.54,0.6,0.7,0.78,0.84,0.93,0.98,1.02,1.04,1.04,,,alabama
13,5.6,0.0,0.0,2021-01-31T23:59:00,,3.0,,,,,,,,,,,,,,,,,,,,,,2058.0,827.0,,,,,,,,,,,,,,,,,,9,4,21,0,0.0,0.0,3.3,0.0,-101.0,2.7,3.7,-0.55s,,0.83,01-02,,,,,30.51,1.0,923.0,46.2,38.3,29.46,16.0,1502.0,30.3,30.02,29.96,2.37s,,,-7777.0,928.0,SOM794PCP MTOT:2.37 PCP GT 24HRS:0.83 DATE(S):1-2 DAYS W/PCP >=.01:9  DAYS W/PCP >=.10:4  DAYS W/ PCP >=.50:2 DAYS W/PCP >=1.00:0 MSDP AMTS W/DATE-TIME TAGS:MIN:5 0.12  01/2306 MIN:10 0.15  01/2311 MIN:15 0.17  01/2311 MIN:20 0.18  01/2311 MIN:30 0.23  01/2308 MIN:45 0.29  01/2311 MIN:60 0.31  01/2311 MIN:80 0.36  01/2311 MIN:100 0.43  01/2311 MIN:120 0.51  01/2311 MIN:150 0.60  01/2311 MIN:180 0.70  01/2311 AVG DLY MIN:30.3  AVG DLY MAX:46.2  AVG MLY TMP:38.3  MIN TMP:19 DATE(S):30 MAX TMP:58  DATE(S):15 02 DAYS MAX <=32:0 DAYS MAX >=90:0  DAYS MIN <=32:21 DAYS MIN  <=0:0  AVG STP:29.965 LWST SLP:29.46 DATE/TIME:161502 HGST SLP:30.51 DATE/TIME:010923 HDD MTH TOT:821 DEP NORM:-2553 SEASON(JUL 1-JUN 30):2026 DEP NORM:-25536 CDD MTH TOT:0 DEP NORM:-2553 SEASON(JAN 1-DEC 31):0 DEP NORM:-25536,SOM  ,SOM  ,6.0,6.0,72409313764.0,2021-01-01 23:06,2021-01-01 23:11,2021-01-01 23:11,2021-01-01 23:11,2021-01-01 23:08,2021-01-01 23:11,2021-01-01 23:11,2021-01-01 23:11,2021-01-01 23:11,2021-01-01 23:11,2021-01-01 23:11,2021-01-01 23:11,0.12,0.15,0.17,0.18,0.23,0.29,0.31,0.36,0.43,0.51,0.6,0.70,,,delaware
14,7.6,0.0,0.0,2021-02-28T23:59:00,,,,,,,,,,,,,,,,,,,,,,,,2805.0,747.0,,,,,,,,,,,,,,,,,,14s,11s,21,0,0.0,0.0,0.8,0.0,-23.0,-1.3,2.9,3.62s,,0.93,01-01,,,,,30.61,21.0,1128.0,45.4,38.3,29.43,2.0,1329.0,31.2,30.08,30.03,6.41s,,,-7777.0,770.0,SOM789PCP MTOT:6.41 PCP GT 24HRS:0.93 DATE(S):1 DAYS W/PCP >=.01:14 DAYS W/PCP >=.10:11 DAYS W/ PCP >=.50:5 DAYS W/PCP >=1.00:0 MSDP AMTS W/DATE-TIME TAGS:MIN:5 0.18  16/0141 MIN:10 0.28  16/0143 MIN:15 0.33  16/0148 MIN:20 0.37  16/0149 MIN:30 0.43  16/0156 MIN:45 0.49  16/0156 MIN:60 0.52  16/0156 MIN:80 0.63  16/0247 MIN:100 0.72  16/0254 MIN:120 0.77  16/0258 MIN:150 0.78  16/0258 MIN:180 0.81  16/0352 AVG DLY MIN:31.2  AVG DLY MAX:45.4  AVG MLY TMP:38.3  MIN TMP:24 DATE(S):21 MAX TMP:64  DATE(S):16 DAYS MAX <=32:0 DAYS MAX >=90:0  DAYS MIN <=32:21 DAYS MIN  <=0:0  AVG STP:30.025 LWST SLP:29.43 DATE/TIME:021329 HGST SLP:30.61 DATE/TIME:211128 HDD MTH TOT:739 DEP NORM:-2553 SEASON(JUL 1-JUN 30):2765 DEP NORM:-25536 CDD MTH TOT:0 DEP NORM:-2553 SEASON(JAN 1-DEC 31):0 DEP NORM:-25536,SOM  ,SOM  ,6.0,6.0,72409313764.0,2021-02-16 01:41,2021-02-16 01:43,2021-02-16 01:48,2021-02-16 01:49,2021-02-16 01:56,2021-02-16 01:56,2021-02-16 01:56,2021-02-16 02:47,2021-02-16 02:54,2021-02-16 02:58,2021-02-16 02:58,2021-02-16 03:52,0.18,0.28,0.33,0.37,0.43,0.49,0.52,0.63,0.72,0.77,0.78,0.81,,,delaware
15,7.8,14.0,14.0,2021-03-31T23:59:00,,3.0,2.0,,,,,,,,,,,,,,,,,,,,,3286.0,482.0,,,,,,,,,,,,,,,,,,4s,3s,10,0,0.0,0.0,5.2,12.0,-150.0,6.3,4.2,-1.09s,,1.52,24-24,,,,,30.6,20.0,1021.0,60.7,49.9,29.52,28.0,1741.0,39.1,30.15,30.1,2.96s,,,2.0,632.0,SOM792PCP MTOT:2.96 PCP GT 24HRS:1.52 DATE(S):24 DAYS W/PCP >=.01:4  DAYS W/PCP >=.10:3  DAYS W/ PCP >=.50:3 DAYS W/PCP >=1.00:1 MSDP AMTS W/DATE-TIME TAGS:MIN:5 0.14  24/1330 MIN:10 0.23  24/1335 MIN:15 0.32  24/1339 MIN:20 0.36  24/1340 MIN:30 0.39  24/1343 MIN:45 0.48  24/1340 MIN:60 0.55  24/1343 MIN:80 0.61  24/1343 MIN:100 0.69  24/1343 MIN:120 0.75  24/1340 MIN:150 0.86  24/1340 MIN:180 0.97  24/1343 AVG DLY MIN:39.1  AVG DLY MAX:60.7  AVG MLY TMP:49.9  MIN TMP:24 DATE(S):08 MAX TMP:86  DATE(S):26 DAYS MAX <=32:0 DAYS MAX >=90:0  DAYS MIN <=32:10 DAYS MIN  <=0:0  AVG STP:30.100 LWST SLP:29.52 DATE/TIME:281741 HGST SLP:30.60 DATE/TIME:201021 HDD MTH TOT:475 DEP NORM:-2553 SEASON(JUL 1-JUN 30):3240 DEP NORM:-25536 CDD MTH TOT:16 DEP NORM:-2553 SEASON(JAN 1-DEC 31):16 DEP NORM:-25536,SOM  ,SOM  ,6.0,6.0,72409313764.0,2021-03-24 13:30,2021-03-24 13:35,2021-03-24 13:39,2021-03-24 13:40,2021-03-24 13:43,2021-03-24 13:40,2021-03-24 13:43,2021-03-24 13:43,2021-03-24 13:43,2021-03-24 13:40,2021-03-24 13:40,2021-03-24 13:43,0.14,0.23,0.32,0.36,0.39,0.48,0.55,0.61,0.69,0.75,0.86,0.97,,,delaware
16,7.4,43.0,29.0,2021-04-30T23:59:00,,3.0,1.0,,,,,,,,,,,,,,,,,,,,,3563.0,277.0,,,,,,,,,,,,,,,,,,5s,3s,2,0,0.0,0.0,2.8,11.0,-71.0,3.9,1.6,-2.09s,,1.01s,24-25,,,,,30.44,3.0,928.0,68.3,56.8,29.45,11.0,1531.0,45.2,29.93,29.88,1.54s,,,18.0,348.0,SOM798PCP MTOT:1.54 PCP GT 24HRS:1.01 DATE(S):24-25 DAYS W/PCP >=.01:5  DAYS W/PCP >=.10:3  DAYS W/ PCP >=.50:1 DAYS W/PCP >=1.00:0 MSDP AMTS W/DATE-TIME TAGS:MIN:5 0.06  25/0111 MIN:10 0.08  25/0117 MIN:15 0.11  25/0117 MIN:20 0.13  25/0126 MIN:30 0.19  25/0137 MIN:45 0.25  25/0147 MIN:60 0.32  25/0135 MIN:80 0.42  25/0142 MIN:100 0.49  25/0139 MIN:120 0.56  25/0142 MIN:150 0.67  25/0142 MIN:180 0.74  25/0150 AVG DLY MIN:45.2  AVG DLY MAX:68.3  AVG MLY TMP:56.8  MIN TMP:30 DATE(S):03 MAX TMP:88  DATE(S):29 28 DAYS MAX <=32:0 DAYS MAX >=90:0  DAYS MIN <=32:2  DAYS MIN  <=0:0  AVG STP:29.875 LWST SLP:29.45 DATE/TIME:111531 HGST SLP:30.44 DATE/TIME:030928 HDD MTH TOT:271 DEP NORM:-2553 SEASON(JUL 1-JUN 30):3511 DEP NORM:-25536 CDD MTH TOT:29 DEP NORM:-2553 SEASON(JAN 1-DEC 31):45 DEP NORM:-25536,SOM  ,SOM  ,6.0,6.0,72409313764.0,2021-04-25 01:11,2021-04-25 01:17,2021-04-25 01:17,2021-04-25 01:26,2021-04-25 01:37,2021-04-25 01:47,2021-04-25 01:35,2021-04-25 01:42,2021-04-25 01:39,2021-04-25 01:42,2021-04-25 01:42,2021-04-25 01:50,0.06,0.08,0.11,0.13,0.19,0.25,0.32,0.42,0.49,0.56,0.67,0.74,,,delaware
17,6.5,151.0,108.0,2021-05-31T23:59:00,,,3.0,,,,,,,,,,,,,,,,,,,,,3665.0,101.0,,,,,,,,,,,,,,,,,,8,4,0,3,0.0,0.0,2.1,34.0,-32.0,3.7,0.5,-1.20s,,1.41s,29-30,,,,,30.54,21.0,1043.0,77.2,65.2,29.64,5.0,1251.0,53.2,30.08,30.03,2.35s,,,74.0,133.0,SOM805PCP MTOT:2.35 PCP GT 24HRS:1.41 DATE(S):29-30 DAYS W/PCP >=.01:8  DAYS W/PCP >=.10:4  DAYS W/ PCP >=.50:3 DAYS W/PCP >=1.00:0 MSDP AMTS W/DATE-TIME TAGS:MIN:5 0.13  04/1852 MIN:10 0.17  04/1856 MIN:15 0.17  30/0332 MIN:20 0.20  30/0334 MIN:30 0.24  04/1915 MIN:45 0.28  04/1931 MIN:60 0.33  04/1946 MIN:80 0.35  04/1958 MIN:100 0.35  04/1958 MIN:120 0.40  30/0334 MIN:150 0.51  30/0337 MIN:180 0.64  30/0337 AVG DLY MIN:53.2  AVG DLY MAX:77.2  AVG MLY TMP:65.2  MIN TMP:43 DATE(S):16 14 MAX TMP:93  DATE(S):26 23 22 DAYS MAX <=32:0 DAYS MAX >=90:3  DAYS MIN <=32:0  DAYS MIN  <=0:0  AVG STP:30.030 LWST SLP:29.64 DATE/TIME:051251 HGST SLP:30.54 DATE/TIME:211043 HDD MTH TOT:97 DEP NORM:-2553 SEASON(JUL 1-JUN 30):3608 DEP NORM:-25536 CDD MTH TOT:112 DEP NORM:-2553 SEASON(JAN 1-DEC 31):157 DEP NORM:-25536,SOM  ,SOM  ,6.0,6.0,72409313764.0,2021-05-04 18:52,2021-05-04 18:56,2021-05-30 03:32,2021-05-30 03:34,2021-05-04 19:15,2021-05-04 19:31,2021-05-04 19:46,2021-05-04 19:58,2021-05-04 19:58,2021-05-30 03:34,2021-05-30 03:37,2021-05-30 03:37,0.13,0.17,0.17,0.2,0.24,0.28,0.33,0.35,0.35,0.4,0.51,0.64,,,delaware
18,7.2,483.0,332.0,2021-06-30T23:59:00,,1.0,7.0,,,,,,,,,,,,,,,,,,,,,3665.0,0.0,,,,,,,,,,,,,,,,,,7s,3s,0,12,0.0,0.0,3.6,93.0,-13.0,3.5,3.5,-1.20s,,2.09,09-09,,,,,30.38,24.0,1155.0,86.0,76.1,29.63,21.0,1647.0,66.1,30.02,29.97,3.41s,,,239.0,13.0,SOM794PCP MTOT:3.41 PCP GT 24HRS:2.09 DATE(S):9 DAYS W/PCP >=.01:7  DAYS W/PCP >=.10:3  DAYS W/ PCP >=.50:2 DAYS W/PCP >=1.00:1 MSDP AMTS W/DATE-TIME TAGS:MIN:5 0.41  09/1427 MIN:10 0.72  09/1430 MIN:15 0.91  09/1434 MIN:20 1.10  09/1441 MIN:30 1.52  09/1449 MIN:45 1.72  09/1458 MIN:60 1.86  09/1515 MIN:80 2.01  09/1530 MIN:100 2.04  09/1530 MIN:120 2.06  09/1556 MIN:150 2.08  09/1629 MIN:180 2.08  09/1629 AVG DLY MIN:66.1  AVG DLY MAX:86.0  AVG MLY TMP:76.1  MIN TMP:52 DATE(S):24 MAX TMP:95  DATE(S):30 06 DAYS MAX <=32:0 DAYS MAX >=90:12 DAYS MIN <=32:0  DAYS MIN  <=0:0  AVG STP:29.970 LWST SLP:29.63 DATE/TIME:211647 HGST SLP:30.38 DATE/TIME:241155 HDD MTH TOT:0 DEP NORM:-2553 SEASON(JUL 1-JUN 30):3608 DEP NORM:-25536 CDD MTH TOT:340 DEP NORM:-2553 SEASON(JAN 1-DEC 31):497 DEP NORM:-25536,SOM  ,SOM  ,6.0,6.0,72409313764.0,2021-06-09 14:27,2021-06-09 14:30,2021-06-09 14:34,2021-06-09 14:41,2021-06-09 14:49,2021-06-09 14:58,2021-06-09 15:15,2021-06-09 15:30,2021-06-09 15:30,2021-06-09 15:56,2021-06-09 16:29,2021-06-09 16:29,0.41,0.72,0.91,1.1,1.52,1.72,1.86,2.01,2.04,2.06,2.08,2.08,,,delaware
19,6.3,925.0,442.0,2021-07-31T23:59:00,,2.0,6.0,,,,,,,,,,,,,,,,,,,,,0.0,0.0,,,,,,,,,,,,,,,,,,6s,4s,1s,18s,0.0,0.0,2.5,75.0,0.0,4.1,1.0,-0.31s,,1.95s,08-09,,,,,30.2,13.0,1011.0,90.4,79.4,29.59,9.0,151.0,68.4,29.98,29.93,3.88s,,,367.0,-7777.0,SOM792PCP MTOT:3.88 PCP GT 24HRS:1.95 DATE(S):8-9 DAYS W/PCP >=.01:6  DAYS W/PCP >=.10:4  DAYS W/ PCP >=.50:2 DAYS W/PCP >=1.00:1 MSDP AMTS W/DATE-TIME TAGS:MIN:5 0.44  29/1335 MIN:10 0.70  29/1338 MIN:15 0.85  29/1339 MIN:20 0.87  29/1341 MIN:30 0.88  29/1341 MIN:45 0.88  29/1341 MIN:60 0.88  29/1341 MIN:80 0.88  29/1341 MIN:100 0.88  29/1341 MIN:120 1.01  09/0200 MIN:150 1.22  09/0225 MIN:180 1.40  09/0256 AVG DLY MIN:68.4  AVG DLY MAX:90.4  AVG MLY TMP:79.4  MIN TMP:1  DATE(S):26 MAX TMP:99  DATE(S):07 DAYS MAX <=32:0 DAYS MAX >=90:18 DAYS MIN <=32:1  DAYS MIN  <=0:0  AVG STP:29.925 LWST SLP:29.59 DATE/TIME:090151 HGST SLP:30.20 DATE/TIME:131011 HDD MTH TOT:18 DEP NORM:-2553 SEASON(JUL 1-JUN 30):18 DEP NORM:-25536 CDD MTH TOT:472 DEP NORM:-2553 SEASON(JAN 1-DEC 31):969 DEP NORM:-25536,SOM  ,SOM  ,6.0,6.0,72409313764.0,2021-07-29 13:35,2021-07-29 13:38,2021-07-29 13:39,2021-07-29 13:41,2021-07-29 13:41,2021-07-29 13:41,2021-07-29 13:41,2021-07-29 13:41,2021-07-29 13:41,2021-07-09 02:00,2021-07-09 02:25,2021-07-09 02:56,0.44,0.7,0.85,0.87,0.88,0.88,0.88,0.88,0.88,1.01,1.22,1.40,,,delaware
20,4.9,1325.0,400.0,2021-08-31T23:59:00,,3.0,10.0,,,,,,,,,,,,,,,,,,,,,0.0,0.0,,,,,,,,,,,,,,,,,,16,11,0,11s,0.0,0.0,2.5,71.0,-1.0,1.5,3.5,2.25s,,1.99s,07-08,,,,,30.21,15.0,1037.0,86.3,78.1,29.78,31.0,2309.0,69.9,30.04,29.98,5.78s,,,329.0,1.0,SOM792PCP MTOT:5.78 PCP GT 24HRS:1.99 DATE(S):7-8 DAYS W/PCP >=.01:16 DAYS W/PCP >=.10:11 DAYS W/ PCP >=.50:4 DAYS W/PCP >=1.00:1 MSDP AMTS W/DATE-TIME TAGS:MIN:5 0.23  07/2133 MIN:10 0.39  07/2135 MIN:15 0.51  07/2138 MIN:20 0.57  07/2140 MIN:30 0.63  07/2151 MIN:45 0.67  07/2201 MIN:60 0.69  07/2208 MIN:80 0.71  07/2208 MIN:100 0.78  07/2153 MIN:120 0.88  07/2158 MIN:150 0.92  07/2208 MIN:180 0.92  07/2208 AVG DLY MIN:69.9  AVG DLY MAX:86.3  AVG MLY TMP:78.1  MIN TMP:62 DATE(S):02 MAX TMP:97  DATE(S):27 DAYS MAX <=32:0 DAYS MAX >=90:11 DAYS MIN <=32:0  DAYS MIN  <=0:0  AVG STP:29.985 LWST SLP:29.78 DATE/TIME:312309 HGST SLP:30.21 DATE/TIME:151037 HDD MTH TOT:0 DEP NORM:-2553 SEASON(JUL 1-JUN 30):18 DEP NORM:-25536 CDD MTH TOT:416 DEP NORM:-2553 SEASON(JAN 1-DEC 31):1385 DEP NORM:-25536,SOM  ,SOM  ,6.0,6.0,72409313764.0,2021-08-07 21:33,2021-08-07 21:35,2021-08-07 21:38,2021-08-07 21:40,2021-08-07 21:51,2021-08-07 22:01,2021-08-07 22:08,2021-08-07 22:08,2021-08-07 21:53,2021-08-07 21:58,2021-08-07 22:08,2021-08-07 22:08,0.23,0.39,0.51,0.57,0.63,0.67,0.69,0.71,0.78,0.88,0.92,0.92s,,,delaware
21,6.0,1519.0,194.0,2021-09-30T23:59:00,,,3.0,,,,,,,,,,,,,,,,,,,,,11.0,11.0,,,,,,,,,,,,,,,,,,7,3,0,0,0.0,0.0,2.7,52.0,-26.0,3.2,2.1,-1.02s,,1.15,09-09,,,,,30.32,20.0,2208.0,81.3,71.2,29.51,1.0,1822.0,61.0,30.01,29.96,3.11s,,,142.0,37.0,SOM791PCP MTOT:3.11 PCP GT 24HRS:1.15 DATE(S):9 DAYS W/PCP >=.01:7  DAYS W/PCP >=.10:3  DAYS W/ PCP >=.50:3 DAYS W/PCP >=1.00:2 MSDP AMTS W/DATE-TIME TAGS:MIN:5 0.23  01/2039 MIN:10 0.31  01/2044 MIN:15 0.34  01/2048 MIN:20 0.40  01/2044 MIN:30 0.44  01/2051 MIN:45 0.49  01/2109 MIN:60 0.53  01/2124 MIN:80 0.59  23/1303 MIN:100 0.68  23/1303 MIN:120 0.75  23/1340 MIN:150 0.87  23/1353 MIN:180 0.88  23/1403 AVG DLY MIN:61.0  AVG DLY MAX:81.3  AVG MLY TMP:71.2  MIN TMP:49 DATE(S):30 MAX TMP:89  DATE(S):01 DAYS MAX <=32:0 DAYS MAX >=90:0  DAYS MIN <=32:0  DAYS MIN  <=0:0  AVG STP:29.955 LWST SLP:29.51 DATE/TIME:011822 HGST SLP:30.32 DATE/TIME:202208 HDD MTH TOT:10 DEP NORM:-2553 SEASON(JUL 1-JUN 30):28 DEP NORM:-25536 CDD MTH TOT:202 DEP NORM:-2553 SEASON(JAN 1-DEC 31):1587 DEP NORM:-25536,SOM  ,SOM  ,6.0,6.0,72409313764.0,2021-09-01 20:39,2021-09-01 20:44,2021-09-01 20:48,2021-09-01 20:44,2021-09-01 20:51,2021-09-01 21:09,2021-09-01 21:24,2021-09-23 13:03,2021-09-23 13:03,2021-09-23 13:40,2021-09-23 13:53,2021-09-23 14:03,0.23,0.31,0.34,0.4,0.44,0.49,0.53,0.59,0.68,0.75,0.87,0.88,,,delaware
22,6.5,1585.0,66.0,2021-10-31T23:59:00,,3.0,2.0,,,,,,,,,,,,,,,,,,,,,95.0,85.0,,,,,,,,,,,,,,,,,,9,6,0,0,0.0,0.0,6.7,43.0,-163.0,5.4,8.0,-0.30s,,1.42,29-29,,,,,30.36,6.0,1145.0,73.6,64.5,29.43,29.0,1729.0,55.3,29.97,29.91,3.42s,,,23.0,248.0,SOM792PCP MTOT:3.42 PCP GT 24HRS:1.42 DATE(S):29 DAYS W/PCP >=.01:9  DAYS W/PCP >=.10:6  DAYS W/ PCP >=.50:2 DAYS W/PCP >=1.00:1 MSDP AMTS W/DATE-TIME TAGS:MIN:5 0.24  29/1630 MIN:10 0.37  29/1634 MIN:15 0.50  29/1632 MIN:20 0.68  29/1631 MIN:30 0.90  29/1633 MIN:45 1.02  29/1638 MIN:60 1.07  29/1646 MIN:80 1.09  29/1646 MIN:100 1.14  29/1639 MIN:120 1.23  29/1646 MIN:150 1.28  29/1646 MIN:180 1.32  29/1641 AVG DLY MIN:55.3  AVG DLY MAX:73.6  AVG MLY TMP:64.5  MIN TMP:41 DATE(S):19 MAX TMP:86  DATE(S):03 DAYS MAX <=32:0 DAYS MAX >=90:0  DAYS MIN <=32:0  DAYS MIN  <=0:0  AVG STP:29.915 LWST SLP:29.43 DATE/TIME:291729 HGST SLP:30.36 DATE/TIME:061145 HDD MTH TOT:77 DEP NORM:-2553 SEASON(JUL 1-JUN 30):105 DEP NORM:-25536 CDD MTH TOT:70 DEP NORM:-2553 SEASON(JAN 1-DEC 31):1657 DEP NORM:-25536,SOM  ,SOM  ,6.0,6.0,72409313764.0,2021-10-29 16:30,2021-10-29 16:34,2021-10-29 16:32,2021-10-29 16:31,2021-10-29 16:33,2021-10-29 16:38,2021-10-29 16:46,2021-10-29 16:46,2021-10-29 16:39,2021-10-29 16:46,2021-10-29 16:46,2021-10-29 16:41,0.24,0.37,0.5,0.68,0.9,1.02,1.07,1.09,1.14,1.23,1.28,1.32,,,delaware
23,5.6,1585.0,0.0,2021-11-30T23:59:00,,1.0,,,,,,,,,,,,,,,,,,,,,,657.0,562.0,,,,,,,,,,,,,,,,,,5,3,9,0,0.0,0.0,-2.2,-2.0,64.0,-1.2,-3.2,-2.44s,,0.30,12-12,,,,,30.59,20.0,1021.0,57.2,46.3,29.69,13.0,1222.0,35.3,30.11,30.06,0.92s,,,2.0,498.0,SOM795PCP MTOT:0.92 PCP GT 24HRS:0.30 DATE(S):12 DAYS W/PCP >=.01:5  DAYS W/PCP >=.10:3  DAYS W/ PCP >=.50:0 DAYS W/PCP >=1.00:0 MSDP AMTS W/DATE-TIME TAGS:MIN:5 0.04  12/0909 MIN:10 0.08  12/0909 MIN:15 0.11  12/0909 MIN:20 0.12  12/0914 MIN:30 0.15  12/0921 MIN:45 0.16  12/0930 MIN:60 0.16  12/0930 MIN:80 0.17  12/1005 MIN:100 0.18  26/0429 MIN:120 0.21  26/0429 MIN:150 0.24  26/0429 MIN:180 0.25  26/0448 AVG DLY MIN:35.3  AVG DLY MAX:57.2  AVG MLY TMP:46.3  MIN TMP:25 DATE(S):30 MAX TMP:73  DATE(S):18 09 DAYS MAX <=32:0 DAYS MAX >=90:0  DAYS MIN <=32:9  DAYS MIN  <=0:0  AVG STP:30.060 LWST SLP:29.69 DATE/TIME:131222 HGST SLP:30.59 DATE/TIME:201021 HDD MTH TOT:556 DEP NORM:-2553 SEASON(JUL 1-JUN 30):661 DEP NORM:-25536 CDD MTH TOT:0 DEP NORM:-2553 SEASON(JAN 1-DEC 31):1657 DEP NORM:-25536,SOM  ,SOM  ,6.0,6.0,72409313764.0,2021-11-12 09:09,2021-11-12 09:09,2021-11-12 09:09,2021-11-12 09:14,2021-11-12 09:21,2021-11-12 09:30,2021-11-12 09:30,2021-11-12 10:05,2021-11-26 04:29,2021-11-26 04:29,2021-11-26 04:29,2021-11-26 04:48,0.04,0.08,0.11,0.12,0.15,0.16,0.16,0.17,0.18,0.21,0.24,0.25,,,delaware
24,5.8,1585.0,0.0,2021-12-31T23:59:00,,1.0,,,,,,,,,,,,,,,,,,,,,,1257.0,601.0,,,,,,,,,,,,,,,,,,12,3,16,0,0.0,0.0,6.4,0.0,-197.0,7.6,5.1,-2.44s,,0.34s,29-30,,,,,30.59,15.0,313.0,55.7,45.6,29.54,25.0,1617.0,35.5,30.06,30.0,0.85s,,,-7777.0,798.0,SOM799PCP MTOT:0.85 PCP GT 24HRS:0.34 DATE(S):29-30 DAYS W/PCP >=.01:12 DAYS W/PCP >=.10:3  DAYS W/ PCP >=.50:0 DAYS W/PCP >=1.00:0 MSDP AMTS W/DATE-TIME TAGS:MIN:5 0.05  29/2050 MIN:10 0.06  29/2052 MIN:15 0.07  29/2100 MIN:20 0.08  29/2100 MIN:30 0.11  29/2052 MIN:45 0.14  29/2106 MIN:60 0.17  29/2100 MIN:80 0.19  29/2106 MIN:100 0.20  29/2106 MIN:120 0.21  29/2125 MIN:150 0.21  29/2125 MIN:180 0.21  29/2244 AVG DLY MIN:35.5  AVG DLY MAX:55.7  AVG MLY TMP:45.6  MIN TMP:23 DATE(S):21 09 MAX TMP:70  DATE(S):11 DAYS MAX <=32:0 DAYS MAX >=90:0  DAYS MIN <=32:16 DAYS MIN  <=0:0  AVG STP:30.000 LWST SLP:29.54 DATE/TIME:251617 HGST SLP:30.59 DATE/TIME:150313 HDD MTH TOT:591 DEP NORM:-2553 SEASON(JUL 1-JUN 30):1252 DEP NORM:-25536 CDD MTH TOT:0 DEP NORM:-2553 SEASON(JAN 1-DEC 31):1657 DEP NORM:-25536,SOM  ,SOM  ,6.0,6.0,72409313764.0,2021-12-29 20:50,2021-12-29 20:52,2021-12-29 21:00,2021-12-29 21:00,2021-12-29 20:52,2021-12-29 21:06,2021-12-29 21:00,2021-12-29 21:06,2021-12-29 21:06,2021-12-29 21:25,2021-12-29 21:25,2021-12-29 22:44,0.05,0.06,0.07,0.08,0.11,0.14,0.17,0.19,0.2,0.21,0.21,0.21,,,delaware
25,7.6,0.0,0.0,2021-01-31T23:59:00,3.0,1.0,,,,,,,,,,,,,,,,,,,,,,3087.0,1114.0,,,,,,,,,,,,,,,,,,8,5,30,0,0.0,7.0,2.9,0.0,-92.0,2.1,3.6,-0.80,,1.62,16-16,3,27.0,1.8,26-26,30.53,1.0,851.0,36.6,29.0,29.29,16.0,1442.0,21.3,29.97,29.78,2.43,5.0,,0.0,1206.0,SOM794PCP MTOT:2.42 PCP GT 24HRS:1.62 DATE(S):16 DAYS W/PCP >=.01:7  DAYS W/PCP >=.10:4  DAYS W/ PCP >=.50:0 DAYS W/PCP >=1.00:0 MSDP AMTS W/DATE-TIME TAGS:MIN:5 0.04  16/0729 MIN:10 0.07  16/0503 MIN:15 0.10  16/0503 MIN:20 0.13  16/0506 MIN:30 0.18  16/0514 MIN:45 0.26  16/0514 MIN:60 0.33  16/0519 MIN:80 0.42  16/0514 MIN:100 0.50  16/0525 MIN:120 0.58  16/0525 MIN:150 0.68  16/0555 MIN:180 0.79  16/0731 AVG DLY MIN:21.3  AVG DLY MAX:36.6  AVG MLY TMP:29.0  MIN TMP:1  DATE(S):31 30 MAX TMP:48  DATE(S):02 DAYS MAX <=32:7 DAYS MAX >=90:0  DAYS MIN <=32:30 DAYS MIN  <=0:0  AVG STP:29.775 LWST SLP:29.29 DATE/TIME:161442 HGST SLP:30.54 DATE/TIME:010929 HDD MTH TOT:1109 DEP NORM:-2553 SEASON(JUL 1-JUN 30):3066 DEP NORM:-25536 CDD MTH TOT:0 DEP NORM:-2553 SEASON(JAN 1-DEC 31):0 DEP NORM:-25536,SOM  ,SOM  ,6.0,6.0,72508014740.0,2021-01-16 07:29,2021-01-16 05:03,2021-01-16 05:03,2021-01-16 05:06,2021-01-16 05:14,2021-01-16 05:14,2021-01-16 05:19,2021-01-16 05:14,2021-01-16 05:25,2021-01-16 05:25,2021-01-16 05:55,2021-01-16 07:31,0.04,0.07,0.1,0.13,0.18,0.26,0.33,0.42,0.5,0.58,0.68,0.79,,,connecticut
26,8.1,0.0,0.0,2021-02-28T23:59:00,4.0,3.0,,,,,,,,,,,,,,,,,,,,,,4104.0,1017.0,,,,,,,,,,,,,,,,,,13,7,28,0,0.0,12.0,-1.1,0.0,29.0,-3.3,1.0,0.46,,1.25,01-02,13,2.0,11.7,01-01,30.51,18.0,651.0,35.2,28.6,29.36,2.0,2251.0,21.9,30.07,29.86,3.35,20.8,,0.0,988.0,SOM792PCP MTOT:3.35 PCP GT 24HRS:1.25 DATE(S):1-2 DAYS W/PCP >=.01:13 DAYS W/PCP >=.10:7  DAYS W/ PCP >=.50:2 DAYS W/PCP >=1.00:1 MSDP AMTS W/DATE-TIME TAGS:MIN:5 0.70  01/1522 MIN:10 0.70  01/1522 MIN:15 0.70  01/1522 MIN:20 0.70  01/1522 MIN:30 0.71  01/1549 MIN:45 0.72  01/1558 MIN:60 0.73  01/1618 MIN:80 0.85  01/1522 MIN:100 0.87  01/1522 MIN:120 0.87  01/1558 MIN:150 0.89  01/1618 MIN:180 0.91  01/1618 AVG DLY MIN:21.9  AVG DLY MAX:35.2  AVG MLY TMP:28.6  MIN TMP:7  DATE(S):10 MAX TMP:48  DATE(S):24 DAYS MAX <=32:1 DAYS MAX >=90:0  DAYS MIN <=32:28 DAYS MIN  <=0:0  AVG STP:29.865 LWST SLP:29.35 DATE/TIME:022227 HGST SLP:30.52 DATE/TIME:180647 HDD MTH TOT:1014 DEP NORM:-2553 SEASON(JUL 1-JUN 30):4080 DEP NORM:-25536 CDD MTH TOT:0 DEP NORM:-2553 SEASON(JAN 1-DEC 31):0 DEP NORM:-25536,SOM  ,SOM  ,6.0,6.0,72508014740.0,2021-02-01 15:22,2021-02-01 15:22,2021-02-01 15:22,2021-02-01 15:22,2021-02-01 15:49,2021-02-01 15:58,2021-02-01 16:18,2021-02-01 15:22,2021-02-01 15:22,2021-02-01 15:58,2021-02-01 16:18,2021-02-01 16:18,0.7,0.7,0.7,0.7,0.71,0.72,0.73,0.85,0.87,0.87,0.89,0.91,,,connecticut
27,9.8,0.0,0.0,2021-03-31T23:59:00,0.0,3.0,,,,,,,,,,,,,,,,,,,,,,4850.0,746.0,,,,,,,,,,,,,,,,,,8,6,21,0,0.0,1.0,3.1,0.0,-97.0,5.1,1.1,-1.12,,0.92,28-28,1,1.0,0.1,17-17,30.58,21.0,1018.0,52.8,40.9,29.44,28.0,1851.0,29.0,30.11,29.93,2.50,0.1,,-7777.0,843.0,SOM793PCP MTOT:2.50 PCP GT 24HRS:0.92 DATE(S):28-29 DAYS W/PCP >=.01:8  DAYS W/PCP >=.10:6  DAYS W/ PCP >=.50:2 DAYS W/PCP >=1.00:0 MSDP AMTS W/DATE-TIME TAGS:MIN:5 0.06  28/1959 MIN:10 0.09  28/1959 MIN:15 0.09  28/2005 MIN:20 0.12  28/1135 MIN:30 0.17  28/1138 MIN:45 0.22  28/1154 MIN:60 0.28  28/1203 MIN:80 0.35  28/1201 MIN:100 0.41  28/1236 MIN:120 0.46  28/1236 MIN:150 0.48  28/1249 MIN:180 0.55  28/1336 AVG DLY MIN:29.0  AVG DLY MAX:52.8  AVG MLY TMP:40.9  MIN TMP:13 DATE(S):02 MAX TMP:77  DATE(S):26 DAYS MAX <=32:1 DAYS MAX >=90:0  DAYS MIN <=32:21 DAYS MIN  <=0:0  AVG STP:29.925 LWST SLP:29.41 DATE/TIME:281928 HGST SLP:30.58 DATE/TIME:211018 HDD MTH TOT:740 DEP NORM:-2553 SEASON(JUL 1-JUN 30):4820 DEP NORM:-25536 CDD MTH TOT:0 DEP NORM:-2553 SEASON(JAN 1-DEC 31):0 DEP NORM:-25536,SOM  ,SOM  ,6.0,6.0,72508014740.0,2021-03-28 19:59,2021-03-28 19:59,2021-03-28 20:05,2021-03-28 11:35,2021-03-28 11:38,2021-03-28 11:54,2021-03-28 12:03,2021-03-28 12:01,2021-03-28 12:36,2021-03-28 12:36,2021-03-28 12:49,2021-03-28 13:36,0.06,0.09,0.09,0.12,0.17,0.22,0.28,0.35,0.41,0.46,0.48,0.55,,,connecticut
28,9.2,0.0,0.0,2021-04-30T23:59:00,0.0,1.0,2.0,,,,,,,,,,,,,,,,,,,,,5265.0,414.0,,,,,,,,,,,,,,,,,,8,5,4,0,0.0,0.0,1.8,-6.0,-58.0,2.7,0.8,-0.96,,1.87,15-16,0,,0.0,22-22,30.33,3.0,751.0,63.2,51.2,29.34,30.0,1351.0,39.2,29.87,29.67,2.76,T,,6.0,472.0,SOM796PCP MTOT:2.70 PCP GT 24HRS:1.81 DATE(S):15-16 DAYS W/PCP >=.01:6  DAYS W/PCP >=.10:3  DAYS W/ PCP >=.50:1 DAYS W/PCP >=1.00:0 MSDP AMTS W/DATE-TIME TAGS:MIN:5 0.07  21/1500 MIN:10 0.09  21/1504 MIN:15 0.09  21/1504 MIN:20 0.11  21/1512 MIN:30 0.14  21/1525 MIN:45 0.18  21/1534 MIN:60 0.18  21/1534 MIN:80 0.21  15/2211 MIN:100 0.25  15/2226 MIN:120 0.29  15/1556 MIN:150 0.36  15/1610 MIN:180 0.42  15/1714 AVG DLY MIN:39.2  AVG DLY MAX:63.2  AVG MLY TMP:51.2  MIN TMP:25 DATE(S):04 03 MAX TMP:78  DATE(S):28 DAYS MAX <=32:0 DAYS MAX >=90:0  DAYS MIN <=32:4  DAYS MIN  <=0:0  AVG STP:29.670 LWST SLP:29.32 DATE/TIME:300256 HGST SLP:30.34 DATE/TIME:030745 HDD MTH TOT:406 DEP NORM:-2553 SEASON(JUL 1-JUN 30):5226 DEP NORM:-25536 CDD MTH TOT:0 DEP NORM:-2553 SEASON(JAN 1-DEC 31):0 DEP NORM:-25536,SOM  ,SOM  ,6.0,6.0,72508014740.0,2021-04-21 15:00,2021-04-21 15:04,2021-04-21 15:04,2021-04-21 15:12,2021-04-21 15:25,2021-04-21 15:34,2021-04-21 15:34,2021-04-15 22:11,2021-04-15 22:26,2021-04-15 15:56,2021-04-15 16:10,2021-04-15 17:14,0.07,0.09,0.09,0.11,0.14,0.18,0.18,0.21,0.25,0.29,0.36,0.42,,,connecticut
29,8.1,36.0,36.0,2021-05-31T23:59:00,0.0,,2.0,,,,,,,,,,,,,,,,,,,,,5463.0,198.0,,,,,,,,,,,,,,,,,,13,9,0,2,0.0,0.0,0.3,3.0,-7.0,0.3,0.3,1.48,,1.89,28-29,0,,0.0,,30.51,21.0,731.0,71.5,59.8,29.59,1.0,51.0,48.0,30.04,29.85,5.83,,,33.0,205.0,SOM798PCP MTOT:5.83 PCP GT 24HRS:1.89 DATE(S):28-29 DAYS W/PCP >=.01:11 DAYS W/PCP >=.10:7  DAYS W/ PCP >=.50:5 DAYS W/PCP >=1.00:1 MSDP AMTS W/DATE-TIME TAGS:MIN:5 0.15  26/2129 MIN:10 0.21  26/2133 MIN:15 0.23  26/2137 MIN:20 0.24  26/2142 MIN:30 0.24  26/2142 MIN:45 0.24  26/1925 MIN:60 0.27  28/2107 MIN:80 0.33  04/0303 MIN:100 0.42  04/0325 MIN:120 0.46  28/2218 MIN:150 0.56  28/2218 MIN:180 0.63  28/2306 AVG DLY MIN:48.0  AVG DLY MAX:71.5  AVG MLY TMP:59.8  MIN TMP:38 DATE(S):13 MAX TMP:90  DATE(S):26 22 DAYS MAX <=32:0 DAYS MAX >=90:2  DAYS MIN <=32:0  DAYS MIN  <=0:0  AVG STP:29.850 LWST SLP:29.58 DATE/TIME:010031 HGST SLP:30.51 DATE/TIME:210731 HDD MTH TOT:191 DEP NORM:-2553 SEASON(JUL 1-JUN 30):5417 DEP NORM:-25536 CDD MTH TOT:37 DEP NORM:-2553 SEASON(JAN 1-DEC 31):37 DEP NORM:-25536,SOM  ,SOM  ,6.0,6.0,72508014740.0,2021-05-26 21:29,2021-05-26 21:33,2021-05-26 21:37,2021-05-26 21:42,2021-05-26 21:42,2021-05-26 19:25,2021-05-28 21:07,2021-05-04 03:03,2021-05-04 03:25,2021-05-28 22:18,2021-05-28 22:18,2021-05-28 23:06,0.15,0.21,0.23,0.24,0.24,0.24,0.27,0.33,0.42,0.46,0.56,0.63,,,connecticut
30,7.4,265.0,229.0,2021-06-30T23:59:00,0.0,1.0,6.0,,,,,,,,,,,,,,,,,,,,,5476.0,13.0,,,,,,,,,,,,,,,,,,8,5,0,9,0.0,0.0,3.7,85.0,-27.0,4.1,3.4,-1.61,,1.05,14-14,0,,0.0,,30.41,24.0,851.0,83.7,72.2,29.58,22.0,133.0,60.7,29.98,29.79,2.74,,,144.0,40.0,SOM796PCP MTOT:2.69 PCP GT 24HRS:1.05 DATE(S):14-15 DAYS W/PCP >=.01:5  DAYS W/PCP >=.10:2  DAYS W/ PCP >=.50:1 DAYS W/PCP >=1.00:1 MSDP AMTS W/DATE-TIME TAGS:MIN:5 0.27  29/1815 MIN:10 0.32  29/1816 MIN:15 0.32  29/1816 MIN:20 0.32  29/1816 MIN:30 0.35  14/0712 MIN:45 0.40  14/0721 MIN:60 0.41  14/0736 MIN:80 0.47  14/0906 MIN:100 0.58  14/0820 MIN:120 0.66  14/0844 MIN:150 0.88  14/0906 MIN:180 0.88  14/0906 AVG DLY MIN:60.7  AVG DLY MAX:83.7  AVG MLY TMP:72.2  MIN TMP:43 DATE(S):01 MAX TMP:99  DATE(S):29 DAYS MAX <=32:0 DAYS MAX >=90:9  DAYS MIN <=32:0  DAYS MIN  <=0:0  AVG STP:29.790 LWST SLP:29.58 DATE/TIME:220133 HGST SLP:30.42 DATE/TIME:240820 HDD MTH TOT:12 DEP NORM:-2553 SEASON(JUL 1-JUN 30):5429 DEP NORM:-25536 CDD MTH TOT:237 DEP NORM:-2553 SEASON(JAN 1-DEC 31):274 DEP NORM:-25536,SOM  ,SOM  ,6.0,6.0,72508014740.0,2021-06-29 18:15,2021-06-29 18:16,2021-06-29 18:16,2021-06-29 18:16,2021-06-14 07:12,2021-06-14 07:21,2021-06-14 07:36,2021-06-14 09:06,2021-06-14 08:20,2021-06-14 08:44,2021-06-14 09:06,2021-06-14 09:06,0.27,0.32,0.32,0.32,0.35,0.4,0.41,0.47,0.58,0.66,0.88,0.88,,,connecticut
31,6.0,519.0,253.0,2021-07-31T23:59:00,0.0,4.0,10.0,,,,,,,,,,,,,,,,,,,,,7.0,7.0,,,,,,,,,,,,,,,,,,19,14,0,5,0.0,0.0,-0.6,-16.0,4.0,-2.7,1.4,5.97,,2.42,02-03,0,,T,07-07,30.27,13.0,1051.0,81.8,73.0,29.66,30.0,153.0,64.1,29.97,28.9,10.15,T,,269.0,3.0,SOM797PCP MTOT:10.15 PCP GT 24HRS:2.42 DATE(S):2-3 DAYS W/PCP >=.01:15 DAYS W/PCP >=.10:11 DAYS W/ PCP >=.50:6 DAYS W/PCP >=1.00:2 MSDP AMTS W/DATE-TIME TAGS:MIN:5 0.44  06/1559 MIN:10 0.72  06/1559 MIN:15 0.96  06/1604 MIN:20 1.13  06/1608 MIN:30 1.14  06/1609 MIN:45 1.14  06/1609 MIN:60 1.15  06/1639 MIN:80 1.15  06/1639 MIN:100 1.15  06/1639 MIN:120 1.15  06/1639 MIN:150 1.15  06/1639 MIN:180 1.15  06/1639 AVG DLY MIN:64.1  AVG DLY MAX:81.8  AVG MLY TMP:73.0  MIN TMP:52 DATE(S):31 MAX TMP:93  DATE(S):16 07 06 DAYS MAX <=32:0 DAYS MAX >=90:5  DAYS MIN <=32:0  DAYS MIN  <=0:0  AVG STP:28.905 LWST SLP:29.66 DATE/TIME:300153 HGST SLP:30.28 DATE/TIME:131034 HDD MTH TOT:6 DEP NORM:-2553 SEASON(JUL 1-JUN 30):6 DEP NORM:-25536 CDD MTH TOT:261 DEP NORM:-2553 SEASON(JAN 1-DEC 31):535 DEP NORM:-25536,SOM  ,SOM  ,6.0,6.0,72508014740.0,2021-07-06 15:59,2021-07-06 15:59,2021-07-06 16:04,2021-07-06 16:08,2021-07-06 16:09,2021-07-06 16:09,2021-07-06 16:39,2021-07-06 16:39,2021-07-06 16:39,2021-07-06 16:39,2021-07-06 16:39,2021-07-06 16:39,0.44,0.72,0.96,1.13,1.14,1.14,1.15,1.15,1.15,1.15,1.15,1.15,,,connecticut
32,6.0,823.0,305.0,2021-08-31T23:59:00,0.0,2.0,5.0,,,,,,,,,,,,,,,,,,,,,7.0,0.0,,,,,,,,,,,,,,,,,,9,5,0,8,0.0,0.0,2.9,82.0,-9.0,1.3,4.5,4.87,,3.46,19-19,0,,0.0,,30.31,28.0,2151.0,84.0,74.8,29.62,22.0,1751.0,65.6,30.02,29.83,8.80,,,223.0,9.0,SOM795PCP MTOT:8.80 PCP GT 24HRS:3.46 DATE(S):19 DAYS W/PCP >=.01:7  DAYS W/PCP >=.10:3  DAYS W/ PCP >=.50:2 DAYS W/PCP >=1.00:2 MSDP AMTS W/DATE-TIME TAGS:MIN:5 0.48  19/0705 MIN:10 0.82  19/0707 MIN:15 1.04  19/0707 MIN:20 1.41  19/0705 MIN:30 1.88  19/0709 MIN:45 2.33  19/0711 MIN:60 2.55  19/0711 MIN:80 2.74  19/0714 MIN:100 2.86  19/0717 MIN:120 2.91  19/0717 MIN:150 3.12  19/0717 MIN:180 3.23  19/0717 AVG DLY MIN:65.6  AVG DLY MAX:84.0  AVG MLY TMP:74.8  MIN TMP:53 DATE(S):03 01 MAX TMP:95  DATE(S):13 12 DAYS MAX <=32:0 DAYS MAX >=90:8  DAYS MIN <=32:0  DAYS MIN  <=0:0  AVG STP:29.835 LWST SLP:29.57 DATE/TIME:221457 HGST SLP:30.32 DATE/TIME:281011 HDD MTH TOT:0 DEP NORM:-2553 SEASON(JUL 1-JUN 30):6 DEP NORM:-25536 CDD MTH TOT:312 DEP NORM:-2553 SEASON(JAN 1-DEC 31):847 DEP NORM:-25536,SOM  ,SOM  ,6.0,6.0,72508014740.0,2021-08-19 07:05,2021-08-19 07:07,2021-08-19 07:07,2021-08-19 07:05,2021-08-19 07:09,2021-08-19 07:11,2021-08-19 07:11,2021-08-19 07:14,2021-08-19 07:17,2021-08-19 07:17,2021-08-19 07:17,2021-08-19 07:17,0.48,0.82,1.04,1.41,1.88,2.33,2.55,2.74,2.86,2.91,3.12,3.23,,,connecticut
33,6.7,899.0,76.0,2021-09-30T23:59:00,0.0,1.0,3.0,,,,,,,,,,,,,,,,,,,,,51.0,44.0,,,,,,,,,,,,,,,,,,8,6,0,0,0.0,0.0,2.3,2.0,-66.0,1.2,3.4,2.93,,5.27,01-02,0,,0.0,,30.41,21.0,904.0,76.1,66.1,29.65,2.0,407.0,56.1,29.99,29.8,6.81,,,74.0,110.0,SOM761PCP MTOT:T PCP GT 24HRS:T DATE(S):29 DAYS W/PCP >=.01:0  DAYS W/PCP >=.10:0  DAYS W/ PCP >=.50:0 DAYS W/PCP >=1.00:0 MSDP AMTS W/DATE-TIME TAGS:MIN: 5/T MIN:10/T MIN:15 0.00    /     MIN:20 0.00    /     MIN:30 0.00    /     MIN:45 0.00    /     MIN:60 0.00    /     MIN:80 0.00    /     MIN:100 0.00    /     MIN:120 0.00    /     MIN:150 0.00    /     MIN:180 0.00    /     AVG DLY MIN:56.1  AVG DLY MAX:76.1  AVG MLY TMP:66.1  MIN TMP:44 DATE(S):30 MAX TMP:86  DATE(S):15 DAYS MAX <=32:0 DAYS MAX >=90:0  DAYS MIN <=32:0  DAYS MIN  <=0:0  AVG STP:29.800 LWST SLP:29.65 DATE/TIME:020407 HGST SLP:30.41 DATE/TIME:210904 HDD MTH TOT:34 DEP NORM:-2553 SEASON(JUL 1-JUN 30):40 DEP NORM:-25536 CDD MTH TOT:81 DEP NORM:-2553 SEASON(JAN 1-DEC 31):928 DEP NORM:-25536,SOM  ,SOM  ,6.0,6.0,72508014740.0,,,,,,,,,,,,,,,,,,,,,,,,,,,connecticut
34,6.7,902.0,2.0,2021-10-31T23:59:00,0.0,5.0,,,,,,,,,,,,,,,,,,,,,,290.0,239.0,,,,,,,,,,,,,,,,,,12,7,0,0,0.0,0.0,5.3,-5.0,-168.0,3.7,6.8,0.30,,1.81,04-04,0,,0.0,,30.4,6.0,956.0,66.8,57.4,29.41,31.0,351.0,47.9,29.97,29.78,4.67,,,7.0,407.0,SOM790PCP MTOT:4.67 PCP GT 24HRS:1.81 DATE(S):4 DAYS W/PCP >=.01:10 DAYS W/PCP >=.10:5  DAYS W/ PCP >=.50:1 DAYS W/PCP >=1.00:1 MSDP AMTS W/DATE-TIME TAGS:MIN:5 0.08  04/0207 MIN:10 0.11  04/0210 MIN:15 0.14  04/0214 MIN:20 0.17  04/0217 MIN:30 0.22  04/0210 MIN:45 0.29  04/0227 MIN:60 0.36  04/0239 MIN:80 0.41  04/0259 MIN:100 0.46  04/0322 MIN:120 0.54  04/0341 MIN:150 0.60  04/0405 MIN:180 0.68  04/0442 AVG DLY MIN:47.9  AVG DLY MAX:66.8  AVG MLY TMP:57.4  MIN TMP:34 DATE(S):29 MAX TMP:79  DATE(S):15 DAYS MAX <=32:0 DAYS MAX >=90:0  DAYS MIN <=32:0  DAYS MIN  <=0:0  AVG STP:29.780 LWST SLP:29.40 DATE/TIME:310342 HGST SLP:30.40 DATE/TIME:060956 HDD MTH TOT:232 DEP NORM:-2553 SEASON(JUL 1-JUN 30):272 DEP NORM:-25536 CDD MTH TOT:3 DEP NORM:-2553 SEASON(JAN 1-DEC 31):931 DEP NORM:-25536,SOM  ,SOM  ,6.0,6.0,72508014740.0,2021-10-04 02:07,2021-10-04 02:10,2021-10-04 02:14,2021-10-04 02:17,2021-10-04 02:10,2021-10-04 02:27,2021-10-04 02:39,2021-10-04 02:59,2021-10-04 03:22,2021-10-04 03:41,2021-10-04 04:05,2021-10-04 04:42,0.08,0.11,0.14,0.17,0.22,0.29,0.36,0.41,0.46,0.54,0.6,0.68,,,connecticut
35,6.3,902.0,0.0,2021-11-30T23:59:00,0.0,2.0,1.0,,,,,,,,,,,,,,,,,,,,,994.0,704.0,,,,,,,,,,,,,,,,,,8,3,20,0,0.0,0.0,-0.9,0.0,26.0,0.7,-2.6,-1.94,,1.12,12-12,0,,0.0,30-30,30.58,20.0,1012.0,52.3,41.5,29.49,26.0,1351.0,30.6,30.06,29.86,1.95,T,,-7777.0,678.0,SOM791PCP MTOT:1.95 PCP GT 24HRS:1.12 DATE(S):12 DAYS W/PCP >=.01:8  DAYS W/PCP >=.10:3  DAYS W/ PCP >=.50:1 DAYS W/PCP >=1.00:1 MSDP AMTS W/DATE-TIME TAGS:MIN:5 0.16  12/1332 MIN:10 0.25  12/1332 MIN:15 0.31  12/1337 MIN:20 0.38  12/1342 MIN:30 0.43  12/1345 MIN:45 0.48  12/1345 MIN:60 0.52  12/1415 MIN:80 0.59  12/1425 MIN:100 0.62  12/1425 MIN:120 0.64  12/1425 MIN:150 0.67  12/1415 MIN:180 0.71  12/1413 AVG DLY MIN:30.6  AVG DLY MAX:52.3  AVG MLY TMP:41.5  MIN TMP:21 DATE(S):30 MAX TMP:70  DATE(S):09 DAYS MAX <=32:0 DAYS MAX >=90:0  DAYS MIN <=32:20 DAYS MIN  <=0:0  AVG STP:29.860 LWST SLP:29.46 DATE/TIME:131604 HGST SLP:30.58 DATE/TIME:201012 HDD MTH TOT:694 DEP NORM:-2553 SEASON(JUL 1-JUN 30):966 DEP NORM:-25536 CDD MTH TOT:0 DEP NORM:-2553 SEASON(JAN 1-DEC 31):931 DEP NORM:-25536,SOM  ,SOM  ,6.0,6.0,72508014740.0,2021-11-12 13:32,2021-11-12 13:32,2021-11-12 13:37,2021-11-12 13:42,2021-11-12 13:45,2021-11-12 13:45,2021-11-12 14:15,2021-11-12 14:25,2021-11-12 14:25,2021-11-12 14:25,2021-11-12 14:15,2021-11-12 14:13,0.16,0.25,0.31,0.38,0.43,0.48,0.52,0.59,0.62,0.64,0.67,0.71,,,connecticut
36,6.5,902.0,0.0,2021-12-31T23:59:00,2.0,2.0,1.0,,,,,,,,,,,,,,,,,,,,,1831.0,837.0,,,,,,,,,,,,,,,,,,16,11,21,0,0.0,1.0,6.4,0.0,-200.0,6.1,6.7,-0.49,,0.68,18-19,2,25.0,2.1,24-24,30.69,15.0,923.0,45.8,38.0,29.47,11.0,2151.0,30.1,30.02,29.82,2.95,4.2,,0.0,1037.0,SOM795PCP MTOT:2.95 PCP GT 24HRS:0.68 DATE(S):18-19 DAYS W/PCP >=.01:16 DAYS W/PCP >=.10:11 DAYS W/ PCP >=.50:1 DAYS W/PCP >=1.00:0 MSDP AMTS W/DATE-TIME TAGS:MIN:5 0.11  11/2256 MIN:10 0.16  11/2259 MIN:15 0.17  11/2301 MIN:20 0.17  11/2301 MIN:30 0.18  11/2301 MIN:45 0.19  11/2301 MIN:60 0.19  11/2301 MIN:80 0.19  19/0006 MIN:100 0.20  19/0029 MIN:120 0.21  19/0049 MIN:150 0.23  19/0120 MIN:180 0.25  19/0147 AVG DLY MIN:30.1  AVG DLY MAX:45.8  AVG MLY TMP:38.0  MIN TMP:17 DATE(S):20 MAX TMP:63  DATE(S):16 DAYS MAX <=32:1 DAYS MAX >=90:0  DAYS MIN <=32:21 DAYS MIN  <=0:0  AVG STP:29.820 LWST SLP:29.44 DATE/TIME:112238 HGST SLP:30.69 DATE/TIME:150923 HDD MTH TOT:830 DEP NORM:-2553 SEASON(JUL 1-JUN 30):1796 DEP NORM:-25536 CDD MTH TOT:0 DEP NORM:-2553 SEASON(JAN 1-DEC 31):931 DEP NORM:-25536,SOM  ,SOM  ,6.0,6.0,72508014740.0,2021-12-11 22:56,2021-12-11 22:59,2021-12-11 23:01,2021-12-11 23:01,2021-12-11 23:01,2021-12-11 23:01,2021-12-11 23:01,2021-12-19 00:06,2021-12-19 00:29,2021-12-19 00:49,2021-12-19 01:20,2021-12-19 01:47,0.11,0.16,0.17,0.17,0.18,0.19,0.19,0.19,0.2,0.21,0.23,0.25,,,connecticut
37,9.2,0.0,0.0,2021-01-31T23:59:00,2.0,2.0,,,,,,,,,,,,,,,,,,,,,,3194.0,962.0,,,,,,,,,,,,,,,,,,2,1,30,0,0.0,4.0,3.2,0.0,-101.0,2.2,4.2,-0.19,,0.16,09-09,2,10.0,1.9,09-09,30.5,19.0,953.0,46.2,33.9,29.47,30.0,153.0,21.6,30.04,24.58,0.22,3.1,,0.0,1063.0,SOM793PCP MTOT:0.22 PCP GT 24HRS:0.16 DATE(S):9-10+ DAYS W/PCP >=.01:2  DAYS W/PCP >=.10:1  DAYS W/ PCP >=.50:0 DAYS W/PCP >=1.00:0 MSDP AMTS W/DATE-TIME TAGS:MIN:5 0.01  26/2127 MIN:10 0.02  09/1630 MIN:15 0.02  09/1630 MIN:20 0.03  09/1630 MIN:30 0.04  09/1630 MIN:45 0.05  09/1630 MIN:60 0.06  09/1648 MIN:80 0.06  09/1718 MIN:100 0.07  09/1718 MIN:120 0.08  09/1754 MIN:150 0.09  09/1822 MIN:180 0.09  09/1859 AVG DLY MIN:21.6  AVG DLY MAX:46.2  AVG MLY TMP:33.9  MIN TMP:2  DATE(S):27 MAX TMP:63  DATE(S):13 DAYS MAX <=32:4 DAYS MAX >=90:0  DAYS MIN <=32:30 DAYS MIN  <=0:0  AVG STP:24.580 LWST SLP:29.46 DATE/TIME:300220 HGST SLP:30.51 DATE/TIME:190934 HDD MTH TOT:956 DEP NORM:-2553 SEASON(JUL 1-JUN 30):3175 DEP NORM:-25536 CDD MTH TOT:0 DEP NORM:-2553 SEASON(JAN 1-DEC 31):0 DEP NORM:-25536,SOM  ,SOM  ,6.0,6.0,72565003017.0,2021-01-26 21:27,2021-01-09 16:30,2021-01-09 16:30,2021-01-09 16:30,2021-01-09 16:30,2021-01-09 16:30,2021-01-09 16:48,2021-01-09 17:18,2021-01-09 17:18,2021-01-09 17:54,2021-01-09 18:22,2021-01-09 18:59,0.01,0.02,0.02,0.03,0.04,0.05,0.06,0.06,0.07,0.08,0.09,0.09,,,colorado
38,9.8,0.0,0.0,2021-02-28T23:59:00,4.0,5.0,,,,,,,,,,,,,,,,,,,,,,4300.0,1107.0,,,,,,,,,,,,,,,,,,7,4,28,0,5.0,9.0,-7.1,0.0,199.0,-7.8,-6.6,0.43,,0.45,24-25,10,25.0,5.3,24-24,30.45,14.0,853.0,38.4,25.4,29.49,3.0,1453.0,12.3,29.98,24.47,0.80,13.5,,0.0,908.0,SOM794PCP MTOT:0.80 PCP GT 24HRS:0.45 DATE(S):24-25 DAYS W/PCP >=.01:7  DAYS W/PCP >=.10:4  DAYS W/ PCP >=.50:0 DAYS W/PCP >=1.00:0 MSDP AMTS W/DATE-TIME TAGS:MIN:5 0.06  25/0110 MIN:10 0.06  25/0110 MIN:15 0.06  25/0110 MIN:20 0.07  25/0123 MIN:30 0.08  25/0110 MIN:45 0.09  25/0141 MIN:60 0.11  25/0141 MIN:80 0.12  25/0159 MIN:100 0.14  25/0159 MIN:120 0.18  25/0109 MIN:150 0.21  25/0110 MIN:180 0.25  25/0110 AVG DLY MIN:12.3  AVG DLY MAX:38.4  AVG MLY TMP:25.4  MIN TMP:-16DATE(S):15 MAX TMP:67  DATE(S):03 DAYS MAX <=32:9 DAYS MAX >=90:0  DAYS MIN <=32:28 DAYS MIN  <=0:5  AVG STP:24.475 LWST SLP:29.48 DATE/TIME:031440 HGST SLP:30.46 DATE/TIME:140804 HDD MTH TOT:1104 DEP NORM:-2553 SEASON(JUL 1-JUN 30):4279 DEP NORM:-25536 CDD MTH TOT:0 DEP NORM:-2553 SEASON(JAN 1-DEC 31):0 DEP NORM:-25536,SOM  ,SOM  ,6.0,6.0,72565003017.0,2021-02-25 01:10,2021-02-25 01:10,2021-02-25 01:10,2021-02-25 01:23,2021-02-25 01:10,2021-02-25 01:41,2021-02-25 01:41,2021-02-25 01:59,2021-02-25 01:59,2021-02-25 01:09,2021-02-25 01:10,2021-02-25 01:10,0.06,0.06,0.06,0.07,0.08,0.09,0.11,0.12,0.14,0.18,0.21,0.25,,,colorado
39,10.7,0.0,0.0,2021-03-31T23:59:00,6.0,4.0,1.0,,,,,,,,,,,,,,,,,,,,,5092.0,792.0,,,,,,,,,,,,,,,,,,10,6,25,0,0.0,1.0,-1.0,0.0,29.0,-3.2,1.2,2.88,,2.28,14-14,16,15.0,19.9,14-14,30.44,31.0,2136.0,51.2,39.4,29.32,29.0,1521.0,27.6,29.95,24.55,3.80,34.0,,-7777.0,763.0,SOM793PCP MTOT:2.94 PCP GT 24HRS:1.49 DATE(S):13-14 DAYS W/PCP >=.01:10 DAYS W/PCP >=.10:6  DAYS W/ PCP >=.50:2 DAYS W/PCP >=1.00:1 MSDP AMTS W/DATE-TIME TAGS:MIN:5 0.28  14/1931 MIN:10 0.38  14/1936 MIN:15 0.38  14/1936 MIN:20 0.38  14/1936 MIN:30 0.38  14/1936 MIN:45 0.39  14/2000 MIN:60 0.52  14/1936 MIN:80 0.59  14/1936 MIN:100 0.60  14/2000 MIN:120 0.62  14/1936 MIN:150 0.64  14/2000 MIN:180 0.66  14/2000 AVG DLY MIN:27.6  AVG DLY MAX:51.2  AVG MLY TMP:39.4  MIN TMP:16 DATE(S):15 MAX TMP:75  DATE(S):29 DAYS MAX <=32:1 DAYS MAX >=90:0  DAYS MIN <=32:25 DAYS MIN  <=0:0  AVG STP:24.545 LWST SLP:29.32 DATE/TIME:291521 HGST SLP:30.44 DATE/TIME:312136 HDD MTH TOT:785 DEP NORM:-2553 SEASON(JUL 1-JUN 30):5064 DEP NORM:-25536 CDD MTH TOT:0 DEP NORM:-2553 SEASON(JAN 1-DEC 31):0 DEP NORM:-25536,SOM  ,SOM  ,6.0,6.0,72565003017.0,2021-03-14 19:31,2021-03-14 19:36,2021-03-14 19:36,2021-03-14 19:36,2021-03-14 19:36,2021-03-14 20:00,2021-03-14 19:36,2021-03-14 19:36,2021-03-14 20:00,2021-03-14 19:36,2021-03-14 20:00,2021-03-14 20:00,0.28,0.38,0.38,0.38,0.38,0.39,0.52,0.59,0.6,0.62,0.64,0.66,,,colorado
40,10.3,0.0,0.0,2021-04-30T23:59:00,4.0,5.0,1.0,,,,,,,,,,,,,,,,,,,,,5655.0,563.0,,,,,,,,,,,,,,,,,,8,7,16,0,0.0,0.0,-1.2,-1.0,34.0,-1.7,-0.7,0.31,,0.93,27-28,5,16.0,4.2,15-15,30.34,20.0,653.0,59.8,46.2,29.31,26.0,1553.0,32.6,29.92,24.55,2.02,12.6,,1.0,529.0,SOM793PCP MTOT:1.94 PCP GT 24HRS:0.93 DATE(S):27-28 DAYS W/PCP >=.01:7  DAYS W/PCP >=.10:5  DAYS W/ PCP >=.50:1 DAYS W/PCP >=1.00:0 MSDP AMTS W/DATE-TIME TAGS:MIN:5 0.04  27/1121 MIN:10 0.07  27/1123 MIN:15 0.10  27/1123 MIN:20 0.13  27/1123 MIN:30 0.16  27/1131 MIN:45 0.21  27/1135 MIN:60 0.22  27/2001 MIN:80 0.26  27/2001 MIN:100 0.29  27/2023 MIN:120 0.31  27/2042 MIN:150 0.36  27/2117 MIN:180 0.38  27/2142 AVG DLY MIN:32.6  AVG DLY MAX:59.8  AVG MLY TMP:46.2  MIN TMP:15 DATE(S):20 MAX TMP:81  DATE(S):05 DAYS MAX <=32:0 DAYS MAX >=90:0  DAYS MIN <=32:16 DAYS MIN  <=0:0  AVG STP:24.555 LWST SLP:29.30 DATE/TIME:261537 HGST SLP:30.36 DATE/TIME:200617 HDD MTH TOT:559 DEP NORM:-2553 SEASON(JUL 1-JUN 30):5623 DEP NORM:-25536 CDD MTH TOT:0 DEP NORM:-2553 SEASON(JAN 1-DEC 31):0 DEP NORM:-25536,SOM  ,SOM  ,6.0,6.0,72565003017.0,2021-04-27 11:21,2021-04-27 11:23,2021-04-27 11:23,2021-04-27 11:23,2021-04-27 11:31,2021-04-27 11:35,2021-04-27 20:01,2021-04-27 20:01,2021-04-27 20:23,2021-04-27 20:42,2021-04-27 21:17,2021-04-27 21:42,0.04,0.07,0.1,0.13,0.16,0.21,0.22,0.26,0.29,0.31,0.36,0.38,,,colorado
41,9.4,9.0,9.0,2021-05-31T23:59:00,0.0,5.0,9.0,,,,,,,,,,,,,,,,,,,,,5940.0,285.0,,,,,,,,,,,,,,,,,,13,9,1,0,0.0,0.0,-1.0,-12.0,20.0,-3.4,1.4,1.53,,1.28,22-23,0,,0.0,11-11,30.3,6.0,728.0,68.1,56.1,29.39,2.0,156.0,44.1,29.9,24.6,3.65,T,,21.0,265.0,SOM796PCP MTOT:3.65 PCP GT 24HRS:1.28 DATE(S):22-23 DAYS W/PCP >=.01:12 DAYS W/PCP >=.10:8  DAYS W/ PCP >=.50:3 DAYS W/PCP >=1.00:0 MSDP AMTS W/DATE-TIME TAGS:MIN:5 0.32  22/1353 MIN:10 0.59  22/1356 MIN:15 0.78  22/1401 MIN:20 0.86  22/1403 MIN:30 0.93  22/1406 MIN:45 0.97  22/1411 MIN:60 0.98  22/1431 MIN:80 0.99  22/1431 MIN:100 0.99  22/1431 MIN:120 0.99  22/1431 MIN:150 0.99  22/1431 MIN:180 0.99  22/1431 AVG DLY MIN:43.7  AVG DLY MAX:68.1  AVG MLY TMP:55.9  MIN TMP:32 DATE(S):12 MAX TMP:86  DATE(S):07 01 DAYS MAX <=32:0 DAYS MAX >=90:0  DAYS MIN <=32:1  DAYS MIN  <=0:0  AVG STP:24.595 LWST SLP:29.39 DATE/TIME:020156 HGST SLP:30.30 DATE/TIME:060728 HDD MTH TOT:285 DEP NORM:-2553 SEASON(JUL 1-JUN 30):5908 DEP NORM:-25536 CDD MTH TOT:9 DEP NORM:-2553 SEASON(JAN 1-DEC 31):9 DEP NORM:-25536,SOM  ,SOM  ,6.0,6.0,72565003017.0,2021-05-22 13:53,2021-05-22 13:56,2021-05-22 14:01,2021-05-22 14:03,2021-05-22 14:06,2021-05-22 14:11,2021-05-22 14:31,2021-05-22 14:31,2021-05-22 14:31,2021-05-22 14:31,2021-05-22 14:31,2021-05-22 14:31,0.32,0.59,0.78,0.86,0.93,0.97,0.98,0.99,0.99,0.99,0.99,0.99,,,colorado
42,9.6,227.0,218.0,2021-06-30T23:59:00,0.0,1.0,9.0,,,,,,,,,,,,,,,,,,,,,5960.0,20.0,,,,,,,,,,,,,,,,,,7,3,0,13,0.0,0.0,4.2,85.0,-42.0,4.0,4.5,-1.14,,0.31,24-25,0,,0.0,,30.15,29.0,253.0,86.4,71.6,29.49,10.0,1753.0,56.8,29.85,24.63,0.84,,,133.0,62.0,SOM796PCP MTOT:0.84 PCP GT 24HRS:0.31 DATE(S):24-25 DAYS W/PCP >=.01:5  DAYS W/PCP >=.10:1  DAYS W/ PCP >=.50:0 DAYS W/PCP >=1.00:0 MSDP AMTS W/DATE-TIME TAGS:MIN:5 0.12  26/1127 MIN:10 0.18  26/1128 MIN:15 0.22  24/1713 MIN:20 0.29  24/1718 MIN:30 0.30  24/1718 MIN:45 0.30  24/1718 MIN:60 0.30  24/1718 MIN:80 0.30  24/1718 MIN:100 0.30  24/1718 MIN:120 0.30  24/1718 MIN:150 0.30  24/1718 MIN:180 0.30  24/1718 AVG DLY MIN:56.8  AVG DLY MAX:86.4  AVG MLY TMP:71.6  MIN TMP:44 DATE(S):01 MAX TMP:101 DATE(S):15 DAYS MAX <=32:0 DAYS MAX >=90:13 DAYS MIN <=32:0  DAYS MIN  <=0:0  AVG STP:24.625 LWST SLP:29.48 DATE/TIME:101730 HGST SLP:30.16 DATE/TIME:290230 HDD MTH TOT:19 DEP NORM:-2553 SEASON(JUL 1-JUN 30):5927 DEP NORM:-25536 CDD MTH TOT:221 DEP NORM:-2553 SEASON(JAN 1-DEC 31):230 DEP NORM:-25536,SOM  ,SOM  ,6.0,6.0,72565003017.0,2021-06-26 11:27,2021-06-26 11:28,2021-06-24 17:13,2021-06-24 17:18,2021-06-24 17:18,2021-06-24 17:18,2021-06-24 17:18,2021-06-24 17:18,2021-06-24 17:18,2021-06-24 17:18,2021-06-24 17:18,2021-06-24 17:18,0.12,0.18,0.22,0.29,0.3,0.3,0.3,0.3,0.3,0.3,0.3,0.30,,,colorado
43,9.4,589.0,362.0,2021-07-31T23:59:00,0.0,,9.0,,,,,,,,,,,,,,,,,,,,,0.0,0.0,,,,,,,,,,,,,,,,,,5,1,0,21,0.0,0.0,2.5,73.0,-6.0,2.0,3.1,-1.82,,0.14,17-17,0,,0.0,,30.23,31.0,2253.0,91.4,76.7,29.68,8.0,1550.0,62.0,29.92,24.71,0.34,,,289.0,6.0,SOM789PCP MTOT:0.34 PCP GT 24HRS:0.14 DATE(S):17 DAYS W/PCP >=.01:5  DAYS W/PCP >=.10:1  DAYS W/ PCP >=.50:0 DAYS W/PCP >=1.00:0 MSDP AMTS W/DATE-TIME TAGS:MIN:5 0.07  17/1743 MIN:10 0.09  17/1748 MIN:15 0.11  17/1749 MIN:20 0.11  17/1749 MIN:30 0.14  17/1805 MIN:45 0.14  17/1805 MIN:60 0.14  17/1805 MIN:80 0.14  17/1805 MIN:100 0.14  17/1805 MIN:120 0.14  17/1805 MIN:150 0.14  17/1805 MIN:180 0.14  17/1805 AVG DLY MIN:61.9  AVG DLY MAX:91.4  AVG MLY TMP:76.7  MIN TMP:52 DATE(S):15 MAX TMP:102 DATE(S):08 DAYS MAX <=32:0 DAYS MAX >=90:21 DAYS MIN <=32:0  DAYS MIN  <=0:0  AVG STP:24.710 LWST SLP:29.68 DATE/TIME:081550 HGST SLP:30.24 DATE/TIME:312305 HDD MTH TOT:0 DEP NORM:-2553 SEASON(JUL 1-JUN 30):0 DEP NORM:-25536 CDD MTH TOT:368 DEP NORM:-2553 SEASON(JAN 1-DEC 31):598 DEP NORM:-25536,SOM  ,SOM  ,6.0,6.0,72565003017.0,2021-07-17 17:43,2021-07-17 17:48,2021-07-17 17:49,2021-07-17 17:49,2021-07-17 18:05,2021-07-17 18:05,2021-07-17 18:05,2021-07-17 18:05,2021-07-17 18:05,2021-07-17 18:05,2021-07-17 18:05,2021-07-17 18:05,0.07,0.09,0.11,0.11,0.14,0.14,0.14,0.14,0.14,0.14,0.14,0.14,,,colorado
44,9.2,911.0,322.0,2021-08-31T23:59:00,0.0,1.0,5.0,,,,,,,,,,,,,,,,,,,,,0.0,0.0,,,,,,,,,,,,,,,,,,4,1,0,18,0.0,0.0,2.9,78.0,-10.0,3.4,2.3,-1.42,,0.18,19-19,0,,0.0,,30.27,1.0,836.0,90.6,75.4,29.57,31.0,2309.0,60.2,29.84,24.65,0.27,,,244.0,10.0,SOM792PCP MTOT:0.27 PCP GT 24HRS:0.18 DATE(S):19-20 DAYS W/PCP >=.01:4  DAYS W/PCP >=.10:1  DAYS W/ PCP >=.50:0 DAYS W/PCP >=1.00:0 MSDP AMTS W/DATE-TIME TAGS:MIN:5 0.12  19/1446 MIN:10 0.17  19/1450 MIN:15 0.18  19/1454 MIN:20 0.18  19/1454 MIN:30 0.18  19/1454 MIN:45 0.18  19/1454 MIN:60 0.18  19/1454 MIN:80 0.18  19/1454 MIN:100 0.18  19/1454 MIN:120 0.18  19/1454 MIN:150 0.18  19/1454 MIN:180 0.18  19/1454 AVG DLY MIN:60.2  AVG DLY MAX:90.6  AVG MLY TMP:75.4  MIN TMP:53 DATE(S):20 MAX TMP:98  DATE(S):09 DAYS MAX <=32:0 DAYS MAX >=90:18 DAYS MIN <=32:0  DAYS MIN  <=0:0  AVG STP:24.645 LWST SLP:29.57 DATE/TIME:312309 HGST SLP:30.27 DATE/TIME:010836 HDD MTH TOT:0 DEP NORM:-2553 SEASON(JUL 1-JUN 30):0 DEP NORM:-25536 CDD MTH TOT:328 DEP NORM:-2553 SEASON(JAN 1-DEC 31):926 DEP NORM:-25536,SOM  ,SOM  ,6.0,6.0,72565003017.0,2021-08-19 14:46,2021-08-19 14:50,2021-08-19 14:54,2021-08-19 14:54,2021-08-19 14:54,2021-08-19 14:54,2021-08-19 14:54,2021-08-19 14:54,2021-08-19 14:54,2021-08-19 14:54,2021-08-19 14:54,2021-08-19 14:54,0.12,0.17,0.18,0.18,0.18,0.18,0.18,0.18,0.18,0.18,0.18,0.18,,,colorado
45,9.4,1085.0,173.0,2021-09-30T23:59:00,0.0,,3.0,,,,,,,,,,,,,,,,,,,,,61.0,61.0,,,,,,,,,,,,,,,,,,5,1,0,7,0.0,0.0,5.4,97.0,-64.0,5.4,5.3,-0.68,,0.12,13-13,0,,0.0,,30.48,21.0,953.0,83.9,68.8,29.49,28.0,1553.0,53.6,29.9,24.67,0.28,,,76.0,125.0,SOM795PCP MTOT:0.28 PCP GT 24HRS:0.12 DATE(S):13-14 DAYS W/PCP >=.01:5  DAYS W/PCP >=.10:1  DAYS W/ PCP >=.50:0 DAYS W/PCP >=1.00:0 MSDP AMTS W/DATE-TIME TAGS:MIN:5 0.09  13/1919 MIN:10 0.11  13/1919 MIN:15 0.11  13/1919 MIN:20 0.11  13/1919 MIN:30 0.11  13/1919 MIN:45 0.12  13/1919 MIN:60 0.12  13/1919 MIN:80 0.12  13/1919 MIN:100 0.12  13/1919 MIN:120 0.12  13/1919 MIN:150 0.12  13/1919 MIN:180 0.12  13/1919 AVG DLY MIN:53.6  AVG DLY MAX:83.9  AVG MLY TMP:68.8  MIN TMP:39 DATE(S):21 MAX TMP:99  DATE(S):10 DAYS MAX <=32:0 DAYS MAX >=90:7  DAYS MIN <=32:0  DAYS MIN  <=0:0  AVG STP:24.665 LWST SLP:29.48 DATE/TIME:281551 HGST SLP:30.50 DATE/TIME:210946 HDD MTH TOT:59 DEP NORM:-2553 SEASON(JUL 1-JUN 30):59 DEP NORM:-25536 CDD MTH TOT:178 DEP NORM:-2553 SEASON(JAN 1-DEC 31):1104 DEP NORM:-25536,SOM  ,SOM  ,6.0,6.0,72565003017.0,2021-09-13 19:19,2021-09-13 19:19,2021-09-13 19:19,2021-09-13 19:19,2021-09-13 19:19,2021-09-13 19:19,2021-09-13 19:19,2021-09-13 19:19,2021-09-13 19:19,2021-09-13 19:19,2021-09-13 19:19,2021-09-13 19:19,0.09,0.11,0.11,0.11,0.11,0.12,0.12,0.12,0.12,0.12,0.12,0.12,,,colorado
46,9.6,1090.0,5.0,2021-10-31T23:59:00,0.0,,1.0,,,,,,,,,,,,,,,,,,,,,408.0,347.0,,,,,,,,,,,,,,,,,,3,0,7,0,0.0,0.0,3.0,0.0,-93.0,4.0,2.0,-0.94,,0.04,12-12,0,,0.0,15-15,30.33,16.0,656.0,69.3,53.9,29.21,26.0,1053.0,38.6,29.9,24.58,0.08,T,,5.0,440.0,SOM792PCP MTOT:0.08 PCP GT 24HRS:0.04 DATE(S):12 DAYS W/PCP >=.01:2  DAYS W/PCP >=.10:0  DAYS W/ PCP >=.50:0 DAYS W/PCP >=1.00:0 MSDP AMTS W/DATE-TIME TAGS:MIN:5 0.02  12/1903 MIN:10 0.03  12/1903 MIN:15 0.03  12/1903 MIN:20 0.03  12/1903 MIN:30 0.03  12/1903 MIN:45 0.03  26/1715 MIN:60 0.03  26/1715 MIN:80 0.03  26/1715 MIN:100 0.03  26/1715 MIN:120 0.03  26/1715 MIN:150 0.03  26/1715 MIN:180 0.03  26/1715 AVG DLY MIN:38.6  AVG DLY MAX:69.3  AVG MLY TMP:54.0  MIN TMP:24 DATE(S):20 MAX TMP:85  DATE(S):06 DAYS MAX <=32:0 DAYS MAX >=90:0  DAYS MIN <=32:7  DAYS MIN  <=0:0  AVG STP:24.580 LWST SLP:29.19 DATE/TIME:261118 HGST SLP:30.33 DATE/TIME:160656 HDD MTH TOT:326 DEP NORM:-2553 SEASON(JUL 1-JUN 30):385 DEP NORM:-25536 CDD MTH TOT:5 DEP NORM:-2553 SEASON(JAN 1-DEC 31):1109 DEP NORM:-25536,SOM  ,SOM  ,6.0,6.0,72565003017.0,2021-10-12 19:03,2021-10-12 19:03,2021-10-12 19:03,2021-10-12 19:03,2021-10-12 19:03,2021-10-26 17:15,2021-10-26 17:15,2021-10-26 17:15,2021-10-26 17:15,2021-10-26 17:15,2021-10-26 17:15,2021-10-26 17:15,0.02,0.03,0.03,0.03,0.03,0.03,0.03,0.03,0.03,0.03,0.03,0.03,,,colorado
47,9.6,1090.0,0.0,2021-11-30T23:59:00,0.0,,,,,,,,,,,,,,,,,,,,,,,967.0,559.0,,,,,,,,,,,,,,,,,,2,0,13,0,0.0,0.0,8.0,0.0,-242.0,9.3,6.7,-0.54,,0.06,02-02,0,,0.0,24-24,30.48,24.0,2253.0,61.4,46.3,29.5,23.0,2152.0,31.2,30.08,24.68,0.07,T,,-7777.0,801.0,SOM789PCP MTOT:0.01 PCP GT 24HRS:0.01 DATE(S):20 DAYS W/PCP >=.01:1  DAYS W/PCP >=.10:0  DAYS W/ PCP >=.50:0 DAYS W/PCP >=1.00:0 MSDP AMTS W/DATE-TIME TAGS:MIN:5 0.01  20/2103 MIN:10 0.01  20/2103 MIN:15 0.01  20/2103 MIN:20 0.01  20/2103 MIN:30 0.01  20/2103 MIN:45 0.01  20/2103 MIN:60 0.01  20/2103 MIN:80 0.01  20/2103 MIN:100 0.01  20/2103 MIN:120 0.01  20/2103 MIN:150 0.01  20/2103 MIN:180 0.01  20/2103 AVG DLY MIN:30.4  AVG DLY MAX:62.3  AVG MLY TMP:46.4  MIN TMP:16 DATE(S):25 MAX TMP:72  DATE(S):29 DAYS MAX <=32:0 DAYS MAX >=90:0  DAYS MIN <=32:6  DAYS MIN  <=0:0  AVG STP:24.675 LWST SLP:29.50 DATE/TIME:232152 HGST SLP:30.50 DATE/TIME:242240 HDD MTH TOT:221 DEP NORM:-2553 SEASON(JUL 1-JUN 30):221 DEP NORM:-25536 CDD MTH TOT:0 DEP NORM:-2553 SEASON(JAN 1-DEC 31):0 DEP NORM:-25536,SOM  ,SOM  ,6.0,6.0,72565003017.0,,,,,,,,,,,,,,,,,,,,,,,,,,,colorado
48,10.5,1090.0,0.0,2021-12-31T23:59:00,1.0,1.0,,,,,,,,,,,,,,,,,,,,,,1789.0,822.0,,,,,,,,,,,,,,,,,,3,1,26,0,0.0,0.0,8.4,0.0,-264.0,11.3,5.6,-0.19,,0.12,31-31,0,,4.5,31-31,30.37,18.0,853.0,54.1,38.4,29.14,15.0,802.0,22.7,29.79,24.41,0.16,4.8,,0.0,1086.0,SOM790PCP MTOT:0.16 PCP GT 24HRS:0.12 DATE(S):31 DAYS W/PCP >=.01:3  DAYS W/PCP >=.10:1  DAYS W/ PCP >=.50:0 DAYS W/PCP >=1.00:0 MSDP AMTS W/DATE-TIME TAGS:MIN:5 0.01  31/2313 MIN:10 0.02  31/2000 MIN:15 0.02  31/2023 MIN:20 0.02  31/2023 MIN:30 0.03  31/2023 MIN:45 0.04  31/2023 MIN:60 0.05  31/2023 MIN:80 0.07  31/2023 MIN:100 0.07  31/2052 MIN:120 0.08  31/2121 MIN:150 0.09  31/2121 MIN:180 0.09  31/2215 AVG DLY MIN:22.7  AVG DLY MAX:54.1  AVG MLY TMP:38.4  MIN TMP:4  DATE(S):18 MAX TMP:73  DATE(S):01 DAYS MAX <=32:0 DAYS MAX >=90:0  DAYS MIN <=32:26 DAYS MIN  <=0:0  AVG STP:24.410 LWST SLP:29.14 DATE/TIME:150802 HGST SLP:30.39 DATE/TIME:180912 HDD MTH TOT:818 DEP NORM:-2553 SEASON(JUL 1-JUN 30):1039 DEP NORM:-25536 CDD MTH TOT:0 DEP NORM:-2553 SEASON(JAN 1-DEC 31):0 DEP NORM:-25536,SOM  ,SOM  ,6.0,6.0,72565003017.0,2021-12-31 23:13,2021-12-31 20:00,2021-12-31 20:23,2021-12-31 20:23,2021-12-31 20:23,2021-12-31 20:23,2021-12-31 20:23,2021-12-31 20:23,2021-12-31 20:52,2021-12-31 21:21,2021-12-31 21:21,2021-12-31 22:15,0.01,0.02,0.02,0.02,0.03,0.04,0.05,0.07,0.07,0.08,0.09,0.09,,,colorado
49,5.6,3.0,3.0,2021-01-31T23:59:00,,,2.0,,,,,,,,,,,,,,,,,,,,,655.0,274.0,,,,,,,,,,,,,,,,,,5,3,0,0,0.0,0.0,-0.1,1.0,5.0,0.7,-0.9,-0.23,,0.29,25-25,,,,,30.31,12.0,1118.0,67.9,56.3,29.65,25.0,1351.0,44.7,30.02,28.86,0.68,,,2.0,269.0,SOM792PCP MTOT:0.68 PCP GT 24HRS:0.29 DATE(S):25-26 DAYS W/PCP >=.01:5  DAYS W/PCP >=.10:3  DAYS W/ PCP >=.50:0 DAYS W/PCP >=1.00:0 MSDP AMTS W/DATE-TIME TAGS:MIN:5 0.09  24/0704 MIN:10 0.12  24/0709 MIN:15 0.14  24/0709 MIN:20 0.14  24/0717 MIN:30 0.16  25/1424 MIN:45 0.21  25/1424 MIN:60 0.23  25/1424 MIN:80 0.25  25/1438 MIN:100 0.26  25/1438 MIN:120 0.26  25/1438 MIN:150 0.26  25/1438 MIN:180 0.26  25/1438 AVG DLY MIN:44.7  AVG DLY MAX:67.9  AVG MLY TMP:56.3  MIN TMP:36 DATE(S):25 MAX TMP:79  DATE(S):15 DAYS MAX <=32:0 DAYS MAX >=90:0  DAYS MIN <=32:0  DAYS MIN  <=0:0  AVG STP:28.860 LWST SLP:29.63 DATE/TIME:251330 HGST SLP:30.31 DATE/TIME:121118 HDD MTH TOT:266 DEP NORM:-2553 SEASON(JUL 1-JUN 30):627 DEP NORM:-25536 CDD MTH TOT:4 DEP NORM:-2553 SEASON(JAN 1-DEC 31):4 DEP NORM:-25536,SOM  ,SOM  ,6.0,6.0,72278023183.0,2021-01-24 07:04,2021-01-24 07:09,2021-01-24 07:09,2021-01-24 07:17,2021-01-25 14:24,2021-01-25 14:24,2021-01-25 14:24,2021-01-25 14:38,2021-01-25 14:38,2021-01-25 14:38,2021-01-25 14:38,2021-01-25 14:38,0.09,0.12,0.14,0.14,0.16,0.21,0.23,0.25,0.26,0.26,0.26,0.26,,,arizona
50,6.7,17.0,14.0,2021-02-28T23:59:00,,,,,,,,,,,,,,,,,,,,,,,,782.0,127.0,,,,,,,,,,,,,,,,,,0,0,0,0,0.0,0.0,1.3,-1.0,-36.0,2.3,0.2,-0.92,,T,13-13,,,,,30.27,19.0,851.0,73.0,61.0,29.55,13.0,2151.0,48.9,29.93,28.78,T,,,15.0,163.0,SOM771PCP MTOT:T PCP GT 24HRS:T DATE(S):13 DAYS W/PCP >=.01:0  DAYS W/PCP >=.10:0  DAYS W/ PCP >=.50:0 DAYS W/PCP >=1.00:0 MSDP AMTS W/DATE-TIME TAGS:MIN: 5/T MIN:10/T MIN:15 0.00    /     MIN:20 0.00    /     MIN:30 0.00    /     MIN:45 0.00    /     MIN:60 0.00    /     MIN:80 0.00    /     MIN:100 0.00    /     MIN:120 0.00    /     MIN:150 0.00    /     MIN:180 0.00    /     AVG DLY MIN:48.9  AVG DLY MAX:73.0  AVG MLY TMP:61.0  MIN TMP:44 DATE(S):27 19 18 MAX TMP:82  DATE(S):03 02 DAYS MAX <=32:0 DAYS MAX >=90:0  DAYS MIN <=32:0  DAYS MIN  <=0:0  AVG STP:28.780 LWST SLP:29.54 DATE/TIME:132126 HGST SLP:30.28 DATE/TIME:181134 HDD MTH TOT:120 DEP NORM:-2553 SEASON(JUL 1-JUN 30):747 DEP NORM:-25536 CDD MTH TOT:14 DEP NORM:-2553 SEASON(JAN 1-DEC 31):18 DEP NORM:-25536,SOM  ,SOM  ,6.0,6.0,72278023183.0,,,,,,,,,,,,,,,,,,,,,,,,,,,arizona
51,6.9,95.0,78.0,2021-03-31T23:59:00,,,,,,,,,,,,,,,,,,,,,,,,887.0,105.0,,,,,,,,,,,,,,,,,,3,2,0,0,0.0,0.0,-1.1,-9.0,24.0,-0.3,-1.8,-0.62,,0.35,12-13,,,,,30.3,1.0,1011.0,76.6,64.1,29.62,25.0,1810.0,51.7,29.93,28.78,0.37,,,87.0,81.0,SOM798PCP MTOT:0.37 PCP GT 24HRS:0.35 DATE(S):12-13 DAYS W/PCP >=.01:3  DAYS W/PCP >=.10:2  DAYS W/ PCP >=.50:0 DAYS W/PCP >=1.00:0 MSDP AMTS W/DATE-TIME TAGS:MIN:5 0.02  13/0139 MIN:10 0.03  13/0139 MIN:15 0.05  13/0118 MIN:20 0.06  13/0127 MIN:30 0.08  13/0139 MIN:45 0.11  13/0147 MIN:60 0.13  13/0153 MIN:80 0.14  13/0153 MIN:100 0.15  13/0239 MIN:120 0.17  13/0252 MIN:150 0.18  13/0252 MIN:180 0.19  13/0336 AVG DLY MIN:51.7  AVG DLY MAX:76.6  AVG MLY TMP:64.2  MIN TMP:39 DATE(S):01 MAX TMP:89  DATE(S):29 07 DAYS MAX <=32:0 DAYS MAX >=90:0  DAYS MIN <=32:0  DAYS MIN  <=0:0  AVG STP:28.780 LWST SLP:29.62 DATE/TIME:251810 HGST SLP:30.30 DATE/TIME:011011 HDD MTH TOT:101 DEP NORM:-2553 SEASON(JUL 1-JUN 30):848 DEP NORM:-25536 CDD MTH TOT:82 DEP NORM:-2553 SEASON(JAN 1-DEC 31):100 DEP NORM:-25536,SOM  ,SOM  ,6.0,6.0,72278023183.0,2021-03-13 01:39,2021-03-13 01:39,2021-03-13 01:18,2021-03-13 01:27,2021-03-13 01:39,2021-03-13 01:47,2021-03-13 01:53,2021-03-13 01:53,2021-03-13 02:39,2021-03-13 02:52,2021-03-13 02:52,2021-03-13 03:36,0.02,0.03,0.05,0.06,0.08,0.11,0.13,0.14,0.15,0.17,0.18,0.19,,,arizona
52,7.6,445.0,350.0,2021-04-30T23:59:00,,,1.0,,,,,,,,,,,,,,,,,,,,,887.0,0.0,,,,,,,,,,,,,,,,,,1,0,0,19,0.0,0.0,4.0,99.0,-20.0,4.8,3.1,-0.27,,0.01,27-27,,,,,30.08,29.0,1047.0,90.0,76.7,29.55,21.0,1705.0,63.3,29.77,28.64,0.01,,,251.0,20.0,SOM738PCP MTOT:T PCP GT 24HRS:T DATE(S):28 DAYS W/PCP >=.01:0  DAYS W/PCP >=.10:0  DAYS W/ PCP >=.50:0 DAYS W/PCP >=1.00:0 MSDP AMTS W/DATE-TIME TAGS:MIN: 5/T MIN:10/T MIN:15/T MIN:20/T MIN:30 0.00    /     MIN:45 0.00    /     MIN:60 0.00    /     MIN:80 0.00    /     MIN:100 0.00    /     MIN:120 0.00    /     MIN:150 0.00    /     MIN:180 0.00    /     AVG DLY MIN:63.3  AVG DLY MAX:90.0  AVG MLY TMP:76.7  MIN TMP:57 DATE(S):28 MAX TMP:98  DATE(S):04 DAYS MAX <=32:0 DAYS MAX >=90:19 DAYS MIN <=32:0  DAYS MIN  <=0:0  AVG STP:28.645 LWST SLP:29.55 DATE/TIME:211705 HGST SLP:30.08 DATE/TIME:291047 HDD MTH TOT:0 DEP NORM:-2553 SEASON(JUL 1-JUN 30):848 DEP NORM:-25536 CDD MTH TOT:358 DEP NORM:-2553 SEASON(JAN 1-DEC 31):458 DEP NORM:-25536,SOM  ,SOM  ,6.0,6.0,72278023183.0,,,,,,,,,,,,,,,,,,,,,,,,,,,arizona
53,7.4,1007.0,562.0,2021-05-31T23:59:00,,,,,,,,,,,,,,,,,,,,,,,,887.0,0.0,,,,,,,,,,,,,,,,,,0,0,0,27,0.0,0.0,1.0,31.0,-1.0,1.4,0.6,-0.11,,0.00,21-21,,,,,30.01,23.0,920.0,96.2,83.1,29.44,2.0,1819.0,70.0,29.76,28.64,T,,,531.0,1.0,SOM743PCP MTOT:T PCP GT 24HRS:T DATE(S):21+ DAYS W/PCP >=.01:0  DAYS W/PCP >=.10:0  DAYS W/ PCP >=.50:0 DAYS W/PCP >=1.00:0 MSDP AMTS W/DATE-TIME TAGS:MIN: 5/T MIN:10/T MIN:15/T MIN:20/T MIN:30 0.00    /     MIN:45 0.00    /     MIN:60 0.00    /     MIN:80 0.00    /     MIN:100 0.00    /     MIN:120 0.00    /     MIN:150 0.00    /     MIN:180 0.00    /     AVG DLY MIN:70.0  AVG DLY MAX:96.2  AVG MLY TMP:83.1  MIN TMP:59 DATE(S):23 MAX TMP:102 DATE(S):29 13 DAYS MAX <=32:0 DAYS MAX >=90:27 DAYS MIN <=32:0  DAYS MIN  <=0:0  AVG STP:28.635 LWST SLP:29.44 DATE/TIME:021819 HGST SLP:30.01 DATE/TIME:230920 HDD MTH TOT:0 DEP NORM:-2553 SEASON(JUL 1-JUN 30):848 DEP NORM:-25536 CDD MTH TOT:571 DEP NORM:-2553 SEASON(JAN 1-DEC 31):1029 DEP NORM:-25536,SOM  ,SOM  ,6.0,6.0,72278023183.0,,,,,,,,,,,,,,,,,,,,,,,,,,,arizona
54,8.1,1917.0,910.0,2021-06-30T23:59:00,,,1.0,,,,,,,,,,,,,,,,,,,,,887.0,0.0,,,,,,,,,,,,,,,,,,1,1,0,30,0.0,0.0,4.5,136.0,0.0,4.3,4.8,0.15,,0.17,23-23,,,,,29.9,9.0,851.0,108.2,95.3,29.42,27.0,1900.0,82.5,29.7,28.59,0.17,,,774.0,0.0,SOM795PCP MTOT:0.17 PCP GT 24HRS:0.17 DATE(S):23 DAYS W/PCP >=.01:1  DAYS W/PCP >=.10:1  DAYS W/ PCP >=.50:0 DAYS W/PCP >=1.00:0 MSDP AMTS W/DATE-TIME TAGS:MIN:5 0.09  23/1321 MIN:10 0.10  23/1322 MIN:15 0.11  23/1322 MIN:20 0.11  23/1322 MIN:30 0.11  23/1322 MIN:45 0.12  23/1322 MIN:60 0.14  23/1322 MIN:80 0.14  23/1322 MIN:100 0.14  23/1322 MIN:120 0.14  23/1322 MIN:150 0.16  23/1322 MIN:180 0.16  23/1322 AVG DLY MIN:82.5  AVG DLY MAX:108.2 AVG MLY TMP:95.4  MIN TMP:74 DATE(S):08 07 MAX TMP:118 DATE(S):17 DAYS MAX <=32:0 DAYS MAX >=90:30 DAYS MIN <=32:0  DAYS MIN  <=0:0  AVG STP:28.585 LWST SLP:29.42 DATE/TIME:271900 HGST SLP:29.91 DATE/TIME:010835 HDD MTH TOT:0 DEP NORM:-2553 SEASON(JUL 1-JUN 30):848 DEP NORM:-25536 CDD MTH TOT:920 DEP NORM:-2553 SEASON(JAN 1-DEC 31):1949 DEP NORM:-25536,SOM  ,SOM  ,6.0,6.0,72278023183.0,2021-06-23 13:21,2021-06-23 13:22,2021-06-23 13:22,2021-06-23 13:22,2021-06-23 13:22,2021-06-23 13:22,2021-06-23 13:22,2021-06-23 13:22,2021-06-23 13:22,2021-06-23 13:22,2021-06-23 13:22,2021-06-23 13:22,0.09,0.1,0.11,0.11,0.11,0.12,0.14,0.14,0.14,0.14,0.16,0.16,,,arizona
55,7.6,2806.0,889.0,2021-07-31T23:59:00,,,12.0,,,,,,,,,,,,,,,,,,,,,0.0,0.0,,,,,,,,,,,,,,,,,,9,6,0,28,0.0,0.0,-1.1,-35.0,0.0,-2.5,0.2,0.68,,1.01,22-23,,,,,30.06,23.0,1125.0,103.6,93.7,29.56,7.0,1851.0,83.7,29.8,28.68,1.73,,,924.0,0.0,SOM802PCP MTOT:1.73 PCP GT 24HRS:1.01 DATE(S):22-23 DAYS W/PCP >=.01:9  DAYS W/PCP >=.10:6  DAYS W/ PCP >=.50:1 DAYS W/PCP >=1.00:0 MSDP AMTS W/DATE-TIME TAGS:MIN:5 0.08  03/1935 MIN:10 0.14  03/1938 MIN:15 0.17  03/1941 MIN:20 0.18  03/1945 MIN:30 0.19  03/1954 MIN:45 0.20  03/2010 MIN:60 0.21  03/2014 MIN:80 0.23  23/1332 MIN:100 0.29  23/1332 MIN:120 0.33  23/1346 MIN:150 0.37  23/1358 MIN:180 0.41  23/1419 AVG DLY MIN:83.7  AVG DLY MAX:103.6 AVG MLY TMP:93.7  MIN TMP:73 DATE(S):25 23 MAX TMP:112 DATE(S):10 09 08 DAYS MAX <=32:0 DAYS MAX >=90:28 DAYS MIN <=32:0  DAYS MIN  <=0:0  AVG STP:28.680 LWST SLP:29.55 DATE/TIME:071822 HGST SLP:30.06 DATE/TIME:231125 HDD MTH TOT:0 DEP NORM:-2553 SEASON(JUL 1-JUN 30):0 DEP NORM:-25536 CDD MTH TOT:896 DEP NORM:-2553 SEASON(JAN 1-DEC 31):2845 DEP NORM:-25536,SOM  ,SOM  ,6.0,6.0,72278023183.0,2021-07-03 19:35,2021-07-03 19:38,2021-07-03 19:41,2021-07-03 19:45,2021-07-03 19:54,2021-07-03 20:10,2021-07-03 20:14,2021-07-23 13:32,2021-07-23 13:32,2021-07-23 13:46,2021-07-23 13:58,2021-07-23 14:19,0.08,0.14,0.17,0.18,0.19,0.2,0.21,0.23,0.29,0.33,0.37,0.41,,,arizona
56,6.7,3660.0,855.0,2021-08-31T23:59:00,,,9.0,,,,,,,,,,,,,,,,,,,,,0.0,0.0,,,,,,,,,,,,,,,,,,8,4,0,31,0.0,0.0,-1.0,-30.0,0.0,-1.2,-0.8,0.54,,0.82,13-14,,,,,30.02,14.0,251.0,103.2,92.6,29.52,27.0,1858.0,81.9,29.76,28.64,1.54,,,885.0,0.0,SOM793PCP MTOT:1.54 PCP GT 24HRS:0.82 DATE(S):13-14 DAYS W/PCP >=.01:8  DAYS W/PCP >=.10:4  DAYS W/ PCP >=.50:1 DAYS W/PCP >=1.00:0 MSDP AMTS W/DATE-TIME TAGS:MIN:5 0.15  16/2329 MIN:10 0.23  16/2331 MIN:15 0.28  16/2335 MIN:20 0.30  16/2338 MIN:30 0.31  16/2349 MIN:45 0.41  17/0000 MIN:60 0.41  17/0000 MIN:80 0.41  17/0000 MIN:100 0.41  17/0000 MIN:120 0.41  17/0000 MIN:150 0.42  14/0109 MIN:180 0.49  14/0245 AVG DLY MIN:81.9  AVG DLY MAX:103.2 AVG MLY TMP:92.6  MIN TMP:71 DATE(S):16 MAX TMP:115 DATE(S):04 DAYS MAX <=32:0 DAYS MAX >=90:31 DAYS MIN <=32:0  DAYS MIN  <=0:0  AVG STP:28.645 LWST SLP:29.52 DATE/TIME:271858 HGST SLP:30.03 DATE/TIME:132346 HDD MTH TOT:0 DEP NORM:-2553 SEASON(JUL 1-JUN 30):0 DEP NORM:-25536 CDD MTH TOT:862 DEP NORM:-2553 SEASON(JAN 1-DEC 31):3707 DEP NORM:-25536,SOM  ,SOM  ,6.0,6.0,72278023183.0,2021-08-16 23:29,2021-08-16 23:31,2021-08-16 23:35,2021-08-16 23:38,2021-08-16 23:49,2021-08-17 00:00,2021-08-17 00:00,2021-08-17 00:00,2021-08-17 00:00,2021-08-17 00:00,2021-08-14 01:09,2021-08-14 02:45,0.15,0.23,0.28,0.3,0.31,0.41,0.41,0.41,0.41,0.41,0.42,0.49,,,arizona
57,6.0,4387.0,727.0,2021-09-30T23:59:00,,,4.0,,,,,,,,,,,,,,,,,,,,,0.0,0.0,,,,,,,,,,,,,,,,,,5,3,0,27,0.0,0.0,0.8,27.0,0.0,0.3,1.5,0.12,,0.44,01-02,,,,,30.05,21.0,1056.0,100.1,89.2,29.63,16.0,1903.0,78.4,29.8,28.67,0.76,,,700.0,0.0,SOM791PCP MTOT:0.76 PCP GT 24HRS:0.44 DATE(S):1-2 DAYS W/PCP >=.01:5  DAYS W/PCP >=.10:3  DAYS W/ PCP >=.50:0 DAYS W/PCP >=1.00:0 MSDP AMTS W/DATE-TIME TAGS:MIN:5 0.16  01/1938 MIN:10 0.27  01/1939 MIN:15 0.34  01/1941 MIN:20 0.34  01/1941 MIN:30 0.34  01/1941 MIN:45 0.34  01/1941 MIN:60 0.34  01/1941 MIN:80 0.34  01/1941 MIN:100 0.35  01/2102 MIN:120 0.35  01/2102 MIN:150 0.39  01/2146 MIN:180 0.41  01/2223 AVG DLY MIN:78.4  AVG DLY MAX:100.1 AVG MLY TMP:89.3  MIN TMP:69 DATE(S):26 MAX TMP:111 DATE(S):09 DAYS MAX <=32:0 DAYS MAX >=90:27 DAYS MIN <=32:0  DAYS MIN  <=0:0  AVG STP:28.675 LWST SLP:29.63 DATE/TIME:161903 HGST SLP:30.05 DATE/TIME:211056 HDD MTH TOT:0 DEP NORM:-2553 SEASON(JUL 1-JUN 30):0 DEP NORM:-25536 CDD MTH TOT:733 DEP NORM:-2553 SEASON(JAN 1-DEC 31):4440 DEP NORM:-25536,SOM  ,SOM  ,6.0,6.0,72278023183.0,2021-09-01 19:38,2021-09-01 19:39,2021-09-01 19:41,2021-09-01 19:41,2021-09-01 19:41,2021-09-01 19:41,2021-09-01 19:41,2021-09-01 19:41,2021-09-01 21:02,2021-09-01 21:02,2021-09-01 21:46,2021-09-01 22:23,0.16,0.27,0.34,0.34,0.34,0.34,0.34,0.34,0.35,0.35,0.39,0.41,,,arizona
58,6.0,4693.0,305.0,2021-10-31T23:59:00,,,1.0,,,,,,,,,,,,,,,,,,,,,2.0,2.0,,,,,,,,,,,,,,,,,,2,1,0,11,0.0,0.0,-1.9,-62.0,-4.0,-1.7,-2.1,-0.26,,0.28,05-05,,,,,30.15,27.0,936.0,86.8,74.8,29.4,11.0,2151.0,62.7,29.87,28.73,0.32,,,367.0,6.0,SOM789PCP MTOT:0.32 PCP GT 24HRS:0.28 DATE(S):5 DAYS W/PCP >=.01:1  DAYS W/PCP >=.10:1  DAYS W/ PCP >=.50:0 DAYS W/PCP >=1.00:0 MSDP AMTS W/DATE-TIME TAGS:MIN:5 0.27  05/1817 MIN:10 0.28  05/1818 MIN:15 0.28  05/1818 MIN:20 0.28  05/1818 MIN:30 0.28  05/1818 MIN:45 0.28  05/1818 MIN:60 0.28  05/1818 MIN:80 0.28  05/1818 MIN:100 0.28  05/1818 MIN:120 0.28  05/1818 MIN:150 0.28  05/1818 MIN:180 0.28  05/1818 AVG DLY MIN:62.7  AVG DLY MAX:86.8  AVG MLY TMP:74.8  MIN TMP:52 DATE(S):13 MAX TMP:98  DATE(S):04 DAYS MAX <=32:0 DAYS MAX >=90:11 DAYS MIN <=32:0  DAYS MIN  <=0:0  AVG STP:28.730 LWST SLP:29.39 DATE/TIME:112206 HGST SLP:30.15 DATE/TIME:270936 HDD MTH TOT:2 DEP NORM:-2553 SEASON(JUL 1-JUN 30):2 DEP NORM:-25536 CDD MTH TOT:313 DEP NORM:-2553 SEASON(JAN 1-DEC 31):4753 DEP NORM:-25536,SOM  ,SOM  ,6.0,6.0,72278023183.0,2021-10-05 18:17,2021-10-05 18:18,2021-10-05 18:18,2021-10-05 18:18,2021-10-05 18:18,2021-10-05 18:18,2021-10-05 18:18,2021-10-05 18:18,2021-10-05 18:18,2021-10-05 18:18,2021-10-05 18:18,2021-10-05 18:18,0.27,0.28,0.28,0.28,0.28,0.28,0.28,0.28,0.28,0.28,0.28,0.28,,,arizona
59,4.7,4850.0,157.0,2021-11-30T23:59:00,,,,,,,,,,,,,,,,,,,,,,,,5.0,3.0,,,,,,,,,,,,,,,,,,0,0,0,3,0.0,0.0,6.0,87.0,-94.0,7.8,4.3,-0.65,,0.00,24-24,,,,,30.23,25.0,1048.0,83.3,70.1,29.79,23.0,1729.0,57.0,30.0,28.84,T,,,70.0,97.0,SOM762PCP MTOT:T PCP GT 24HRS:T DATE(S):24+ DAYS W/PCP >=.01:0  DAYS W/PCP >=.10:0  DAYS W/ PCP >=.50:0 DAYS W/PCP >=1.00:0 MSDP AMTS W/DATE-TIME TAGS:MIN: 5/T MIN:10/T MIN:15 0.00    /     MIN:20 0.00    /     MIN:30 0.00    /     MIN:45 0.00    /     MIN:60 0.00    /     MIN:80 0.00    /     MIN:100 0.00    /     MIN:120 0.00    /     MIN:150 0.00    /     MIN:180 0.00    /     AVG DLY MIN:57.0  AVG DLY MAX:83.3  AVG MLY TMP:70.2  MIN TMP:49 DATE(S):28 MAX TMP:91  DATE(S):05 DAYS MAX <=32:0 DAYS MAX >=90:3  DAYS MIN <=32:0  DAYS MIN  <=0:0  AVG STP:28.845 LWST SLP:29.79 DATE/TIME:231729 HGST SLP:30.23 DATE/TIME:251048 HDD MTH TOT:2 DEP NORM:-2553 SEASON(JUL 1-JUN 30):4 DEP NORM:-25536 CDD MTH TOT:164 DEP NORM:-2553 SEASON(JAN 1-DEC 31):4917 DEP NORM:-25536,SOM  ,SOM  ,6.0,6.0,72278023183.0,,,,,,,,,,,,,,,,,,,,,,,,,,,arizona
60,4.7,4863.0,13.0,2021-12-31T23:59:00,0.0,,,,,,,,,,,,,,,,,,,,,,,199.0,193.0,,,,,,,,,,,,,,,,,,7,3,0,0,0.0,0.0,3.8,12.0,-105.0,3.2,4.4,0.65,,1.01,24-25,,,,,30.23,11.0,1042.0,69.2,59.2,29.52,31.0,1541.0,49.2,29.97,28.8,1.53,,,1.0,298.0,SOM796PCP MTOT:1.53 PCP GT 24HRS:1.01 DATE(S):24-25 DAYS W/PCP >=.01:7  DAYS W/PCP >=.10:3  DAYS W/ PCP >=.50:1 DAYS W/PCP >=1.00:1 MSDP AMTS W/DATE-TIME TAGS:MIN:5 0.06  09/2213 MIN:10 0.08  09/2219 MIN:15 0.10  09/2222 MIN:20 0.12  09/2222 MIN:30 0.16  09/2222 MIN:45 0.21  09/2225 MIN:60 0.23  09/2232 MIN:80 0.26  09/2236 MIN:100 0.28  24/1201 MIN:120 0.33  24/1201 MIN:150 0.37  24/1201 MIN:180 0.43  24/1201 AVG DLY MIN:49.2  AVG DLY MAX:69.2  AVG MLY TMP:59.2  MIN TMP:38 DATE(S):18 MAX TMP:85  DATE(S):01 DAYS MAX <=32:0 DAYS MAX >=90:0  DAYS MIN <=32:0  DAYS MIN  <=0:0  AVG STP:28.805 LWST SLP:29.52 DATE/TIME:311541 HGST SLP:30.23 DATE/TIME:111042 HDD MTH TOT:187 DEP NORM:-2553 SEASON(JUL 1-JUN 30):191 DEP NORM:-25536 CDD MTH TOT:15 DEP NORM:-2553 SEASON(JAN 1-DEC 31):4932 DEP NORM:-25536,SOM  ,SOM  ,6.0,6.0,72278023183.0,2021-12-09 22:13,2021-12-09 22:19,2021-12-09 22:22,2021-12-09 22:22,2021-12-09 22:22,2021-12-09 22:25,2021-12-09 22:32,2021-12-09 22:36,2021-12-24 12:01,2021-12-24 12:01,2021-12-24 12:01,2021-12-24 12:01,0.06,0.08,0.1,0.12,0.16,0.21,0.23,0.26,0.28,0.33,0.37,0.43,,,arizona
61,8.3,0.0,0.0,2021-01-31T23:59:00,0.0,1.0,1.0,,,,,,,,,,,,,,,,,,,,,1871.0,710.0,,,,,,,,,,,,,,,,,,10,7,13,0,0.0,0.0,1.0,-1.0,-31.0,0.3,1.6,,,1.44,24-25,0,,0.0,15-15,,,,49.8,42.1,,,,34.3,,,,T,,1.0,741.0,,SOM  ,SOM  ,6.0,6.0,72340003952.0,,,,,,,,,,,,,,,,,,,,,,,,,,,arkansas
62,8.5,0.0,0.0,2021-02-28T23:59:00,3.0,8.0,4.0,,,,,,,,,,,,,,,,,,,,,2698.0,828.0,,,,,,,,,,,,,,,,,,14,10,18,0,1.0,9.0,-9.9,-1.0,275.0,-11.4,-8.5,,,1.81,28-28,14,18.0,9.0,15-15,,,,42.9,35.4,,,,27.8,,,,18.7,,1.0,553.0,,SOM  ,SOM  ,6.0,6.0,72340003952.0,,,,,,,,,,,,,,,,,,,,,,,,,,,arkansas
63,8.5,5.0,5.0,2021-03-31T23:59:00,0.0,4.0,5.0,,,,,,,,,,,,,,,,,,,,,2947.0,249.0,,,,,,,,,,,,,,,,,,9,5,0,0,0.0,0.0,2.7,-12.0,-111.0,2.6,2.6,1.23,,2.36,17-17,0,,T,31-31,30.54,8.0,1019.0,66.2,56.6,29.57,17.0,1931.0,46.9,,,6.00,T,,17.0,360.0,,SOM  ,SOM  ,6.0,6.0,72340003952.0,2021-03-17 09:25,2021-03-17 09:30,2021-03-17 09:30,2021-03-17 09:30,2021-03-17 09:30,2021-03-17 09:30,2021-03-17 09:30,2021-03-17 09:50,2021-03-17 10:10,2021-03-17 10:30,2021-03-17 11:00,2021-03-17 11:25,0.4,0.7,0.93,1.17,1.47,1.8,2.05,2.14,2.22,2.27,2.32,2.34,,,arkansas
64,,38.0,33.0,2021-04-30T23:59:00,0.0,,5.0,,,,,,,,,,,,,,,,,,,,,3148.0,200.0,,,,,,,,,,,,,,,,,,11,6,1,0,0.0,0.0,-3.3,-37.0,64.0,-3.0,-3.7,-0.65,,1.19,23-24,0,,0.0,,30.59,1.0,1102.0,69.8,59.5,29.57,10.0,239.0,49.1,,,4.14,,,70.0,136.0,,SOM  ,SOM  ,6.0,6.0,72340003952.0,2021-04-29 04:35,2021-04-29 04:40,2021-04-29 04:45,2021-04-29 04:45,2021-04-29 04:45,2021-04-29 05:05,2021-04-29 05:05,2021-04-29 05:45,2021-04-29 06:05,2021-04-29 06:25,2021-04-29 06:55,2021-04-29 07:20,0.19,0.36,0.45,0.5,0.54,0.56,0.58,0.62,0.67,0.74,0.87,0.93,,,arkansas
65,4.9,157.0,119.0,2021-05-31T23:59:00,0.0,,6.0,,,,,,,,,,,,,,,,,,,,,3191.0,43.0,,,,,,,,,,,,,,,,,,13,12,0,0,0.0,0.0,-3.4,-88.0,20.0,-3.6,-3.4,0.77,,1.71,18-19,0,,0.0,,30.39,13.0,838.0,76.7,67.5,29.57,2.0,550.0,58.2,,,5.73,,,207.0,23.0,,SOM  ,SOM  ,6.0,6.0,72340003952.0,2021-05-27 23:25,2021-05-27 23:30,2021-05-27 23:35,2021-05-27 23:40,2021-05-27 23:45,2021-05-27 23:55,2021-05-28 00:10,2021-05-28 00:30,2021-05-28 00:50,2021-05-18 01:10,2021-05-18 23:15,2021-05-18 23:15,0.16,0.26,0.37,0.48,0.65,0.74,0.79,0.84,0.88,0.93,0.99,1.10,,,arkansas
66,,546.0,389.0,2021-06-30T23:59:00,0.0,2.0,6.0,,,,,,,,,,,,,,,,,,,,,3191.0,0.0,,,,,,,,,,,,,,,,,,8,6,0,17,0.0,0.0,-0.7,-24.0,-1.0,-1.7,0.1,0.39,,2.44,07-08,0,,0.0,,30.17,29.0,827.0,86.5,78.0,29.74,20.0,1633.0,69.4,,,3.70,,,413.0,1.0,,SOM  ,SOM  ,6.0,6.0,72340003952.0,2021-06-07 18:25,2021-06-07 18:25,2021-06-07 18:30,2021-06-07 18:35,2021-06-07 18:45,2021-06-07 19:00,2021-06-07 19:15,2021-06-07 19:35,2021-06-07 19:55,2021-06-07 20:15,2021-06-07 20:50,2021-06-07 21:15,0.44,0.5,0.54,0.55,0.57,0.62,0.66,0.74,0.87,0.87,0.9,0.91,,,arkansas
67,,1017.0,471.0,2021-07-31T23:59:00,0.0,,9.0,,,,,,,,,,,,,,,,,,,,,0.0,0.0,,,,,,,,,,,,,,,,,,9,8,0,18,0.0,0.0,-2.2,-70.0,0.0,-2.9,-1.6,,,1.31,25-25,0,,0.0,,30.22,14.0,754.0,89.2,80.2,29.82,11.0,203.0,71.2,,,,,,541.0,0.0,,SOM  ,SOM  ,6.0,6.0,72340003952.0,2021-07-25 16:50,2021-07-25 16:50,2021-07-25 16:50,2021-07-25 16:50,2021-07-25 17:00,2021-07-25 17:15,2021-07-25 17:25,2021-07-25 17:25,2021-07-25 17:25,2021-07-25 17:25,2021-07-25 17:25,2021-07-25 17:25,0.42,0.64,0.78,1.09,1.2,1.27,1.3,1.3,1.3,1.3,1.3,1.30,,,arkansas
68,5.4,1527.0,511.0,2021-08-31T23:59:00,0.0,,4.0,,,,,,,,,,,,,,,,,,,,,0.0,0.0,,,,,,,,,,,,,,,,,,7,4,0,19,0.0,0.0,-0.5,-16.0,0.0,-0.9,-0.1,,,1.15,06-06,0,,0.0,,,,,91.1,81.5,,,,71.9,,,,,,527.0,-7777.0,,SOM  ,SOM  ,6.0,6.0,72340003952.0,,,,,,,,,,,,,,,,,,,,,,,,,,,arkansas
69,5.6,1856.0,329.0,2021-09-30T23:59:00,0.0,,3.0,,,,,,,,,,,,,,,,,,,,,0.0,0.0,,,,,,,,,,,,,,,,,,5,4,0,4,0.0,0.0,1.5,32.0,-13.0,1.8,1.2,-1.45,,0.74,05-05,0,,0.0,,30.2,22.0,1005.0,86.2,76.0,29.69,1.0,300.0,65.7,,,1.86,,,297.0,13.0,,SOM  ,SOM  ,6.0,6.0,72340003952.0,2021-09-21 11:00,2021-09-05 07:55,2021-09-18 17:00,2021-09-05 08:05,2021-09-05 08:15,2021-09-05 08:30,2021-09-05 08:45,2021-09-05 09:05,2021-09-05 09:45,2021-09-05 09:45,2021-09-05 09:45,2021-09-05 09:45,0.13,0.21,0.26,0.28,0.37,0.5,0.69,0.7,0.71,0.71,0.71,0.71,,,arkansas
70,7.6,1985.0,129.0,2021-10-31T23:59:00,0.0,,3.0,,,,,,,,,,,,,,,,,,,,,77.0,77.0,,,,,,,,,,,,,,,,,,13,9,0,0,0.0,0.0,2.9,45.0,-45.0,2.4,3.5,,,5.79,02-03,0,,0.0,,30.28,17.0,1050.0,75.8,66.7,29.33,28.0,1140.0,57.6,,,,,,84.0,122.0,,SOM  ,SOM  ,6.0,6.0,72340003952.0,2021-10-02 19:10,2021-10-02 19:15,2021-10-02 19:15,2021-10-02 20:20,2021-10-02 20:25,2021-10-02 20:40,2021-10-02 20:50,2021-10-02 20:25,2021-10-02 20:35,2021-10-02 20:40,2021-10-02 21:25,2021-10-02 22:00,0.5,0.8,1.05,1.31,1.8,1.98,2.0,2.61,3.09,3.14,3.16,3.53,,,arkansas
71,7.4,1985.0,0.0,2021-11-30T23:59:00,0.0,,3.0,,,,,,,,,,,,,,,,,,,,,520.0,443.0,,,,,,,,,,,,,,,,,,9,5,2,0,0.0,0.0,-2.6,-11.0,66.0,-1.9,-3.3,,,1.07,11-11,0,,0.0,,,,,59.8,50.2,,,,40.6,,,,,,11.0,377.0,,SOM  ,SOM  ,6.0,6.0,72340003952.0,,,,,,,,,,,,,,,,,,,,,,,,,,,arkansas
72,,1994.0,9.0,2021-12-31T23:59:00,0.0,5.0,4.0,,,,,,,,,,,,,,,,,,,,,849.0,329.0,,,,,,,,,,,,,,,,,,10,6,4,0,0.0,0.0,11.2,8.0,-351.0,11.7,10.7,,,1.52,29-29,0,,0.0,,,,,62.9,54.3,,,,45.7,,,,,,1.0,680.0,,SOM  ,SOM  ,6.0,6.0,72340003952.0,,,,,,,,,,,,,,,,,,,,,,,,,,,arkansas
73,6.3,128.0,128.0,2021-01-31T23:59:00,,1.0,,,,,,,,,,,,,,,,,,,,,,56.0,18.0,,,,,,,,,,,,,,,,,,3,2,0,0,0.0,0.0,0.4,-23.0,-35.0,0.2,0.6,-1.12,,0.49,13-14,,,,,30.32,19.0,1118.0,76.6,68.6,29.86,15.0,1820.0,60.5,30.09,30.06,0.50,,,151.0,53.0,SOM794PCP MTOT:0.50 PCP GT 24HRS:0.49 DATE(S):13-14 DAYS W/PCP >=.01:3  DAYS W/PCP >=.10:2  DAYS W/ PCP >=.50:0 DAYS W/PCP >=1.00:0 MSDP AMTS W/DATE-TIME TAGS:MIN:5 0.10  14/0035 MIN:10 0.16  14/0036 MIN:15 0.20  14/0036 MIN:20 0.23  14/0036 MIN:30 0.25  14/0036 MIN:45 0.27  14/0050 MIN:60 0.29  14/0050 MIN:80 0.31  14/0050 MIN:100 0.36  14/0036 MIN:120 0.38  14/0050 MIN:150 0.43  14/0050 MIN:180 0.47  14/0050 AVG DLY MIN:60.5  AVG DLY MAX:76.6  AVG MLY TMP:68.6  MIN TMP:49 DATE(S):10 MAX TMP:86  DATE(S):27 DAYS MAX <=32:0 DAYS MAX >=90:0  DAYS MIN <=32:0  DAYS MIN  <=0:0  AVG STP:30.055 LWST SLP:29.86 DATE/TIME:151820 HGST SLP:30.32 DATE/TIME:191118 HDD MTH TOT:14 DEP NORM:-2553 SEASON(JUL 1-JUN 30):45 DEP NORM:-25536 CDD MTH TOT:133 DEP NORM:-2553 SEASON(JAN 1-DEC 31):133 DEP NORM:-25536,SOM  ,SOM  ,6.0,6.0,72202012839.0,2021-01-14 00:35,2021-01-14 00:36,2021-01-14 00:36,2021-01-14 00:36,2021-01-14 00:36,2021-01-14 00:50,2021-01-14 00:50,2021-01-14 00:50,2021-01-14 00:36,2021-01-14 00:50,2021-01-14 00:50,2021-01-14 00:50,0.1,0.16,0.2,0.23,0.25,0.27,0.29,0.31,0.36,0.38,0.43,0.47,,,florida
74,8.9,410.0,282.0,2021-02-28T23:59:00,,,2.0,,,,,,,,,,,,,,,,,,,,,73.0,18.0,,,,,,,,,,,,,,,,,,10,5,0,0,0.0,0.0,4.3,111.0,-8.0,2.9,5.6,0.65,,1.46,15-16,,,,,30.28,21.0,1119.0,81.0,74.5,29.82,1.0,1453.0,67.9,30.06,30.03,2.90,,,171.0,26.0,SOM800PCP MTOT:2.90 PCP GT 24HRS:1.46 DATE(S):15-16 DAYS W/PCP >=.01:10 DAYS W/PCP >=.10:5  DAYS W/ PCP >=.50:2 DAYS W/PCP >=1.00:1 MSDP AMTS W/DATE-TIME TAGS:MIN:5 0.27  16/1235 MIN:10 0.36  16/1236 MIN:15 0.44  06/1321 MIN:20 0.56  06/1328 MIN:30 0.75  06/1333 MIN:45 0.87  06/1339 MIN:60 0.91  06/1349 MIN:80 0.94  06/1357 MIN:100 0.97  06/1357 MIN:120 0.97  06/1357 MIN:150 0.97  06/1357 MIN:180 0.97  06/1357 AVG DLY MIN:67.9  AVG DLY MAX:81.0  AVG MLY TMP:74.5  MIN TMP:49 DATE(S):04 MAX TMP:86  DATE(S):25 15 14 DAYS MAX <=32:0 DAYS MAX >=90:0  DAYS MIN <=32:0  DAYS MIN  <=0:0  AVG STP:30.030 LWST SLP:29.81 DATE/TIME:011422 HGST SLP:30.28 DATE/TIME:211119 HDD MTH TOT:16 DEP NORM:-2553 SEASON(JUL 1-JUN 30):61 DEP NORM:-25536 CDD MTH TOT:288 DEP NORM:-2553 SEASON(JAN 1-DEC 31):421 DEP NORM:-25536,SOM  ,SOM  ,6.0,6.0,72202012839.0,2021-02-16 12:35,2021-02-16 12:36,2021-02-06 13:21,2021-02-06 13:28,2021-02-06 13:33,2021-02-06 13:39,2021-02-06 13:49,2021-02-06 13:57,2021-02-06 13:57,2021-02-06 13:57,2021-02-06 13:57,2021-02-06 13:57,0.27,0.36,0.44,0.56,0.75,0.87,0.91,0.94,0.97,0.97,0.97,0.97,,,florida
75,9.4,705.0,295.0,2021-03-31T23:59:00,,,2.0,,,,,,,,,,,,,,,,,,,,,73.0,0.0,,,,,,,,,,,,,,,,,,4,2,0,0,0.0,0.0,1.9,48.0,-11.0,1.4,2.5,-1.13,,1.42,06-06,,,,,30.42,9.0,1145.0,81.7,74.5,29.83,6.0,1553.0,67.4,30.1,30.06,1.87,,,247.0,11.0,SOM795PCP MTOT:1.87 PCP GT 24HRS:1.42 DATE(S):6 DAYS W/PCP >=.01:4  DAYS W/PCP >=.10:2  DAYS W/ PCP >=.50:1 DAYS W/PCP >=1.00:1 MSDP AMTS W/DATE-TIME TAGS:MIN:5 0.45  06/1713 MIN:10 0.79  06/1714 MIN:15 0.99  06/1719 MIN:20 1.17  06/1720 MIN:30 1.32  06/1726 MIN:45 1.35  06/1736 MIN:60 1.35  06/1736 MIN:80 1.39  06/1813 MIN:100 1.40  06/1833 MIN:120 1.40  06/1833 MIN:150 1.40  06/1833 MIN:180 1.41  06/1833 AVG DLY MIN:67.4  AVG DLY MAX:81.7  AVG MLY TMP:74.6  MIN TMP:57 DATE(S):08 MAX TMP:86  DATE(S):31 30 29 DAYS MAX <=32:0 DAYS MAX >=90:0  DAYS MIN <=32:0  DAYS MIN  <=0:0  AVG STP:30.060 LWST SLP:29.82 DATE/TIME:061630 HGST SLP:30.42 DATE/TIME:091145 HDD MTH TOT:0 DEP NORM:-2553 SEASON(JUL 1-JUN 30):61 DEP NORM:-25536 CDD MTH TOT:305 DEP NORM:-2553 SEASON(JAN 1-DEC 31):726 DEP NORM:-25536,SOM  ,SOM  ,6.0,6.0,72202012839.0,2021-03-06 17:13,2021-03-06 17:14,2021-03-06 17:19,2021-03-06 17:20,2021-03-06 17:26,2021-03-06 17:36,2021-03-06 17:36,2021-03-06 18:13,2021-03-06 18:33,2021-03-06 18:33,2021-03-06 18:33,2021-03-06 18:33,0.45,0.79,0.99,1.17,1.32,1.35,1.35,1.39,1.4,1.4,1.4,1.41,,,florida
76,8.9,1078.0,373.0,2021-04-30T23:59:00,,,6.0,,,,,,,,,,,,,,,,,,,,,73.0,0.0,,,,,,,,,,,,,,,,,,6,4,0,4,0.0,0.0,1.6,49.0,-1.0,1.7,1.7,-0.33,,1.36,11-12,,,,,30.28,3.0,2153.0,84.9,77.4,29.75,11.0,1512.0,70.0,30.01,29.98,2.81,,,324.0,1.0,SOM797PCP MTOT:2.75 PCP GT 24HRS:1.36 DATE(S):11-12 DAYS W/PCP >=.01:5  DAYS W/PCP >=.10:4  DAYS W/ PCP >=.50:3 DAYS W/PCP >=1.00:1 MSDP AMTS W/DATE-TIME TAGS:MIN:5 0.28  20/0131 MIN:10 0.39  11/1657 MIN:15 0.47  20/0141 MIN:20 0.53  20/0139 MIN:30 0.65  20/0139 MIN:45 0.78  20/0139 MIN:60 0.90  20/0149 MIN:80 1.00  20/0203 MIN:100 1.04  20/0203 MIN:120 1.06  20/0244 MIN:150 1.13  20/0311 MIN:180 1.16  20/0311 AVG DLY MIN:70.0  AVG DLY MAX:84.9  AVG MLY TMP:77.5  MIN TMP:61 DATE(S):06 02 MAX TMP:93  DATE(S):25 DAYS MAX <=32:0 DAYS MAX >=90:4  DAYS MIN <=32:0  DAYS MIN  <=0:0  AVG STP:29.980 LWST SLP:29.75 DATE/TIME:111512 HGST SLP:30.29 DATE/TIME:031027 HDD MTH TOT:0 DEP NORM:-2553 SEASON(JUL 1-JUN 30):61 DEP NORM:-25536 CDD MTH TOT:380 DEP NORM:-2553 SEASON(JAN 1-DEC 31):1106 DEP NORM:-25536,SOM  ,SOM  ,6.0,6.0,72202012839.0,2021-04-20 01:31,2021-04-11 16:57,2021-04-20 01:41,2021-04-20 01:39,2021-04-20 01:39,2021-04-20 01:39,2021-04-20 01:49,2021-04-20 02:03,2021-04-20 02:03,2021-04-20 02:44,2021-04-20 03:11,2021-04-20 03:11,0.28,0.39,0.47,0.53,0.65,0.78,0.9,1.0,1.04,1.06,1.13,1.16,,,florida
77,10.1,1582.0,503.0,2021-05-31T23:59:00,,,6.0,,,,,,,,,,,,,,,,,,,,,73.0,0.0,,,,,,,,,,,,,,,,,,9,5,0,5,0.0,0.0,1.3,40.0,0.0,0.2,2.4,-2.66,,0.93,12-12,,,,,30.23,21.0,1143.0,87.2,81.2,29.91,29.0,1653.0,75.3,30.07,30.03,2.68,,,463.0,0.0,SOM791PCP MTOT:2.68 PCP GT 24HRS:0.93 DATE(S):12 DAYS W/PCP >=.01:6  DAYS W/PCP >=.10:3  DAYS W/ PCP >=.50:2 DAYS W/PCP >=1.00:0 MSDP AMTS W/DATE-TIME TAGS:MIN:5 0.29  12/1231 MIN:10 0.50  12/1235 MIN:15 0.67  12/1235 MIN:20 0.78  12/1239 MIN:30 0.93  12/1248 MIN:45 0.93  12/1248 MIN:60 0.93  12/1248 MIN:80 0.93  12/1248 MIN:100 0.93  12/1248 MIN:120 0.93  12/1248 MIN:150 0.93  12/1248 MIN:180 0.93  12/1248 AVG DLY MIN:75.3  AVG DLY MAX:87.2  AVG MLY TMP:81.3  MIN TMP:71 DATE(S):06 MAX TMP:94  DATE(S):13 DAYS MAX <=32:0 DAYS MAX >=90:5  DAYS MIN <=32:0  DAYS MIN  <=0:0  AVG STP:30.035 LWST SLP:29.90 DATE/TIME:291658 HGST SLP:30.23 DATE/TIME:211143 HDD MTH TOT:0 DEP NORM:-2553 SEASON(JUL 1-JUN 30):61 DEP NORM:-25536 CDD MTH TOT:510 DEP NORM:-2553 SEASON(JAN 1-DEC 31):1616 DEP NORM:-25536,SOM  ,SOM  ,6.0,6.0,72202012839.0,2021-05-12 12:31,2021-05-12 12:35,2021-05-12 12:35,2021-05-12 12:39,2021-05-12 12:48,2021-05-12 12:48,2021-05-12 12:48,2021-05-12 12:48,2021-05-12 12:48,2021-05-12 12:48,2021-05-12 12:48,2021-05-12 12:48,0.29,0.5,0.67,0.78,0.93,0.93,0.93,0.93,0.93,0.93,0.93,0.93,,,florida
78,8.7,2112.0,530.0,2021-06-30T23:59:00,,,16.0,,,,,,,,,,,,,,,,,,,,,73.0,0.0,,,,,,,,,,,,,,,,,,21,15,0,10,0.0,0.0,0.0,-2.0,0.0,-0.8,0.6,2.77,,4.31,29-30,,,,,30.17,8.0,1121.0,88.7,82.7,29.85,13.0,1737.0,76.6,30.05,30.01,12.44,,,532.0,0.0,SOM801PCP MTOT:12.44 PCP GT 24HRS:4.31 DATE(S):29-30 DAYS W/PCP >=.01:21 DAYS W/PCP >=.10:15 DAYS W/ PCP >=.50:1 DAYS W/PCP >=1.00:3 MSDP AMTS W/DATE-TIME TAGS:MIN:5 0.45  29/1616 MIN:10 0.82  29/1616 MIN:15 1.02  29/1621 MIN:20 1.25  29/1626 MIN:30 1.58  29/1635 MIN:45 1.91  29/1647 MIN:60 1.92  29/1702 MIN:80 2.03  29/1712 MIN:100 2.04  29/1736 MIN:120 2.04  29/1736 MIN:150 2.38  29/1832 MIN:180 2.95  29/1905 AVG DLY MIN:76.6  AVG DLY MAX:88.7  AVG MLY TMP:82.7  MIN TMP:73 DATE(S):29 17 16 MAX TMP:94  DATE(S):13 DAYS MAX <=32:0 DAYS MAX >=90:10 DAYS MIN <=32:0  DAYS MIN  <=0:0  AVG STP:30.010 LWST SLP:29.85 DATE/TIME:131737 HGST SLP:30.17 DATE/TIME:081121 HDD MTH TOT:0 DEP NORM:-2553 SEASON(JUL 1-JUN 30):61 DEP NORM:-25536 CDD MTH TOT:537 DEP NORM:-2553 SEASON(JAN 1-DEC 31):2153 DEP NORM:-25536,SOM  ,SOM  ,6.0,6.0,72202012839.0,2021-06-29 16:16,2021-06-29 16:16,2021-06-29 16:21,2021-06-29 16:26,2021-06-29 16:35,2021-06-29 16:47,2021-06-29 17:02,2021-06-29 17:12,2021-06-29 17:36,2021-06-29 17:36,2021-06-29 18:32,2021-06-29 19:05,0.45,0.82,1.02,1.25,1.58,1.91,1.92,2.03,2.04,2.04,2.38,2.95,,,florida
79,6.7,2691.0,579.0,2021-07-31T23:59:00,,1.0,23.0,,,,,,,,,,,,,,,,,,,,,0.0,0.0,,,,,,,,,,,,,,,,,,17,14,0,22,0.0,0.0,-0.4,-13.0,0.0,-0.9,0.0,1.68,,1.70,13-14,,,,,30.22,12.0,1153.0,90.0,83.7,29.89,25.0,1753.0,77.3,30.06,30.03,8.18,,,592.0,0.0,SOM726PCP MTOT:8.18 PCP GT 24HRS:1.70 DATE(S):13-14 DAYS W/PCP >=.01:15 DAYS W/PCP >=.10:12 DAYS W/ PCP >=.50:5 DAYS W/PCP >=1.00:3 MSDP AMTS W/DATE-TIME TAGS:MIN:5 0.31  13/1316 MIN:10 0.54  05/1453 MIN:15 0.70  05/1458 MIN:20 0.78  05/1503 MIN:30 0.93  05/1508 MIN:45 0.97  05/1518 MIN:60 1.12  12/1157 MIN:80 1.20  12/1211 MIN:100 1.20  12/1211 MIN:120 1.20  12/1211 MIN:150 1.20  12/1211 MIN:180 1.20  12/1211 AVG DLY MIN:77.6  AVG DLY MAX:90.1  AVG MLY TMP:83.9  MIN TMP:71 DATE(S):12 MAX TMP:94  DATE(S):22 AVG STP:30.030 LWST SLP:29.88 DATE/TIME:251737 HGST SLP:30.23 DATE/TIME:121226 HDD MTH TOT:0 DEP NORM:-2553 SEASON(JUL 1-JUN 30):0 DEP NORM:-25536 CDD MTH TOT:494 DEP NORM:-2553 SEASON(JAN 1-DEC 31):2647 DEP NORM:-25536,SOM  ,SOM  ,6.0,6.0,72202012839.0,2021-07-13 13:16,2021-07-05 14:53,2021-07-05 14:58,2021-07-05 15:03,2021-07-05 15:08,2021-07-05 15:18,2021-07-12 11:57,2021-07-12 12:11,2021-07-12 12:11,2021-07-12 12:11,2021-07-12 12:11,2021-07-12 12:11,0.31,0.54,0.7,0.78,0.93,0.97,1.12,1.2,1.2,1.2,1.2,1.20,,,florida
80,8.1,3303.0,612.0,2021-08-31T23:59:00,,1.0,17.0,,,,,,,,,,,,,,,,,,,,,0.0,0.0,,,,,,,,,,,,,,,,,,21,13,0,28,0.0,0.0,0.6,17.0,0.0,0.0,1.1,-1.59,,2.10,03-04,,,,,30.15,10.0,1125.0,91.0,84.8,29.88,31.0,1601.0,78.5,30.03,29.99,7.29,,,595.0,0.0,SOM791PCP MTOT:7.29 PCP GT 24HRS:2.10 DATE(S):3-4 DAYS W/PCP >=.01:21 DAYS W/PCP >=.10:13 DAYS W/ PCP >=.50:6 DAYS W/PCP >=1.00:1 MSDP AMTS W/DATE-TIME TAGS:MIN:5 0.32  15/0044 MIN:10 0.57  31/1713 MIN:15 0.70  31/1718 MIN:20 0.79  03/1910 MIN:30 1.01  03/1915 MIN:45 1.12  03/1929 MIN:60 1.18  03/1935 MIN:80 1.20  03/2003 MIN:100 1.30  03/1935 MIN:120 1.31  03/1957 MIN:150 1.39  03/2030 MIN:180 1.42  03/2042 AVG DLY MIN:78.5  AVG DLY MAX:91.0  AVG MLY TMP:84.8  MIN TMP:73 DATE(S):03 MAX TMP:94  DATE(S):31 DAYS MAX <=32:0 DAYS MAX >=90:28 DAYS MIN <=32:0  DAYS MIN  <=0:0  AVG STP:29.995 LWST SLP:29.88 DATE/TIME:311601 HGST SLP:30.15 DATE/TIME:101125 HDD MTH TOT:0 DEP NORM:-2553 SEASON(JUL 1-JUN 30):0 DEP NORM:-25536 CDD MTH TOT:620 DEP NORM:-2553 SEASON(JAN 1-DEC 31):3267 DEP NORM:-25536,SOM  ,SOM  ,6.0,6.0,72202012839.0,2021-08-15 00:44,2021-08-31 17:13,2021-08-31 17:18,2021-08-03 19:10,2021-08-03 19:15,2021-08-03 19:29,2021-08-03 19:35,2021-08-03 20:03,2021-08-03 19:35,2021-08-03 19:57,2021-08-03 20:30,2021-08-03 20:42,0.32,0.57,0.7,0.79,1.01,1.12,1.18,1.2,1.3,1.31,1.39,1.42,,,florida
81,4.3,3846.0,543.0,2021-09-30T23:59:00,,,22.0,,,,,,,,,,,,,,,,,,,,,0.0,0.0,,,,,,,,,,,,,,,,,,19,14,0,17,0.0,0.0,0.2,6.0,0.0,0.9,-0.5,2.26,,3.33,23-24,,,,,30.16,12.0,1053.0,90.2,83.1,29.85,23.0,1643.0,76.0,29.99,29.96,12.12,,,537.0,0.0,SOM800PCP MTOT:12.12 PCP GT 24HRS:3.33 DATE(S):23-24 DAYS W/PCP >=.01:19 DAYS W/PCP >=.10:14 DAYS W/ PCP >=.50:8 DAYS W/PCP >=1.00:6 MSDP AMTS W/DATE-TIME TAGS:MIN:5 0.55  25/1416 MIN:10 0.86  25/1417 MIN:15 1.12  23/1420 MIN:20 1.36  23/1425 MIN:30 1.71  23/1433 MIN:45 1.97  23/1442 MIN:60 2.04  23/1450 MIN:80 2.04  23/1450 MIN:100 2.04  23/1450 MIN:120 2.10  23/1450 MIN:150 2.10  23/1450 MIN:180 2.10  23/1450 AVG DLY MIN:76.0  AVG DLY MAX:90.2  AVG MLY TMP:83.1  MIN TMP:74 DATE(S):29 23 18 MAX TMP:96  DATE(S):01 DAYS MAX <=32:0 DAYS MAX >=90:17 DAYS MIN <=32:0  DAYS MIN  <=0:0  AVG STP:29.955 LWST SLP:29.85 DATE/TIME:231643 HGST SLP:30.17 DATE/TIME:121045 HDD MTH TOT:0 DEP NORM:-2553 SEASON(JUL 1-JUN 30):0 DEP NORM:-25536 CDD MTH TOT:551 DEP NORM:-2553 SEASON(JAN 1-DEC 31):3818 DEP NORM:-25536,SOM  ,SOM  ,6.0,6.0,72202012839.0,2021-09-25 14:16,2021-09-25 14:17,2021-09-23 14:20,2021-09-23 14:25,2021-09-23 14:33,2021-09-23 14:42,2021-09-23 14:50,2021-09-23 14:50,2021-09-23 14:50,2021-09-23 14:50,2021-09-23 14:50,2021-09-23 14:50,0.55,0.86,1.12,1.36,1.71,1.97,2.04,2.04,2.04,2.1,2.1,2.10,,,florida
82,6.7,4349.0,503.0,2021-10-31T23:59:00,,,9.0,,,,,,,,,,,,,,,,,,,,,0.0,0.0,,,,,,,,,,,,,,,,,,16,10,0,6,0.0,0.0,1.3,43.0,0.0,1.2,1.6,-1.42,,1.01,22-22,,,,,30.17,20.0,1047.0,87.4,81.2,29.73,30.0,458.0,75.1,29.95,29.92,4.91,,,460.0,-7777.0,SOM790PCP MTOT:4.91 PCP GT 24HRS:1.01 DATE(S):22 DAYS W/PCP >=.01:13 DAYS W/PCP >=.10:7  DAYS W/ PCP >=.50:4 DAYS W/PCP >=1.00:1 MSDP AMTS W/DATE-TIME TAGS:MIN:5 0.39  17/1614 MIN:10 0.50  17/1618 MIN:15 0.55  22/1642 MIN:20 0.70  17/1628 MIN:30 0.79  22/1655 MIN:45 0.86  17/1631 MIN:60 0.86  17/1631 MIN:80 0.86  17/1631 MIN:100 0.91  22/1655 MIN:120 0.94  22/1655 MIN:150 0.95  22/1655 MIN:180 0.97  22/1655 AVG DLY MIN:75.1  AVG DLY MAX:87.4  AVG MLY TMP:81.3  MIN TMP:66 DATE(S):31 MAX TMP:91  DATE(S):17 DAYS MAX <=32:0 DAYS MAX >=90:6  DAYS MIN <=32:0  DAYS MIN  <=0:0  AVG STP:29.920 LWST SLP:29.73 DATE/TIME:300458 HGST SLP:30.17 DATE/TIME:201047 HDD MTH TOT:0 DEP NORM:-2553 SEASON(JUL 1-JUN 30):0 DEP NORM:-25536 CDD MTH TOT:513 DEP NORM:-2553 SEASON(JAN 1-DEC 31):4331 DEP NORM:-25536,SOM  ,SOM  ,6.0,6.0,72202012839.0,2021-10-17 16:14,2021-10-17 16:18,2021-10-22 16:42,2021-10-17 16:28,2021-10-22 16:55,2021-10-17 16:31,2021-10-17 16:31,2021-10-17 16:31,2021-10-22 16:55,2021-10-22 16:55,2021-10-22 16:55,2021-10-22 16:55,0.39,0.5,0.55,0.7,0.79,0.86,0.86,0.86,0.91,0.94,0.95,0.97,,,florida
83,6.7,4591.0,242.0,2021-11-30T23:59:00,,1.0,3.0,,,,,,,,,,,,,,,,,,,,,0.0,0.0,,,,,,,,,,,,,,,,,,9,6,0,0,0.0,0.0,-1.8,-58.0,-3.0,-2.1,-1.6,1.11,,1.60,05-05,,,,,30.21,24.0,2122.0,79.6,73.1,29.8,6.0,501.0,66.5,30.05,30.01,4.38,,,300.0,3.0,SOM789PCP MTOT:4.38 PCP GT 24HRS:1.60 DATE(S):5 DAYS W/PCP >=.01:8  DAYS W/PCP >=.10:5  DAYS W/ PCP >=.50:4 DAYS W/PCP >=1.00:1 MSDP AMTS W/DATE-TIME TAGS:MIN:5 0.10  19/1815 MIN:10 0.18  19/1815 MIN:15 0.26  19/1816 MIN:20 0.30  19/1821 MIN:30 0.35  19/1823 MIN:45 0.46  05/0445 MIN:60 0.58  05/0445 MIN:80 0.73  05/0445 MIN:100 0.74  05/0450 MIN:120 0.75  05/0450 MIN:150 0.76  05/0552 MIN:180 0.79  05/0603 AVG DLY MIN:66.5  AVG DLY MAX:79.6  AVG MLY TMP:73.1  MIN TMP:57 DATE(S):28 MAX TMP:85  DATE(S):13 DAYS MAX <=32:0 DAYS MAX >=90:0  DAYS MIN <=32:0  DAYS MIN  <=0:0  AVG STP:30.010 LWST SLP:29.80 DATE/TIME:060501 HGST SLP:30.21 DATE/TIME:242122 HDD MTH TOT:0 DEP NORM:-2553 SEASON(JUL 1-JUN 30):0 DEP NORM:-25536 CDD MTH TOT:250 DEP NORM:-2553 SEASON(JAN 1-DEC 31):4581 DEP NORM:-25536,SOM  ,SOM  ,6.0,6.0,72202012839.0,2021-11-19 18:15,2021-11-19 18:15,2021-11-19 18:16,2021-11-19 18:21,2021-11-19 18:23,2021-11-05 04:45,2021-11-05 04:45,2021-11-05 04:45,2021-11-05 04:50,2021-11-05 04:50,2021-11-05 05:52,2021-11-05 06:03,0.1,0.18,0.26,0.3,0.35,0.46,0.58,0.73,0.74,0.75,0.76,0.79,,,florida
84,5.8,4886.0,295.0,2021-12-31T23:59:00,0.0,,1.0,,,,,,,,,,,,,,,,,,,,,0.0,0.0,,,,,,,,,,,,,,,,,,6,4,0,0,0.0,0.0,4.0,92.0,-34.0,3.7,4.5,-0.85,,0.48,14-15,,,,,30.27,14.0,1042.0,81.6,74.5,29.76,21.0,1752.0,67.5,30.09,30.06,1.19,,,203.0,34.0,SOM799PCP MTOT:1.19 PCP GT 24HRS:0.48 DATE(S):14-15 DAYS W/PCP >=.01:5  DAYS W/PCP >=.10:3  DAYS W/ PCP >=.50:0 DAYS W/PCP >=1.00:0 MSDP AMTS W/DATE-TIME TAGS:MIN:5 0.09  15/0729 MIN:10 0.14  15/0730 MIN:15 0.15  15/0731 MIN:20 0.15  15/0742 MIN:30 0.18  15/0742 MIN:45 0.20  15/0804 MIN:60 0.23  15/0820 MIN:80 0.32  15/0840 MIN:100 0.33  15/0842 MIN:120 0.33  15/0842 MIN:150 0.37  15/0842 MIN:180 0.37  15/0842 AVG DLY MIN:67.5  AVG DLY MAX:81.6  AVG MLY TMP:74.6  MIN TMP:56 DATE(S):23 MAX TMP:85  DATE(S):19 09 07 DAYS MAX <=32:0 DAYS MAX >=90:0  DAYS MIN <=32:0  DAYS MIN  <=0:0  AVG STP:30.055 LWST SLP:29.76 DATE/TIME:211752 HGST SLP:30.27 DATE/TIME:141042 HDD MTH TOT:0 DEP NORM:-2553 SEASON(JUL 1-JUN 30):0 DEP NORM:-25536 CDD MTH TOT:302 DEP NORM:-2553 SEASON(JAN 1-DEC 31):4883 DEP NORM:-25536,SOM  ,SOM  ,6.0,6.0,72202012839.0,2021-12-15 07:29,2021-12-15 07:30,2021-12-15 07:31,2021-12-15 07:42,2021-12-15 07:42,2021-12-15 08:04,2021-12-15 08:20,2021-12-15 08:40,2021-12-15 08:42,2021-12-15 08:42,2021-12-15 08:42,2021-12-15 08:42,0.09,0.14,0.15,0.15,0.18,0.2,0.23,0.32,0.33,0.33,0.37,0.37,,,florida
85,5.6,0.0,0.0,2021-01-31T23:59:00,0.0,,,,,,,,,,,,,,,,,,,,,,,5542.0,1320.0,,,,,,,,,,,,,,,,,,7,1,31,0,1.0,16.0,5.2,0.0,-165.0,5.1,5.2,-0.06,,0.51,18-19,17,31.0,0.8,24-24,30.23,21.0,1137.0,28.2,22.3,28.67,5.0,2309.0,16.3,29.44,29.29,0.67,3.0,,0.0,1485.0,SOM791PCP MTOT:0.08 PCP GT 24HRS:0.06 DATE(S):24 DAYS W/PCP >=.01:2  DAYS W/PCP >=.10:0  DAYS W/ PCP >=.50:0 DAYS W/PCP >=1.00:0 MSDP AMTS W/DATE-TIME TAGS:MIN:5 0.01  28/0147 MIN:10 0.01  28/0147 MIN:15 0.01  28/0147 MIN:20 0.02  24/0427 MIN:30 0.02  24/0452 MIN:45 0.03  24/0452 MIN:60 0.03  24/0452 MIN:80 0.04  24/0452 MIN:100 0.04  24/0452 MIN:120 0.04  24/0452 MIN:150 0.05  24/0452 MIN:180 0.05  24/0452 AVG DLY MIN:16.3  AVG DLY MAX:28.2  AVG MLY TMP:22.3  MIN TMP:-3 DATE(S):02 MAX TMP:41  DATE(S):17 DAYS MAX <=32:1 DAYS MAX >=70:0  DAYS MIN <=32:31 DAYS MIN  <=0:1  AVG STP:29.295 LWST SLP:28.67 DATE/TIME:052309 HGST SLP:30.23 DATE/TIME:211137 HDD MTH TOT:1317 DEP NORM:-2553 SEASON(JUL 1-JUN 30):5502 DEP NORM:-25536 CDD MTH TOT:0 DEP NORM:-2553 SEASON(JAN 1-DEC 31):0 DEP NORM:-25536,SOM  ,SOM  ,6.0,6.0,70273026451.0,,,,,,,,,,,,,,,,,,,,,,,,,,,alaska
86,5.8,0.0,0.0,2021-02-28T23:59:00,7.0,,,,,,,,,,,,,,,,,,,,,,,6958.0,1416.0,,,,,,,,,,,,,,,,,,11,4,28,0,7.0,28.0,-5.9,0.0,162.0,-6.1,-5.8,0.18,,0.21,16-16,25,28.0,2.7,16-16,30.5,7.0,306.0,20.5,14.3,29.02,21.0,52.0,8.0,29.88,29.72,0.90,15.2,,0.0,1254.0,SOM797PCP MTOT:0.90 PCP GT 24HRS:0.21 DATE(S):16 DAYS W/PCP >=.01:11 DAYS W/PCP >=.10:4  DAYS W/ PCP >=.50:0 DAYS W/PCP >=1.00:0 MSDP AMTS W/DATE-TIME TAGS:MIN:5 0.01  27/1950 MIN:10 0.02  16/0831 MIN:15 0.03  16/0831 MIN:20 0.03  16/0842 MIN:30 0.04  16/0842 MIN:45 0.05  16/0855 MIN:60 0.06  16/0915 MIN:80 0.07  16/0915 MIN:100 0.08  16/0855 MIN:120 0.09  16/0915 MIN:150 0.10  16/0941 MIN:180 0.11  16/0941 AVG DLY MIN:8.0   AVG DLY MAX:20.5  AVG MLY TMP:14.3  MIN TMP:-6 DATE(S):08 MAX TMP:30  DATE(S):25 18 17 DAYS MAX <=32:2 DAYS MAX >=70:0  DAYS MIN <=32:28 DAYS MIN  <=0:7  AVG STP:29.725 LWST SLP:29.02 DATE/TIME:210052 HGST SLP:30.50 DATE/TIME:070306 HDD MTH TOT:1413 DEP NORM:-2553 SEASON(JUL 1-JUN 30):6915 DEP NORM:-25536 CDD MTH TOT:0 DEP NORM:-2553 SEASON(JAN 1-DEC 31):0 DEP NORM:-25536,SOM  ,SOM  ,6.0,6.0,70273026451.0,2021-02-27 19:50,2021-02-16 08:31,2021-02-16 08:31,2021-02-16 08:42,2021-02-16 08:42,2021-02-16 08:55,2021-02-16 09:15,2021-02-16 09:15,2021-02-16 08:55,2021-02-16 09:15,2021-02-16 09:41,2021-02-16 09:41,0.01,0.02,0.03,0.03,0.04,0.05,0.06,0.07,0.08,0.09,0.1,0.11,,,alaska
87,5.4,0.0,0.0,2021-03-31T23:59:00,4.0,,,,,,,,,,,,,,,,,,,,,,,8374.0,1415.0,,,,,,,,,,,,,,,,,,9,4,31,0,2.0,25.0,-7.4,0.0,223.0,-6.6,-8.1,0.40,,0.32,01-01,28,26.0,4.1,15-15,30.36,12.0,2253.0,27.3,19.2,29.19,2.0,853.0,11.1,29.81,29.66,1.00,13.5,,0.0,1192.0,SOM794PCP MTOT:0.28 PCP GT 24HRS:0.24 DATE(S):24-25 DAYS W/PCP >=.01:5  DAYS W/PCP >=.10:2  DAYS W/ PCP >=.50:0 DAYS W/PCP >=1.00:0 MSDP AMTS W/DATE-TIME TAGS:MIN:5 0.01  29/0726 MIN:10 0.02  25/0958 MIN:15 0.02  25/0958 MIN:20 0.02  25/0958 MIN:30 0.03  24/2332 MIN:45 0.04  24/2332 MIN:60 0.05  24/2332 MIN:80 0.06  24/2332 MIN:100 0.07  24/2332 MIN:120 0.07  25/0028 MIN:150 0.08  25/0120 MIN:180 0.09  25/0159 AVG DLY MIN:11.1  AVG DLY MAX:27.3  AVG MLY TMP:19.2  MIN TMP:-3 DATE(S):13 MAX TMP:40  DATE(S):30 DAYS MAX <=32:2 DAYS MAX >=70:0  DAYS MIN <=32:31 DAYS MIN  <=0:2  AVG STP:29.660 LWST SLP:29.18 DATE/TIME:020604 HGST SLP:30.37 DATE/TIME:122243 HDD MTH TOT:1412 DEP NORM:-2553 SEASON(JUL 1-JUN 30):8327 DEP NORM:-25536 CDD MTH TOT:0 DEP NORM:-2553 SEASON(JAN 1-DEC 31):0 DEP NORM:-25536,SOM  ,SOM  ,6.0,6.0,70273026451.0,,,,,,,,,,,,,,,,,,,,,,,,,,,alaska
88,7.6,0.0,0.0,2021-04-30T23:59:00,1.0,,,,,,,,,,,,,,,,,,,,,,,9277.0,903.0,,,,,,,,,,,,,,,,,,5,0,22,0,0.0,9.0,-2.0,0.0,57.0,-0.5,-3.5,-0.30,,0.08,29-29,25,4.0,1.6,08-08,30.52,17.0,153.0,44.0,34.8,29.5,29.0,1853.0,25.6,30.0,29.85,0.17,1.9,,0.0,846.0,SOM793PCP MTOT:0.08 PCP GT 24HRS:0.08 DATE(S):29-30 DAYS W/PCP >=.01:1  DAYS W/PCP >=.10:0  DAYS W/ PCP >=.50:0 DAYS W/PCP >=1.00:0 MSDP AMTS W/DATE-TIME TAGS:MIN:5 0.01  29/2008 MIN:10 0.01  29/2008 MIN:15 0.01  29/2008 MIN:20 0.01  29/2008 MIN:30 0.02  29/2008 MIN:45 0.02  29/2008 MIN:60 0.02  29/2008 MIN:80 0.03  29/2008 MIN:100 0.03  29/2008 MIN:120 0.04  29/2008 MIN:150 0.04  29/2008 MIN:180 0.05  29/2008 AVG DLY MIN:25.6  AVG DLY MAX:44.0  AVG MLY TMP:34.8  MIN TMP:4  DATE(S):10 MAX TMP:61  DATE(S):19 DAYS MAX <=32:9 DAYS MAX >=70:0  DAYS MIN <=32:22 DAYS MIN  <=0:0  AVG STP:29.850 LWST SLP:29.49 DATE/TIME:010009 HGST SLP:30.53 DATE/TIME:170134 HDD MTH TOT:897 DEP NORM:-2553 SEASON(JUL 1-JUN 30):9224 DEP NORM:-25536 CDD MTH TOT:0 DEP NORM:-2553 SEASON(JAN 1-DEC 31):0 DEP NORM:-25536,SOM  ,SOM  ,6.0,6.0,70273026451.0,2021-04-29 20:08,2021-04-29 20:08,2021-04-29 20:08,2021-04-29 20:08,2021-04-29 20:08,2021-04-29 20:08,2021-04-29 20:08,2021-04-29 20:08,2021-04-29 20:08,2021-04-29 20:08,2021-04-29 20:08,2021-04-29 20:08,0.01,0.01,0.01,0.01,0.02,0.02,0.02,0.03,0.03,0.04,0.04,0.05,,,alaska
89,8.1,0.0,0.0,2021-05-31T23:59:00,0.0,,,,,,,,,,,,,,,,,,,,,,,9804.0,527.0,,,,,,,,,,,,,,,,,,9,2,2,1,0.0,0.0,0.2,0.0,-6.0,-0.2,0.6,0.37,,0.66,28-29,0,,0.0,,30.19,24.0,753.0,55.8,48.0,29.42,31.0,2053.0,40.2,29.91,29.75,1.09,,,0.0,533.0,SOM793PCP MTOT:1.05 PCP GT 24HRS:0.66 DATE(S):28-29 DAYS W/PCP >=.01:8  DAYS W/PCP >=.10:2  DAYS W/ PCP >=.50:1 DAYS W/PCP >=1.00:0 MSDP AMTS W/DATE-TIME TAGS:MIN:5 0.02  29/1410 MIN:10 0.03  29/1415 MIN:15 0.04  29/1420 MIN:20 0.05  29/1420 MIN:30 0.07  29/1420 MIN:45 0.10  29/1420 MIN:60 0.12  29/1436 MIN:80 0.15  29/1436 MIN:100 0.17  29/1445 MIN:120 0.19  29/1445 MIN:150 0.22  29/1500 MIN:180 0.24  29/1527 AVG DLY MIN:40.2  AVG DLY MAX:55.8  AVG MLY TMP:48.0  MIN TMP:26 DATE(S):01 MAX TMP:71  DATE(S):25 DAYS MAX <=32:0 DAYS MAX >=70:1  DAYS MIN <=32:2  DAYS MIN  <=0:0  AVG STP:29.755 LWST SLP:29.41 DATE/TIME:312019 HGST SLP:30.20 DATE/TIME:240701 HDD MTH TOT:520 DEP NORM:-2553 SEASON(JUL 1-JUN 30):9744 DEP NORM:-25536 CDD MTH TOT:0 DEP NORM:-2553 SEASON(JAN 1-DEC 31):0 DEP NORM:-25536,SOM  ,SOM  ,6.0,6.0,70273026451.0,2021-05-29 14:10,2021-05-29 14:15,2021-05-29 14:20,2021-05-29 14:20,2021-05-29 14:20,2021-05-29 14:20,2021-05-29 14:36,2021-05-29 14:36,2021-05-29 14:45,2021-05-29 14:45,2021-05-29 15:00,2021-05-29 15:27,0.02,0.03,0.04,0.05,0.07,0.1,0.12,0.15,0.17,0.19,0.22,0.24,,,alaska
90,7.8,0.0,0.0,2021-06-30T23:59:00,0.0,,,,,,,,,,,,,,,,,,,,,,,10060.0,256.0,,,,,,,,,,,,,,,,,,6,0,0,2,0.0,0.0,1.3,0.0,-37.0,0.9,1.5,-0.66,,0.14,20-21,0,,0.0,,30.25,27.0,841.0,63.7,56.5,29.42,23.0,2354.0,49.2,29.89,29.73,0.31,,,-7777.0,293.0,SOM796PCP MTOT:0.31 PCP GT 24HRS:0.14 DATE(S):20-21 DAYS W/PCP >=.01:6  DAYS W/PCP >=.10:0  DAYS W/ PCP >=.50:0 DAYS W/PCP >=1.00:0 MSDP AMTS W/DATE-TIME TAGS:MIN:5 0.02  21/0441 MIN:10 0.03  21/0441 MIN:15 0.03  21/0441 MIN:20 0.03  21/0441 MIN:30 0.04  21/0458 MIN:45 0.05  21/0519 MIN:60 0.05  21/0519 MIN:80 0.05  21/0557 MIN:100 0.06  21/0557 MIN:120 0.06  23/2228 MIN:150 0.07  23/2228 MIN:180 0.07  23/2228 AVG DLY MIN:49.2  AVG DLY MAX:63.7  AVG MLY TMP:56.5  MIN TMP:41 DATE(S):02 MAX TMP:70  DATE(S):29 12 DAYS MAX <=32:0 DAYS MAX >=70:2  DAYS MIN <=32:0  DAYS MIN  <=0:0  AVG STP:29.730 LWST SLP:29.42 DATE/TIME:232354 HGST SLP:30.25 DATE/TIME:270841 HDD MTH TOT:248 DEP NORM:-2553 SEASON(JUL 1-JUN 30):9992 DEP NORM:-25536 CDD MTH TOT:0 DEP NORM:-2553 SEASON(JAN 1-DEC 31):0 DEP NORM:-25536,SOM  ,SOM  ,6.0,6.0,70273026451.0,2021-06-21 04:41,2021-06-21 04:41,2021-06-21 04:41,2021-06-21 04:41,2021-06-21 04:58,2021-06-21 05:19,2021-06-21 05:19,2021-06-21 05:57,2021-06-21 05:57,2021-06-23 22:28,2021-06-23 22:28,2021-06-23 22:28,0.02,0.03,0.03,0.03,0.04,0.05,0.05,0.05,0.06,0.06,0.07,0.07,,,alaska
91,6.7,10.0,10.0,2021-07-31T23:59:00,0.0,,,,,,,,,,,,,,,,,,,,,,,194.0,194.0,,,,,,,,,,,,,,,,,,11,3,0,5,0.0,0.0,0.3,8.0,0.0,0.1,0.5,-0.60,,0.62,21-22,0,,0.0,,30.27,4.0,102.0,65.5,59.1,29.69,21.0,1921.0,52.7,30.0,29.85,1.23,,,2.0,194.0,SOM794PCP MTOT:1.23 PCP GT 24HRS:0.62 DATE(S):21-22 DAYS W/PCP >=.01:11 DAYS W/PCP >=.10:3  DAYS W/ PCP >=.50:0 DAYS W/PCP >=1.00:0 MSDP AMTS W/DATE-TIME TAGS:MIN:5 0.03  06/1144 MIN:10 0.05  06/1147 MIN:15 0.06  06/1154 MIN:20 0.07  06/1158 MIN:30 0.10  06/1158 MIN:45 0.13  06/1204 MIN:60 0.15  06/1219 MIN:80 0.18  06/1237 MIN:100 0.20  06/1237 MIN:120 0.21  06/1255 MIN:150 0.25  06/1226 MIN:180 0.27  06/1255 AVG DLY MIN:52.7  AVG DLY MAX:65.5  AVG MLY TMP:59.1  MIN TMP:46 DATE(S):01 MAX TMP:81  DATE(S):18 DAYS MAX <=32:0 DAYS MAX >=70:5  DAYS MIN <=32:0  DAYS MIN  <=0:0  AVG STP:29.845 LWST SLP:29.69 DATE/TIME:211921 HGST SLP:30.27 DATE/TIME:040102 HDD MTH TOT:189 DEP NORM:-2553 SEASON(JUL 1-JUN 30):189 DEP NORM:-25536 CDD MTH TOT:11 DEP NORM:-2553 SEASON(JAN 1-DEC 31):11 DEP NORM:-25536,SOM  ,SOM  ,6.0,6.0,70273026451.0,2021-07-06 11:44,2021-07-06 11:47,2021-07-06 11:54,2021-07-06 11:58,2021-07-06 11:58,2021-07-06 12:04,2021-07-06 12:19,2021-07-06 12:37,2021-07-06 12:37,2021-07-06 12:55,2021-07-06 12:26,2021-07-06 12:55,0.03,0.05,0.06,0.07,0.1,0.13,0.15,0.18,0.2,0.21,0.25,0.27,,,alaska
92,6.3,10.0,0.0,2021-08-31T23:59:00,0.0,,,,,,,,,,,,,,,,,,,,,,,432.0,239.0,,,,,,,,,,,,,,,,,,15,12,0,2,0.0,0.0,0.6,0.0,-17.0,0.7,0.5,1.09,,1.28,08-09,0,,0.0,,30.18,21.0,348.0,64.2,57.3,29.39,10.0,242.0,50.5,29.85,29.7,4.34,,,-7777.0,256.0,SOM791PCP MTOT:4.34 PCP GT 24HRS:1.28 DATE(S):8-9 DAYS W/PCP >=.01:15 DAYS W/PCP >=.10:12 DAYS W/ PCP >=.50:2 DAYS W/PCP >=1.00:1 MSDP AMTS W/DATE-TIME TAGS:MIN:5 0.05  27/0921 MIN:10 0.07  27/0923 MIN:15 0.09  26/2220 MIN:20 0.11  26/2225 MIN:30 0.15  26/2220 MIN:45 0.20  26/2234 MIN:60 0.22  26/2247 MIN:80 0.26  26/2258 MIN:100 0.28  08/1558 MIN:120 0.31  08/1617 MIN:150 0.36  08/1648 MIN:180 0.41  08/1708 AVG DLY MIN:50.5  AVG DLY MAX:64.2  AVG MLY TMP:57.4  MIN TMP:41 DATE(S):28 MAX TMP:76  DATE(S):02 DAYS MAX <=32:0 DAYS MAX >=70:2  DAYS MIN <=32:0  DAYS MIN  <=0:0  AVG STP:29.695 LWST SLP:29.39 DATE/TIME:100242 HGST SLP:30.18 DATE/TIME:210348 HDD MTH TOT:236 DEP NORM:-2553 SEASON(JUL 1-JUN 30):425 DEP NORM:-25536 CDD MTH TOT:0 DEP NORM:-2553 SEASON(JAN 1-DEC 31):11 DEP NORM:-25536,SOM  ,SOM  ,6.0,6.0,70273026451.0,2021-08-27 09:21,2021-08-27 09:23,2021-08-26 22:20,2021-08-26 22:25,2021-08-26 22:20,2021-08-26 22:34,2021-08-26 22:47,2021-08-26 22:58,2021-08-08 15:58,2021-08-08 16:17,2021-08-08 16:48,2021-08-08 17:08,0.05,0.07,0.09,0.11,0.15,0.2,0.22,0.26,0.28,0.31,0.36,0.41,,,alaska
93,6.3,10.0,0.0,2021-09-30T23:59:00,0.0,,,,,,,,,,,,,,,,,,,,,,,959.0,526.0,,,,,,,,,,,,,,,,,,18,5,7,0,0.0,0.0,-1.2,0.0,32.0,-1.3,-1.0,-1.04,,0.74,23-24,0,,T,24-24,30.01,7.0,524.0,53.8,47.4,29.05,30.0,2253.0,41.0,29.61,29.46,1.95,T,,0.0,494.0,SOM799PCP MTOT:1.95 PCP GT 24HRS:0.74 DATE(S):23-24 DAYS W/PCP >=.01:18 DAYS W/PCP >=.10:5  DAYS W/ PCP >=.50:1 DAYS W/PCP >=1.00:0 MSDP AMTS W/DATE-TIME TAGS:MIN:5 0.03  04/0559 MIN:10 0.03  23/2253 MIN:15 0.04  23/2253 MIN:20 0.05  23/2253 MIN:30 0.06  23/2253 MIN:45 0.08  23/2312 MIN:60 0.11  23/2253 MIN:80 0.14  23/2253 MIN:100 0.17  23/2304 MIN:120 0.20  23/2056 MIN:150 0.25  23/2253 MIN:180 0.29  23/2253 AVG DLY MIN:41.0  AVG DLY MAX:53.8  AVG MLY TMP:47.4  MIN TMP:25 DATE(S):30 28 MAX TMP:62  DATE(S):05 03 DAYS MAX <=32:0 DAYS MAX >=70:0  DAYS MIN <=32:7  DAYS MIN  <=0:0  AVG STP:29.460 LWST SLP:29.04 DATE/TIME:302359 HGST SLP:30.01 DATE/TIME:070524 HDD MTH TOT:518 DEP NORM:-2553 SEASON(JUL 1-JUN 30):943 DEP NORM:-25536 CDD MTH TOT:0 DEP NORM:-2553 SEASON(JAN 1-DEC 31):11 DEP NORM:-25536,SOM  ,SOM  ,6.0,6.0,70273026451.0,2021-09-04 05:59,2021-09-23 22:53,2021-09-23 22:53,2021-09-23 22:53,2021-09-23 22:53,2021-09-23 23:12,2021-09-23 22:53,2021-09-23 22:53,2021-09-23 23:04,2021-09-23 20:56,2021-09-23 22:53,2021-09-23 22:53,0.03,0.03,0.04,0.05,0.06,0.08,0.11,0.14,0.17,0.2,0.25,0.29,,,alaska
94,5.8,10.0,0.0,2021-10-31T23:59:00,1.0,,,,,,,,,,,,,,,,,,,,,,,1799.0,840.0,,,,,,,,,,,,,,,,,,8,5,14,0,0.0,0.0,3.1,0.0,-96.0,2.4,3.7,-0.49,,0.63,08-09,1,15.0,2.0,14-14,30.12,4.0,1119.0,42.9,37.9,28.84,22.0,1907.0,32.8,29.46,29.31,1.54,2.3,,0.0,936.0,SOM795PCP MTOT:1.48 PCP GT 24HRS:0.63 DATE(S):8-9 DAYS W/PCP >=.01:8  DAYS W/PCP >=.10:5  DAYS W/ PCP >=.50:1 DAYS W/PCP >=1.00:0 MSDP AMTS W/DATE-TIME TAGS:MIN:5 0.02  21/0115 MIN:10 0.04  09/0652 MIN:15 0.05  09/0657 MIN:20 0.06  09/0657 MIN:30 0.09  09/0657 MIN:45 0.11  09/0657 MIN:60 0.15  09/0652 MIN:80 0.20  09/0652 MIN:100 0.24  09/0657 MIN:120 0.27  09/0657 MIN:150 0.30  09/0734 MIN:180 0.34  09/0734 AVG DLY MIN:32.8  AVG DLY MAX:42.9  AVG MLY TMP:37.9  MIN TMP:24 DATE(S):29 MAX TMP:50  DATE(S):10 07 DAYS MAX <=32:0 DAYS MAX >=70:0  DAYS MIN <=32:14 DAYS MIN  <=0:0  AVG STP:29.305 LWST SLP:28.84 DATE/TIME:221907 HGST SLP:30.12 DATE/TIME:041119 HDD MTH TOT:836 DEP NORM:-2553 SEASON(JUL 1-JUN 30):1779 DEP NORM:-25536 CDD MTH TOT:0 DEP NORM:-2553 SEASON(JAN 1-DEC 31):11 DEP NORM:-25536,SOM  ,SOM  ,6.0,6.0,70273026451.0,2021-10-21 01:15,2021-10-09 06:52,2021-10-09 06:57,2021-10-09 06:57,2021-10-09 06:57,2021-10-09 06:57,2021-10-09 06:52,2021-10-09 06:52,2021-10-09 06:57,2021-10-09 06:57,2021-10-09 07:34,2021-10-09 07:34,0.02,0.04,0.05,0.06,0.09,0.11,0.15,0.2,0.24,0.27,0.3,0.34,,,alaska
95,5.6,10.0,0.0,2021-11-30T23:59:00,5.0,,,,,,,,,,,,,,,,,,,,,,,3272.0,1473.0,,,,,,,,,,,,,,,,,,10,6,26,0,10.0,24.0,-6.4,0.0,189.0,-7.0,-5.9,0.02,,0.40,01-02,9,12.0,8.0,11-11,30.14,20.0,6.0,20.8,15.8,28.86,30.0,1013.0,10.7,29.57,29.41,1.18,16.5,,0.0,1284.0,SOM793PCP MTOT:1.18 PCP GT 24HRS:0.40 DATE(S):1-2 DAYS W/PCP >=.01:10 DAYS W/PCP >=.10:6  DAYS W/ PCP >=.50:0 DAYS W/PCP >=1.00:0 MSDP AMTS W/DATE-TIME TAGS:MIN:5 0.03  11/0014 MIN:10 0.03  11/0014 MIN:15 0.04  11/0014 MIN:20 0.04  11/0014 MIN:30 0.04  30/1605 MIN:45 0.05  30/1605 MIN:60 0.06  11/0014 MIN:80 0.08  11/0014 MIN:100 0.09  11/0014 MIN:120 0.10  11/0014 MIN:150 0.12  01/2004 MIN:180 0.14  01/1945 AVG DLY MIN:10.7  AVG DLY MAX:20.8  AVG MLY TMP:15.8  MIN TMP:-8 DATE(S):28 MAX TMP:46  DATE(S):03 DAYS MAX <=32:2 DAYS MAX >=70:0  DAYS MIN <=32:26 DAYS MIN  <=0:10 AVG STP:29.415 LWST SLP:28.86 DATE/TIME:301013 HGST SLP:30.14 DATE/TIME:200006 HDD MTH TOT:1470 DEP NORM:-2553 SEASON(JUL 1-JUN 30):3249 DEP NORM:-25536 CDD MTH TOT:0 DEP NORM:-2553 SEASON(JAN 1-DEC 31):11 DEP NORM:-25536,SOM  ,SOM  ,6.0,6.0,70273026451.0,2021-11-11 00:14,2021-11-11 00:14,2021-11-11 00:14,2021-11-11 00:14,2021-11-30 16:05,2021-11-30 16:05,2021-11-11 00:14,2021-11-11 00:14,2021-11-11 00:14,2021-11-11 00:14,2021-11-01 20:04,2021-11-01 19:45,0.03,0.03,0.04,0.04,0.04,0.05,0.06,0.08,0.09,0.1,0.12,0.14,,,alaska
96,5.8,10.0,0.0,2021-12-31T23:59:00,,,,,,,,,,,,,,,,,,,,,,,,4708.0,1436.0,,,,,,,,,,,,,,,,,,13,2,31,0,6.0,25.0,-2.0,0.0,10.0,-2.0,-1.9,-0.05,,0.38,20-20,14,21.0,3.1,01-01,30.42,19.0,1953.0,22.8,17.0,28.53,10.0,427.0,11.3,29.82,29.67,1.06,,,0.0,1426.0,SOM798PCP MTOT:0.93 PCP GT 24HRS:0.24 DATE(S):20-21 DAYS W/PCP >=.01:14 DAYS W/PCP >=.10:3  DAYS W/ PCP >=.50:0 DAYS W/PCP >=1.00:0 MSDP AMTS W/DATE-TIME TAGS:MIN:5 0.01  31/1811 MIN:10 0.02  20/2130 MIN:15 0.03  20/2130 MIN:20 0.03  20/2130 MIN:30 0.04  20/2130 MIN:45 0.05  20/2130 MIN:60 0.06  20/1754 MIN:80 0.08  20/1754 MIN:100 0.08  20/1754 MIN:120 0.09  20/1837 MIN:150 0.10  20/1909 MIN:180 0.11  20/2130 AVG DLY MIN:11.3  AVG DLY MAX:22.8  AVG MLY TMP:17.1  MIN TMP:-9 DATE(S):15 13 MAX TMP:40  DATE(S):28 DAYS MAX <=32:2 DAYS MAX >=70:0  DAYS MIN <=32:31 DAYS MIN  <=0:6  AVG STP:29.665 LWST SLP:28.53 DATE/TIME:100427 HGST SLP:30.44 DATE/TIME:191839 HDD MTH TOT:1479 DEP NORM:-2553 SEASON(JUL 1-JUN 30):4728 DEP NORM:-25536 CDD MTH TOT:0 DEP NORM:-2553 SEASON(JAN 1-DEC 31):11 DEP NORM:-25536,SOM  ,SOM  ,6.0,6.0,70273026451.0,2021-12-31 18:11,2021-12-20 21:30,2021-12-20 21:30,2021-12-20 21:30,2021-12-20 21:30,2021-12-20 21:30,2021-12-20 17:54,2021-12-20 17:54,2021-12-20 17:54,2021-12-20 18:37,2021-12-20 19:09,2021-12-20 21:30,0.01,0.02,0.03,0.03,0.04,0.05,0.06,0.08,0.08,0.09,0.1,0.11,,,alaska
97,5.8,14.0,14.0,2021-01-31T23:59:00,,3.0,,,,,,,,,,,,,,,,,,,,,,615.0,242.0,,,,,,,,,,,,,,,,,,4,4,0,0,0.0,0.0,0.9,10.0,-20.0,2.6,-0.7,-0.80,,1.57,28-29,,,,,30.29,12.0,1103.0,67.2,57.6,29.7,25.0,1353.0,48.1,30.05,29.7,1.91,,,4.0,262.0,SOM794PCP MTOT:1.91 PCP GT 24HRS:1.57 DATE(S):28-29 DAYS W/PCP >=.01:3  DAYS W/PCP >=.10:3  DAYS W/ PCP >=.50:1 DAYS W/PCP >=1.00:0 MSDP AMTS W/DATE-TIME TAGS:MIN:5 0.12  28/1951 MIN:10 0.18  28/1954 MIN:15 0.23  29/1037 MIN:20 0.24  29/1037 MIN:30 0.27  28/2010 MIN:45 0.33  28/2029 MIN:60 0.39  28/2025 MIN:80 0.44  28/2043 MIN:100 0.50  28/2108 MIN:120 0.55  28/2121 MIN:150 0.60  28/2144 MIN:180 0.63  28/2211 AVG DLY MIN:48.1  AVG DLY MAX:67.2  AVG MLY TMP:57.7  MIN TMP:42 DATE(S):24 MAX TMP:87  DATE(S):15 DAYS MAX <=32:0 DAYS MAX >=90:0  DAYS MIN <=32:0  DAYS MIN  <=0:0  AVG STP:29.700 LWST SLP:29.69 DATE/TIME:190504 HGST SLP:30.29 DATE/TIME:121103 HDD MTH TOT:234 DEP NORM:-2553 SEASON(JUL 1-JUN 30):590 DEP NORM:-25536 CDD MTH TOT:14 DEP NORM:-2553 SEASON(JAN 1-DEC 31):14 DEP NORM:-25536,SOM  ,SOM  ,6.0,6.0,72295023174.0,2021-01-28 19:51,2021-01-28 19:54,2021-01-29 10:37,2021-01-29 10:37,2021-01-28 20:10,2021-01-28 20:29,2021-01-28 20:25,2021-01-28 20:43,2021-01-28 21:08,2021-01-28 21:21,2021-01-28 21:44,2021-01-28 22:11,0.12,0.18,0.23,0.24,0.27,0.33,0.39,0.44,0.5,0.55,0.6,0.63,,,california
98,6.9,14.0,0.0,2021-02-28T23:59:00,,3.0,,,,,,,,,,,,,,,,,,,,,,815.0,200.0,,,,,,,,,,,,,,,,,,1,0,0,0,0.0,0.0,0.7,-5.0,-25.0,2.0,-0.6,-3.23,,0.02,12-12,,,,,30.34,18.0,1042.0,66.3,57.8,29.81,13.0,1740.0,49.4,30.05,29.69,0.02,,,5.0,225.0,SOM790PCP MTOT:0.02 PCP GT 24HRS:0.02 DATE(S):12 DAYS W/PCP >=.01:1  DAYS W/PCP >=.10:0  DAYS W/ PCP >=.50:0 DAYS W/PCP >=1.00:0 MSDP AMTS W/DATE-TIME TAGS:MIN:5 0.01  12/0453 MIN:10 0.02  12/0453 MIN:15 0.02  12/0453 MIN:20 0.02  12/0453 MIN:30 0.02  12/0453 MIN:45 0.02  12/0453 MIN:60 0.02  12/0453 MIN:80 0.02  12/0453 MIN:100 0.02  12/0453 MIN:120 0.02  12/0453 MIN:150 0.02  12/0453 MIN:180 0.02  12/0453 AVG DLY MIN:49.4  AVG DLY MAX:66.3  AVG MLY TMP:57.9  MIN TMP:44 DATE(S):21 MAX TMP:81  DATE(S):22 DAYS MAX <=32:0 DAYS MAX >=90:0  DAYS MIN <=32:0  DAYS MIN  <=0:0  AVG STP:29.690 LWST SLP:29.81 DATE/TIME:131740 HGST SLP:30.34 DATE/TIME:181042 HDD MTH TOT:193 DEP NORM:-2553 SEASON(JUL 1-JUN 30):783 DEP NORM:-25536 CDD MTH TOT:0 DEP NORM:-2553 SEASON(JAN 1-DEC 31):14 DEP NORM:-25536,SOM  ,SOM  ,6.0,6.0,72295023174.0,2021-02-12 04:53,2021-02-12 04:53,2021-02-12 04:53,2021-02-12 04:53,2021-02-12 04:53,2021-02-12 04:53,2021-02-12 04:53,2021-02-12 04:53,2021-02-12 04:53,2021-02-12 04:53,2021-02-12 04:53,2021-02-12 04:53,0.01,0.02,0.02,0.02,0.02,0.02,0.02,0.02,0.02,0.02,0.02,0.02,,,california
99,8.5,17.0,4.0,2021-03-31T23:59:00,,,1.0,,,,,,,,,,,,,,,,,,,,,1081.0,266.0,,,,,,,,,,,,,,,,,,4,4,0,0,0.0,0.0,-1.5,-2.0,45.0,0.2,-3.3,-0.53,,0.86,10-11,,,,,30.27,14.0,953.0,64.6,56.5,29.78,3.0,538.0,48.4,30.06,29.7,1.32,,,6.0,221.0,SOM794PCP MTOT:1.32 PCP GT 24HRS:0.86 DATE(S):10-11 DAYS W/PCP >=.01:4  DAYS W/PCP >=.10:4  DAYS W/ PCP >=.50:1 DAYS W/PCP >=1.00:0 MSDP AMTS W/DATE-TIME TAGS:MIN:5 0.09  10/0420 MIN:10 0.16  10/0419 MIN:15 0.21  10/0421 MIN:20 0.24  10/0423 MIN:30 0.27  10/0423 MIN:45 0.28  10/0423 MIN:60 0.33  10/0503 MIN:80 0.38  10/0516 MIN:100 0.40  10/0516 MIN:120 0.40  10/0600 MIN:150 0.44  10/0607 MIN:180 0.48  10/0447 AVG DLY MIN:48.4  AVG DLY MAX:64.6  AVG MLY TMP:56.5  MIN TMP:42 DATE(S):12 MAX TMP:84  DATE(S):31 DAYS MAX <=32:0 DAYS MAX >=90:0  DAYS MIN <=32:0  DAYS MIN  <=0:0  AVG STP:29.705 LWST SLP:29.78 DATE/TIME:030538 HGST SLP:30.28 DATE/TIME:140916 HDD MTH TOT:259 DEP NORM:-2553 SEASON(JUL 1-JUN 30):1042 DEP NORM:-25536 CDD MTH TOT:4 DEP NORM:-2553 SEASON(JAN 1-DEC 31):18 DEP NORM:-25536,SOM  ,SOM  ,6.0,6.0,72295023174.0,2021-03-10 04:20,2021-03-10 04:19,2021-03-10 04:21,2021-03-10 04:23,2021-03-10 04:23,2021-03-10 04:23,2021-03-10 05:03,2021-03-10 05:16,2021-03-10 05:16,2021-03-10 06:00,2021-03-10 06:07,2021-03-10 04:47,0.09,0.16,0.21,0.24,0.27,0.28,0.33,0.38,0.4,0.4,0.44,0.48,,,california
100,8.1,34.0,16.0,2021-04-30T23:59:00,,,,,,,,,,,,,,,,,,,,,,,,1220.0,139.0,,,,,,,,,,,,,,,,,,0,0,0,0,0.0,0.0,0.8,5.0,-19.0,1.6,0.1,-0.70,,0.00,26-26,,,,,30.14,3.0,1053.0,68.0,60.9,29.73,11.0,1553.0,53.9,,,0.00,,,11.0,158.0,,SOM  ,SOM  ,6.0,6.0,72295023174.0,,,,,,,,,,,,,,,,,,,,,,,,,,,california
101,8.1,38.0,4.0,2021-05-31T23:59:00,,,,,,,,,,,,,,,,,,,,,,,,1307.0,87.0,,,,,,,,,,,,,,,,,,0,0,0,0,0.0,0.0,-0.3,-10.0,1.0,-0.7,0.0,-0.22,,0.00,16-16,,,,,30.13,23.0,1107.0,67.4,62.4,29.81,2.0,1753.0,57.3,29.96,29.61,T,,,14.0,86.0,SOM714PCP MTOT:T PCP GT 24HRS:T DATE(S):16+ DAYS W/PCP >=.01:0  DAYS W/PCP >=.10:0  DAYS W/ PCP >=.50:0 DAYS W/PCP >=1.00:0 MSDP AMTS W/DATE-TIME TAGS:MIN: 5/T MIN:10/T MIN:15/T MIN:20/T MIN:30/T MIN:45/T MIN:60 0.00    /     MIN:80 0.00    /     MIN:100 0.00    /     MIN:120 0.00    /     MIN:150 0.00    /     MIN:180 0.00    /     AVG DLY MIN:57.3  AVG DLY MAX:67.4  AVG MLY TMP:62.4  MIN TMP:51 DATE(S):22 MAX TMP:75  DATE(S):25 DAYS MAX <=32:0 DAYS MAX >=90:0  DAYS MIN <=32:0  DAYS MIN  <=0:0  AVG STP:29.605 LWST SLP:29.80 DATE/TIME:021811 HGST SLP:30.13 DATE/TIME:231107 HDD MTH TOT:80 DEP NORM:-2553 SEASON(JUL 1-JUN 30):1256 DEP NORM:-25536 CDD MTH TOT:4 DEP NORM:-2553 SEASON(JAN 1-DEC 31):40 DEP NORM:-25536,SOM  ,SOM  ,6.0,6.0,72295023174.0,,,,,,,,,,,,,,,,,,,,,,,,,,,california
102,8.1,72.0,34.0,2021-06-30T23:59:00,,1.0,,,,,,,,,,,,,,,,,,,,,,1323.0,17.0,,,,,,,,,,,,,,,,,,0,0,0,0,0.0,0.0,0.1,-8.0,-8.0,0.3,-0.3,-0.08,,T,,,,,,30.1,10.0,1022.0,70.9,65.6,29.68,27.0,1852.0,60.2,29.89,29.55,T,,,42.0,25.0,SOM739PCP MTOT:T PCP GT 24HRS:T DATE(S):25+ DAYS W/PCP >=.01:0  DAYS W/PCP >=.10:0  DAYS W/ PCP >=.50:0 DAYS W/PCP >=1.00:0 MSDP AMTS W/DATE-TIME TAGS:MIN: 5/T MIN:10/T MIN:15/T MIN:20/T MIN:30 0.00    /     MIN:45 0.00    /     MIN:60 0.00    /     MIN:80 0.00    /     MIN:100 0.00    /     MIN:120 0.00    /     MIN:150 0.00    /     MIN:180 0.00    /     AVG DLY MIN:60.2  AVG DLY MAX:70.9  AVG MLY TMP:65.6  MIN TMP:56 DATE(S):10 MAX TMP:80  DATE(S):16 DAYS MAX <=32:0 DAYS MAX >=90:0  DAYS MIN <=32:0  DAYS MIN  <=0:0  AVG STP:29.555 LWST SLP:29.68 DATE/TIME:271852 HGST SLP:30.10 DATE/TIME:101022 HDD MTH TOT:14 DEP NORM:-2553 SEASON(JUL 1-JUN 30):1270 DEP NORM:-25536 CDD MTH TOT:38 DEP NORM:-2553 SEASON(JAN 1-DEC 31):78 DEP NORM:-25536,SOM  ,SOM  ,6.0,6.0,72295023174.0,,,,,,,,,,,,,,,,,,,,,,,,,,,california
103,8.3,188.0,116.0,2021-07-31T23:59:00,,1.0,,,,,,,,,,,,,,,,,,,,,,0.0,0.0,,,,,,,,,,,,,,,,,,1,1,0,0,0.0,0.0,0.0,-3.0,-2.0,-0.2,0.2,0.09,,0.12,26-26,,,,,30.04,31.0,1119.0,73.6,68.8,29.78,7.0,1845.0,63.9,29.93,29.59,0.12,,,119.0,2.0,SOM792PCP MTOT:0.12 PCP GT 24HRS:0.12 DATE(S):26 DAYS W/PCP >=.01:1  DAYS W/PCP >=.10:1  DAYS W/ PCP >=.50:0 DAYS W/PCP >=1.00:0 MSDP AMTS W/DATE-TIME TAGS:MIN:5 0.02  26/0505 MIN:10 0.03  26/0510 MIN:15 0.03  26/0510 MIN:20 0.04  26/0510 MIN:30 0.05  26/0510 MIN:45 0.06  26/0528 MIN:60 0.08  26/0510 MIN:80 0.09  26/0528 MIN:100 0.10  26/0528 MIN:120 0.11  26/0528 MIN:150 0.12  26/0528 MIN:180 0.12  26/0528 AVG DLY MIN:63.9  AVG DLY MAX:73.6  AVG MLY TMP:68.8  MIN TMP:60 DATE(S):05 04 MAX TMP:79  DATE(S):18 DAYS MAX <=32:0 DAYS MAX >=90:0  DAYS MIN <=32:0  DAYS MIN  <=0:0  AVG STP:29.590 LWST SLP:29.78 DATE/TIME:071845 HGST SLP:30.04 DATE/TIME:311119 HDD MTH TOT:0 DEP NORM:-2553 SEASON(JUL 1-JUN 30):0 DEP NORM:-25536 CDD MTH TOT:125 DEP NORM:-2553 SEASON(JAN 1-DEC 31):203 DEP NORM:-25536,SOM  ,SOM  ,6.0,6.0,72295023174.0,2021-07-26 05:05,2021-07-26 05:10,2021-07-26 05:10,2021-07-26 05:10,2021-07-26 05:10,2021-07-26 05:28,2021-07-26 05:10,2021-07-26 05:28,2021-07-26 05:28,2021-07-26 05:28,2021-07-26 05:28,2021-07-26 05:28,0.02,0.03,0.03,0.04,0.05,0.06,0.08,0.09,0.1,0.11,0.12,0.12,,,california
104,8.1,334.0,146.0,2021-08-31T23:59:00,,2.0,,,,,,,,,,,,,,,,,,,,,,0.0,0.0,,,,,,,,,,,,,,,,,,1,0,0,0,0.0,0.0,0.1,1.0,-2.0,0.2,0.0,-0.03,,0.02,18-18,,,,,30.08,14.0,839.0,75.1,69.7,29.68,27.0,1853.0,64.3,29.88,29.54,0.02,,,145.0,2.0,SOM792PCP MTOT:0.02 PCP GT 24HRS:0.02 DATE(S):18 DAYS W/PCP >=.01:1  DAYS W/PCP >=.10:0  DAYS W/ PCP >=.50:0 DAYS W/PCP >=1.00:0 MSDP AMTS W/DATE-TIME TAGS:MIN:5 0.01  18/0747 MIN:10 0.01  18/0747 MIN:15 0.01  18/0747 MIN:20 0.01  18/0747 MIN:30 0.01  18/0747 MIN:45 0.01  18/0747 MIN:60 0.02  18/0747 MIN:80 0.02  18/0747 MIN:100 0.02  18/0747 MIN:120 0.02  18/0747 MIN:150 0.02  18/0747 MIN:180 0.02  18/0747 AVG DLY MIN:64.3  AVG DLY MAX:75.1  AVG MLY TMP:69.7  MIN TMP:61 DATE(S):29 28 MAX TMP:80  DATE(S):13 DAYS MAX <=32:0 DAYS MAX >=90:0  DAYS MIN <=32:0  DAYS MIN  <=0:0  AVG STP:28.680 LWST SLP:29.67 DATE/TIME:271843 HGST SLP:30.08 DATE/TIME:140839 HDD MTH TOT:0 DEP NORM:-2553 SEASON(JUL 1-JUN 30):0 DEP NORM:-25536 CDD MTH TOT:155 DEP NORM:-2553 SEASON(JAN 1-DEC 31):358 DEP NORM:-25536,SOM  ,SOM  ,6.0,6.0,72295023174.0,2021-08-18 07:47,2021-08-18 07:47,2021-08-18 07:47,2021-08-18 07:47,2021-08-18 07:47,2021-08-18 07:47,2021-08-18 07:47,2021-08-18 07:47,2021-08-18 07:47,2021-08-18 07:47,2021-08-18 07:47,2021-08-18 07:47,0.01,0.01,0.01,0.01,0.01,0.01,0.02,0.02,0.02,0.02,0.02,0.02,,,california
105,7.6,438.0,104.0,2021-09-30T23:59:00,,4.0,,,,,,,,,,,,,,,,,,,,,,1.0,1.0,,,,,,,,,,,,,,,,,,0,0,0,0,0.0,0.0,-0.5,-18.0,-4.0,-0.2,-0.8,-0.21,,T,09-09,,,,,30.08,22.0,910.0,74.4,68.4,29.79,8.0,1755.0,62.4,29.93,29.58,T,,,122.0,5.0,SOM762PCP MTOT:T PCP GT 24HRS:T DATE(S):9 DAYS W/PCP >=.01:0  DAYS W/PCP >=.10:0  DAYS W/ PCP >=.50:0 DAYS W/PCP >=1.00:0 MSDP AMTS W/DATE-TIME TAGS:MIN: 5/T MIN:10/T MIN:15 0.00    /     MIN:20 0.00    /     MIN:30 0.00    /     MIN:45 0.00    /     MIN:60 0.00    /     MIN:80 0.00    /     MIN:100 0.00    /     MIN:120 0.00    /     MIN:150 0.00    /     MIN:180 0.00    /     AVG DLY MIN:62.4  AVG DLY MAX:74.4  AVG MLY TMP:68.4  MIN TMP:59 DATE(S):14 13 MAX TMP:87  DATE(S):09 DAYS MAX <=32:0 DAYS MAX >=90:0  DAYS MIN <=32:0  DAYS MIN  <=0:0  AVG STP:29.580 LWST SLP:29.79 DATE/TIME:081755 HGST SLP:30.08 DATE/TIME:220910 HDD MTH TOT:1 DEP NORM:-2553 SEASON(JUL 1-JUN 30):1 DEP NORM:-25536 CDD MTH TOT:110 DEP NORM:-2553 SEASON(JAN 1-DEC 31):468 DEP NORM:-25536,SOM  ,SOM  ,6.0,6.0,72295023174.0,,,,,,,,,,,,,,,,,,,,,,,,,,,california
106,6.9,510.0,72.0,2021-10-31T23:59:00,,4.0,1.0,,,,,,,,,,,,,,,,,,,,,52.0,51.0,,,,,,,,,,,,,,,,,,5,1,0,0,0.0,0.0,-0.2,9.0,16.0,1.5,-1.9,-0.10,,0.39,25-25,,,,,30.17,27.0,853.0,74.0,65.7,29.62,11.0,1551.0,57.4,29.97,29.62,0.46,,,63.0,35.0,SOM796PCP MTOT:0.46 PCP GT 24HRS:0.39 DATE(S):25 DAYS W/PCP >=.01:5  DAYS W/PCP >=.10:1  DAYS W/ PCP >=.50:0 DAYS W/PCP >=1.00:0 MSDP AMTS W/DATE-TIME TAGS:MIN:5 0.12  25/1237 MIN:10 0.16  25/1241 MIN:15 0.18  25/1241 MIN:20 0.19  25/1241 MIN:30 0.22  25/1244 MIN:45 0.25  25/1301 MIN:60 0.28  25/1301 MIN:80 0.30  25/1312 MIN:100 0.32  25/1328 MIN:120 0.33  25/1337 MIN:150 0.34  25/1337 MIN:180 0.34  25/1328 AVG DLY MIN:57.4  AVG DLY MAX:74.0  AVG MLY TMP:65.7  MIN TMP:52 DATE(S):26 MAX TMP:89  DATE(S):16 15 03 DAYS MAX <=32:0 DAYS MAX >=90:0  DAYS MIN <=32:0  DAYS MIN  <=0:0  AVG STP:29.625 LWST SLP:29.62 DATE/TIME:111551 HGST SLP:30.18 DATE/TIME:270835 HDD MTH TOT:47 DEP NORM:-2553 SEASON(JUL 1-JUN 30):48 DEP NORM:-25536 CDD MTH TOT:74 DEP NORM:-2553 SEASON(JAN 1-DEC 31):542 DEP NORM:-25536,SOM  ,SOM  ,6.0,6.0,72295023174.0,2021-10-25 12:37,2021-10-25 12:41,2021-10-25 12:41,2021-10-25 12:41,2021-10-25 12:44,2021-10-25 13:01,2021-10-25 13:01,2021-10-25 13:12,2021-10-25 13:28,2021-10-25 13:37,2021-10-25 13:37,2021-10-25 13:28,0.12,0.16,0.18,0.19,0.22,0.25,0.28,0.3,0.32,0.33,0.34,0.34,,,california
107,5.1,559.0,49.0,2021-11-30T23:59:00,,,,,,,,,,,,,,,,,,,,,,,,139.0,87.0,,,,,,,,,,,,,,,,,,0,0,0,2,0.0,0.0,2.6,30.0,-51.0,2.8,2.5,-1.11,,T,04-04,,,,,30.27,25.0,853.0,71.7,63.7,29.9,23.0,1656.0,55.7,30.06,29.72,T,,,19.0,138.0,SOM769PCP MTOT:T PCP GT 24HRS:T DATE(S):13+ DAYS W/PCP >=.01:0  DAYS W/PCP >=.10:0  DAYS W/ PCP >=.50:0 DAYS W/PCP >=1.00:0 MSDP AMTS W/DATE-TIME TAGS:MIN: 5/T MIN:10/T MIN:15 0.00    /     MIN:20 0.00    /     MIN:30 0.00    /     MIN:45 0.00    /     MIN:60 0.00    /     MIN:80 0.00    /     MIN:100 0.00    /     MIN:120 0.00    /     MIN:150 0.00    /     MIN:180 0.00    /     AVG DLY MIN:55.7  AVG DLY MAX:71.7  AVG MLY TMP:63.7  MIN TMP:50 DATE(S):28 27 MAX TMP:91  DATE(S):13 12 DAYS MAX <=32:0 DAYS MAX >=90:2  DAYS MIN <=32:0  DAYS MIN  <=0:0  AVG STP:29.715 LWST SLP:29.90 DATE/TIME:231656 HGST SLP:30.28 DATE/TIME:250832 HDD MTH TOT:82 DEP NORM:-2553 SEASON(JUL 1-JUN 30):130 DEP NORM:-25536 CDD MTH TOT:52 DEP NORM:-2553 SEASON(JAN 1-DEC 31):594 DEP NORM:-25536,SOM  ,SOM  ,6.0,6.0,72295023174.0,,,,,,,,,,,,,,,,,,,,,,,,,,,california
108,6.7,559.0,0.0,2021-12-31T23:59:00,,1.0,1.0,,,,,,,,,,,,,,,,,,,,,440.0,301.0,,,,,,,,,,,,,,,,,,12,9,0,0,0.0,0.0,-1.3,-1.0,41.0,-2.9,0.2,6.19,,3.90,29-30,,,,,30.27,15.0,1038.0,61.7,55.3,29.7,31.0,1653.0,48.9,30.03,29.68,8.24,,,1.0,260.0,SOM794PCP MTOT:8.24 PCP GT 24HRS:3.90 DATE(S):29-30 DAYS W/PCP >=.01:12 DAYS W/PCP >=.10:9  DAYS W/ PCP >=.50:4 DAYS W/PCP >=1.00:4 MSDP AMTS W/DATE-TIME TAGS:MIN:5 0.31  14/0818 MIN:10 0.44  14/0822 MIN:15 0.49  14/0824 MIN:20 0.51  14/0829 MIN:30 0.58  14/0837 MIN:45 0.62  14/0837 MIN:60 0.71  14/0837 MIN:80 0.76  14/0845 MIN:100 0.82  14/0837 MIN:120 0.86  14/0845 MIN:150 0.91  14/0853 MIN:180 0.97  14/0837 AVG DLY MIN:48.9  AVG DLY MAX:61.7  AVG MLY TMP:55.3  MIN TMP:40 DATE(S):15 MAX TMP:70  DATE(S):11 DAYS MAX <=32:0 DAYS MAX >=90:0  DAYS MIN <=32:0  DAYS MIN  <=0:0  AVG STP:29.680 LWST SLP:29.69 DATE/TIME:311639 HGST SLP:30.27 DATE/TIME:151038 HDD MTH TOT:293 DEP NORM:-2553 SEASON(JUL 1-JUN 30):423 DEP NORM:-25536 CDD MTH TOT:0 DEP NORM:-2553 SEASON(JAN 1-DEC 31):594 DEP NORM:-25536,SOM  ,SOM  ,6.0,6.0,72295023174.0,2021-12-14 08:18,2021-12-14 08:22,2021-12-14 08:24,2021-12-14 08:29,2021-12-14 08:37,2021-12-14 08:37,2021-12-14 08:37,2021-12-14 08:45,2021-12-14 08:37,2021-12-14 08:45,2021-12-14 08:53,2021-12-14 08:37,0.31,0.44,0.49,0.51,0.58,0.62,0.71,0.76,0.82,0.86,0.91,0.97,,,california
109,8.7,0.0,0.0,2021-01-31T23:59:00,0.0,1.0,1.0,,,,,,,,,,,,,,,,,,,,,1440.0,583.0,,,,,,,,,,,,,,,,,,10,8,8,0,0.0,0.0,2.9,0.0,-90.0,2.0,3.7,-0.58,,1.23,01-01,0,,T,30-30,30.45,28.0,1213.0,54.3,46.2,29.68,15.0,1652.0,38.0,30.08,28.97,3.62,T,,-7777.0,673.0,SOM852PCP MTOT:3.62 DEPNRM:-0.58 PCP GT 24HRS:1.23 DATE(S):1 DAYS W/PCP >=.01:10 DAYS W/PCP >=.10:8  DAYS W/ PCP >=.50:2 DAYS W/PCP >=1.00:1 MSDP AMTS W/DATE-TIME TAGS:MIN:5 0.15  01/1245 MIN:10 0.26  01/1245 MIN:15 0.31  01/1247 MIN:20 0.32  01/1247 MIN:30 0.35  01/1247 MIN:45 0.38  01/1247 MIN:60 0.43  01/1247 MIN:80 0.51  01/1247 MIN:100 0.51  01/1310 MIN:120 0.54  01/1247 MIN:150 0.57  01/1356 MIN:180 0.62  27/0924 SN GT DP ON GRND:0 SN GT IN 24HRS:T SN MTOT:T AVG DLY MIN:38.0  AVG DLY MAX:54.3  AVG MLY TMP:46.2  DEP NORM:2.9   MIN TMP:28 DATE(S):10 MAX TMP:69  DATE(S):26 DAYS MAX <=32:0 DAYS MAX >=90:0  DAYS MIN <=32:8  DAYS MIN  <=0:0  AVG STP:28.965 LWST SLP:29.67 DATE/TIME:151646 HGST SLP:30.45 DATE/TIME:281213 HDD MTH TOT:575 DEP NORM:-98 SEASON(JUL 1-JUN 30):1413 DEP NORM:-341 CDD MTH TOT:0 DEP NORM: 0 SEASON(JAN 1-DEC 31):0 DEP NORM: 0,SOM  ,SOM  ,6.0,6.0,72219013874.0,2021-01-01 12:45,2021-01-01 12:45,2021-01-01 12:47,2021-01-01 12:47,2021-01-01 12:47,2021-01-01 12:47,2021-01-01 12:47,2021-01-01 12:47,2021-01-01 13:10,2021-01-01 12:47,2021-01-01 13:56,2021-01-27 09:24,0.15,0.26,0.31,0.32,0.35,0.38,0.43,0.51,0.51,0.54,0.57,0.62,,,georgia
110,9.2,2.0,2.0,2021-02-28T23:59:00,0.0,3.0,2.0,,,,,,,,,,,,,,,,,,,,,1899.0,459.0,,,,,,,,,,,,,,,,,,11,7,5,0,0.0,0.0,1.5,1.0,-42.0,1.3,1.8,-0.96,,0.81,15-15,0,,T,06-06,30.47,21.0,1021.0,57.9,48.7,29.7,15.0,1852.0,39.5,30.08,28.97,3.71,T,,1.0,501.0,SOM866PCP MTOT:3.71 DEPNRM:-0.96 PCP GT 24HRS:0.81 DATE(S):14-15 DAYS W/PCP >=.01:11 DAYS W/PCP >=.10:7  DAYS W/ PCP >=.50:4 DAYS W/PCP >=1.00:0 MSDP AMTS W/DATE-TIME TAGS:MIN:5 0.11  18/0530 MIN:10 0.21  18/0530 MIN:15 0.25  18/0533 MIN:20 0.26  18/0537 MIN:30 0.28  18/0546 MIN:45 0.33  15/1743 MIN:60 0.35  15/1707 MIN:80 0.50  15/1735 MIN:100 0.62  15/1743 MIN:120 0.68  15/1749 MIN:150 0.73  15/1749 MIN:180 0.74  15/1749 SN GT DP ON GRND:0 SN GT IN 24HRS:T DATE(S): 6SN MTOT:T AVG DLY MIN:39.5  AVG DLY MAX:57.9  AVG MLY TMP:48.7  DEP NORM:1.5   MIN TMP:23 DATE(S):17 MAX TMP:79  DATE(S):28 DAYS MAX <=32:0 DAYS MAX >=90:0  DAYS MIN <=32:5  DAYS MIN  <=0:0  AVG STP:28.970 LWST SLP:29.69 DATE/TIME:151839 HGST SLP:30.47 DATE/TIME:211021 HDD MTH TOT:453 DEP NORM:-48 SEASON(JUL 1-JUN 30):1866 DEP NORM:-388 CDD MTH TOT:2 DEP NORM:+1 SEASON(JAN 1-DEC 31):2 DEP NORM:+2,SOM  ,SOM  ,6.0,6.0,72219013874.0,2021-02-18 05:30,2021-02-18 05:30,2021-02-18 05:33,2021-02-18 05:37,2021-02-18 05:46,2021-02-15 17:43,2021-02-15 17:07,2021-02-15 17:35,2021-02-15 17:43,2021-02-15 17:49,2021-02-15 17:49,2021-02-15 17:49,0.11,0.21,0.25,0.26,0.28,0.33,0.35,0.5,0.62,0.68,0.73,0.74,,,georgia
111,9.2,29.0,27.0,2021-03-31T23:59:00,0.0,2.0,4.0,,,,,,,,,,,,,,,,,,,,,2109.0,210.0,,,,,,,,,,,,,,,,,,12,8,0,0,0.0,0.0,4.8,15.0,-132.0,4.8,4.7,-1.04,,1.26,25-26,0,,0.0,,30.58,8.0,1057.0,69.4,59.1,29.65,18.0,1528.0,48.8,30.14,29.05,3.77,,,12.0,342.0,SOM815PCP MTOT:3.77 DEPNRM:-1.04 PCP GT 24HRS:1.26 DATE(S):25-26 DAYS W/PCP >=.01:12 DAYS W/PCP >=.10:8  DAYS W/ PCP >=.50:4 DAYS W/PCP >=1.00:0 MSDP AMTS W/DATE-TIME TAGS:MIN:5 0.19  25/2331 MIN:10 0.31  25/2331 MIN:15 0.36  25/2334 MIN:20 0.41  25/2337 MIN:30 0.45  31/1232 MIN:45 0.51  31/1250 MIN:60 0.57  31/1257 MIN:80 0.59  31/1306 MIN:100 0.60  31/1335 MIN:120 0.63  31/1358 MIN:150 0.67  31/1411 MIN:180 0.77  26/0216 AVG DLY MIN:48.8  AVG DLY MAX:69.4  AVG MLY TMP:59.1  DEP NORM:4.8   MIN TMP:35 DATE(S):07 MAX TMP:82  DATE(S):27 DAYS MAX <=32:0 DAYS MAX >=90:0  DAYS MIN <=32:0  DAYS MIN  <=0:0  AVG STP:29.045 LWST SLP:29.65 DATE/TIME:181528 HGST SLP:30.58 DATE/TIME:081057 HDD MTH TOT:206 DEP NORM:-136 SEASON(JUL 1-JUN 30):2072 DEP NORM:-525 CDD MTH TOT:30 DEP NORM:+18 SEASON(JAN 1-DEC 31):32 DEP NORM:+19,SOM  ,SOM  ,6.0,6.0,72219013874.0,2021-03-25 23:31,2021-03-25 23:31,2021-03-25 23:34,2021-03-25 23:37,2021-03-31 12:32,2021-03-31 12:50,2021-03-31 12:57,2021-03-31 13:06,2021-03-31 13:35,2021-03-31 13:58,2021-03-31 14:11,2021-03-26 02:16,0.19,0.31,0.36,0.41,0.45,0.51,0.57,0.59,0.6,0.63,0.67,0.77,,,georgia
112,8.3,83.0,53.0,2021-04-30T23:59:00,0.0,1.0,1.0,,,,,,,,,,,,,,,,,,,,,2226.0,116.0,,,,,,,,,,,,,,,,,,5,2,0,0,0.0,0.0,0.9,0.0,-27.0,1.0,0.8,0.38,,3.18,24-24,0,,T,24-24,30.49,3.0,1016.0,73.5,62.9,29.62,24.0,1852.0,52.3,30.01,28.92,3.74,T,,53.0,143.0,SOM863PCP MTOT:3.75 DEPNRM:+0.39 PCP GT 24HRS:3.18 DATE(S):24-25 DAYS W/PCP >=.01:6  DAYS W/PCP >=.10:2  DAYS W/ PCP >=.50:1 DAYS W/PCP >=1.00:1 MSDP AMTS W/DATE-TIME TAGS:MIN:5 0.50  24/1612 MIN:10 0.62  24/1617 MIN:15 0.63  24/1617 MIN:20 0.63  24/1957 MIN:30 0.66  24/2007 MIN:45 0.73  24/1645 MIN:60 0.73  24/1645 MIN:80 0.81  24/0754 MIN:100 0.97  24/0832 MIN:120 1.12  24/0840 MIN:150 1.29  24/0857 MIN:180 1.38  24/0911 SN GT DP ON GRND:0 SN GT IN 24HRS:0.0 SN MTOT:0.0 AVG DLY MIN:52.3  AVG DLY MAX:73.5  AVG MLY TMP:62.9  DEP NORM:0.9   MIN TMP:33 DATE(S):02 MAX TMP:86  DATE(S):13 DAYS MAX <=32:0 DAYS MAX >=90:0  DAYS MIN <=32:0  DAYS MIN  <=0:0  AVG STP:28.925 LWST SLP:29.61 DATE/TIME:241906 HGST SLP:30.49 DATE/TIME:031016 HDD MTH TOT:112 DEP NORM:-31 SEASON(JUL 1-JUN 30):2184 DEP NORM:-556 CDD MTH TOT:58 DEP NORM:+5 SEASON(JAN 1-DEC 31):90 DEP NORM:+24,SOM  ,SOM  ,6.0,6.0,72219013874.0,2021-04-24 16:12,2021-04-24 16:17,2021-04-24 16:17,2021-04-24 19:57,2021-04-24 20:07,2021-04-24 16:45,2021-04-24 16:45,2021-04-24 07:54,2021-04-24 08:32,2021-04-24 08:40,2021-04-24 08:57,2021-04-24 09:11,0.5,0.62,0.63,0.63,0.66,0.73,0.73,0.81,0.97,1.12,1.29,1.38,,,georgia
113,8.1,253.0,170.0,2021-05-31T23:59:00,0.0,,4.0,,,,,,,,,,,,,,,,,,,,,2251.0,25.0,,,,,,,,,,,,,,,,,,7,5,0,3,0.0,0.0,-0.4,-14.0,-1.0,-0.4,-0.5,1.48,,1.91,03-03,0,,0.0,,30.43,21.0,1200.0,79.5,69.7,29.81,29.0,252.0,59.8,30.11,29.03,5.15,,,184.0,26.0,SOM863PCP MTOT:5.15 DEPNRM:+1.59 PCP GT 24HRS:1.91 DATE(S):3 DAYS W/PCP >=.01:7  DAYS W/PCP >=.10:5  DAYS W/ PCP >=.50:3 DAYS W/PCP >=1.00:2 MSDP AMTS W/DATE-TIME TAGS:MIN:5 0.44  03/1018 MIN:10 0.63  03/1018 MIN:15 0.83  03/1020 MIN:20 0.87  03/1025 MIN:30 0.92  03/1028 MIN:45 0.95  03/1028 MIN:60 1.00  03/1028 MIN:80 1.00  03/1028 MIN:100 1.00  03/1028 MIN:120 1.00  03/1028 MIN:150 1.08  04/2210 MIN:180 1.21  03/1304 SN GT DP ON GRND:0 SN GT IN 24HRS:0.0 SN MTOT:0.0 AVG DLY MIN:59.8  AVG DLY MAX:79.5  AVG MLY TMP:69.7  DEP NORM:-1.5  MIN TMP:48 DATE(S):13 MAX TMP:91  DATE(S):25 24 DAYS MAX <=32:0 DAYS MAX >=90:3  DAYS MIN <=32:0  DAYS MIN  <=0:0  AVG STP:29.030 LWST SLP:29.80 DATE/TIME:281940 HGST SLP:30.43 DATE/TIME:211200 HDD MTH TOT:24 DEP NORM:+2 SEASON(JUL 1-JUN 30):2208 DEP NORM:-318 CDD MTH TOT:178 DEP NORM:-36 SEASON(JAN 1-DEC 31):268 DEP NORM:-30,SOM  ,SOM  ,6.0,6.0,72219013874.0,2021-05-03 10:18,2021-05-03 10:18,2021-05-03 10:20,2021-05-03 10:25,2021-05-03 10:28,2021-05-03 10:28,2021-05-03 10:28,2021-05-03 10:28,2021-05-03 10:28,2021-05-03 10:28,2021-05-04 22:10,2021-05-03 13:04,0.44,0.63,0.83,0.87,0.92,0.95,1.0,1.0,1.0,1.0,1.08,1.21,,,georgia
114,7.2,632.0,379.0,2021-06-30T23:59:00,0.0,,9.0,,,,,,,,,,,,,,,,,,,,,2251.0,0.0,,,,,,,,,,,,,,,,,,15,11,0,3,0.0,0.0,0.3,8.0,-2.0,-0.4,1.0,2.41,,2.66,19-20,0,,0.0,,30.27,1.0,1016.0,86.0,77.6,29.75,12.0,1752.0,69.2,30.03,28.96,6.36,,,371.0,2.0,SOM862PCP MTOT:6.36 DEPNRM:+1.82 PCP GT 24HRS:2.66 DATE(S):19-20 DAYS W/PCP >=.01:15 DAYS W/PCP >=.10:11 DAYS W/ PCP >=.50:3 DAYS W/PCP >=1.00:1 MSDP AMTS W/DATE-TIME TAGS:MIN:5 0.34  05/1637 MIN:10 0.53  05/1640 MIN:15 0.67  05/1640 MIN:20 0.77  05/1644 MIN:30 0.82  05/1651 MIN:45 0.99  19/2229 MIN:60 1.16  19/2215 MIN:80 1.56  19/2234 MIN:100 1.64  19/2226 MIN:120 1.79  19/2236 MIN:150 1.85  19/2236 MIN:180 1.88  19/2236 SN GT DP ON GRND:0 SN GT IN 24HRS:0.0 SN MTOT:0.0 AVG DLY MIN:69.2  AVG DLY MAX:86.0  AVG MLY TMP:77.6  DEP NORM:-0.3  MIN TMP:61 DATE(S):01 MAX TMP:92  DATE(S):14 DAYS MAX <=32:0 DAYS MAX >=90:3  DAYS MIN <=32:0  DAYS MIN  <=0:0  AVG STP:28.960 LWST SLP:29.74 DATE/TIME:121834 HGST SLP:30.27 DATE/TIME:011016 HDD MTH TOT:0 DEP NORM:-1 SEASON(JUL 1-JUN 30):2208 DEP NORM:-321 CDD MTH TOT:387 DEP NORM:+1 SEASON(JAN 1-DEC 31):655 DEP NORM:-29,SOM  ,SOM  ,6.0,6.0,72219013874.0,2021-06-05 16:37,2021-06-05 16:40,2021-06-05 16:40,2021-06-05 16:44,2021-06-05 16:51,2021-06-19 22:29,2021-06-19 22:15,2021-06-19 22:34,2021-06-19 22:26,2021-06-19 22:36,2021-06-19 22:36,2021-06-19 22:36,0.34,0.53,0.67,0.77,0.82,0.99,1.16,1.56,1.64,1.79,1.85,1.88,,,georgia
115,5.8,1094.0,462.0,2021-07-31T23:59:00,0.0,,14.0,,,,,,,,,,,,,,,,,,,,,0.0,0.0,,,,,,,,,,,,,,,,,,16,12,0,11,0.0,0.0,-0.3,-9.0,0.0,-1.1,0.5,0.71,,1.65,19-20,0,,0.0,,30.29,13.0,1243.0,88.0,79.9,29.82,2.0,1915.0,71.8,30.04,28.97,5.98,,,471.0,0.0,SOM859PCP MTOT:5.98 DEPNRM:+1.23 PCP GT 24HRS:1.65 DATE(S):19-20 DAYS W/PCP >=.01:16 DAYS W/PCP >=.10:12 DAYS W/ PCP >=.50:4 DAYS W/PCP >=1.00:1 MSDP AMTS W/DATE-TIME TAGS:MIN:5 0.27  26/2013 MIN:10 0.43  26/2018 MIN:15 0.48  26/2023 MIN:20 0.49  26/2026 MIN:30 0.57  02/1409 MIN:45 0.57  02/1409 MIN:60 0.59  19/2036 MIN:80 0.75  10/1932 MIN:100 0.79  19/2119 MIN:120 0.91  19/2137 MIN:150 1.03  19/2208 MIN:180 1.12  19/2238 SN GT DP ON GRND:0 SN GT IN 24HRS:0.0 SN MTOT:0.0 AVG DLY MIN:71.8  AVG DLY MAX:88.0  AVG MLY TMP:79.9  DEP NORM:-1.0  MIN TMP:65 DATE(S):04 MAX TMP:95  DATE(S):28 DAYS MAX <=32:0 DAYS MAX >=90:11 DAYS MIN <=32:0  DAYS MIN  <=0:0  AVG STP:28.975 LWST SLP:29.82 DATE/TIME:021915 HGST SLP:30.29 DATE/TIME:131243 HDD MTH TOT:0 DEP NORM: 0 SEASON(JUL 1-JUN 30):0 DEP NORM: 0 CDD MTH TOT:471 DEP NORM:-23 SEASON(JAN 1-DEC 31):1126 DEP NORM:-52,SOM  ,SOM  ,6.0,6.0,72219013874.0,2021-07-26 20:13,2021-07-26 20:18,2021-07-26 20:23,2021-07-26 20:26,2021-07-02 14:09,2021-07-02 14:09,2021-07-19 20:36,2021-07-10 19:32,2021-07-19 21:19,2021-07-19 21:37,2021-07-19 22:08,2021-07-19 22:38,0.27,0.43,0.48,0.49,0.57,0.57,0.59,0.75,0.79,0.91,1.03,1.12,,,georgia
116,6.5,1570.0,476.0,2021-08-31T23:59:00,0.0,2.0,12.0,,,,,,,,,,,,,,,,,,,,,0.0,0.0,,,,,,,,,,,,,,,,,,12,8,0,11,0.0,0.0,1.0,29.0,0.0,0.0,1.9,3.06,,3.61,16-17,0,,0.0,,30.21,28.0,1009.0,88.1,80.4,29.63,31.0,1829.0,72.6,30.04,28.97,6.96,,,447.0,-7777.0,SOM862PCP MTOT:6.96 DEPNRM:+2.66 PCP GT 24HRS:3.61 DATE(S):16-17 DAYS W/PCP >=.01:12 DAYS W/PCP >=.10:8  DAYS W/ PCP >=.50:4 DAYS W/PCP >=1.00:2 MSDP AMTS W/DATE-TIME TAGS:MIN:5 0.33  17/0531 MIN:10 0.52  03/1741 MIN:15 0.81  03/1739 MIN:20 1.01  03/1742 MIN:30 1.33  03/1743 MIN:45 1.42  03/1754 MIN:60 1.42  03/1754 MIN:80 1.43  03/1815 MIN:100 1.43  03/1815 MIN:120 1.43  03/1815 MIN:150 1.43  03/1815 MIN:180 1.43  03/1815 SN GT DP ON GRND:0 SN GT IN 24HRS:0.0 SN MTOT:0.0 AVG DLY MIN:72.6  AVG DLY MAX:88.1  AVG MLY TMP:80.4  DEP NORM:0.2   MIN TMP:69 DATE(S):08 05 MAX TMP:94  DATE(S):14 DAYS MAX <=32:0 DAYS MAX >=90:11 DAYS MIN <=32:0  DAYS MIN  <=0:0  AVG STP:28.970 LWST SLP:29.63 DATE/TIME:311829 HGST SLP:30.21 DATE/TIME:281009 HDD MTH TOT:0 DEP NORM: 0 SEASON(JUL 1-JUN 30):0 DEP NORM: 0 CDD MTH TOT:486 DEP NORM:+16 SEASON(JAN 1-DEC 31):1612 DEP NORM:-36,SOM  ,SOM  ,6.0,6.0,72219013874.0,2021-08-17 05:31,2021-08-03 17:41,2021-08-03 17:39,2021-08-03 17:42,2021-08-03 17:43,2021-08-03 17:54,2021-08-03 17:54,2021-08-03 18:15,2021-08-03 18:15,2021-08-03 18:15,2021-08-03 18:15,2021-08-03 18:15,0.33,0.52,0.81,1.01,1.33,1.42,1.42,1.43,1.43,1.43,1.43,1.43,,,georgia
117,6.0,1840.0,270.0,2021-09-30T23:59:00,0.0,,3.0,,,,,,,,,,,,,,,,,,,,,2.0,2.0,,,,,,,,,,,,,,,,,,8,7,0,0,0.0,0.0,0.4,4.0,-9.0,0.0,0.9,-0.87,,1.20,19-20,0,,0.0,,30.3,12.0,1052.0,82.2,73.9,29.68,1.0,252.0,65.7,30.03,28.95,3.60,,,266.0,11.0,SOM862PCP MTOT:3.60 DEPNRM:-0.22 PCP GT 24HRS:1.20 DATE(S):19-20 DAYS W/PCP >=.01:8  DAYS W/PCP >=.10:7  DAYS W/ PCP >=.50:2 DAYS W/PCP >=1.00:0 MSDP AMTS W/DATE-TIME TAGS:MIN:5 0.17  21/0628 MIN:10 0.31  19/0720 MIN:15 0.35  19/0720 MIN:20 0.37  21/0639 MIN:30 0.42  19/0740 MIN:45 0.59  19/0749 MIN:60 0.63  19/0759 MIN:80 0.66  19/0810 MIN:100 0.69  19/0843 MIN:120 0.84  19/0907 MIN:150 0.87  19/0913 MIN:180 0.87  19/0913 SN GT DP ON GRND:0 SN GT IN 24HRS:0.0 SN MTOT:0.0 AVG DLY MIN:65.7  AVG DLY MAX:82.2  AVG MLY TMP:74.0  DEP NORM:-0.9  MIN TMP:53 DATE(S):24 23 MAX TMP:88  DATE(S):13 DAYS MAX <=32:0 DAYS MAX >=90:0  DAYS MIN <=32:0  DAYS MIN  <=0:0  AVG STP:28.955 LWST SLP:29.67 DATE/TIME:010012 HGST SLP:30.31 DATE/TIME:121044 HDD MTH TOT:2 DEP NORM:-3 SEASON(JUL 1-JUN 30):2 DEP NORM: 0 CDD MTH TOT:276 DEP NORM:-26 SEASON(JAN 1-DEC 31):1888 DEP NORM:-62,SOM  ,SOM  ,6.0,6.0,72219013874.0,2021-09-21 06:28,2021-09-19 07:20,2021-09-19 07:20,2021-09-21 06:39,2021-09-19 07:40,2021-09-19 07:49,2021-09-19 07:59,2021-09-19 08:10,2021-09-19 08:43,2021-09-19 09:07,2021-09-19 09:13,2021-09-19 09:13,0.17,0.31,0.35,0.37,0.42,0.59,0.63,0.66,0.69,0.84,0.87,0.87,,,georgia
118,6.7,1973.0,133.0,2021-10-31T23:59:00,0.0,1.0,4.0,,,,,,,,,,,,,,,,,,,,,69.0,66.0,,,,,,,,,,,,,,,,,,10,7,0,0,0.0,0.0,3.9,66.0,-52.0,2.6,5.0,0.11,,1.75,04-05,0,,0.0,,30.29,20.0,1052.0,75.3,67.2,29.49,29.0,552.0,59.0,30.01,28.92,3.52,,,67.0,118.0,SOM865PCP MTOT:3.52 DEPNRM:+0.24 PCP GT 24HRS:1.75 DATE(S):4-5+ DAYS W/PCP >=.01:10 DAYS W/PCP >=.10:7  DAYS W/ PCP >=.50:2 DAYS W/PCP >=1.00:1 MSDP AMTS W/DATE-TIME TAGS:MIN:5 0.08  22/0013 MIN:10 0.11  22/0016 MIN:15 0.12  22/0021 MIN:20 0.13  22/0026 MIN:30 0.18  22/0033 MIN:45 0.18  22/0033 MIN:60 0.18  22/0033 MIN:80 0.18  22/0033 MIN:100 0.18  22/0033 MIN:120 0.18  22/0033 MIN:150 0.18  22/0033 MIN:180 0.18  22/0033 SN GT DP ON GRND:0 SN GT IN 24HRS:0.0 SN MTOT:0.0 AVG DLY MIN:59.0  AVG DLY MAX:75.3  AVG MLY TMP:67.2  DEP NORM:2.5   MIN TMP:46 DATE(S):27 MAX TMP:85  DATE(S):15 01 DAYS MAX <=32:0 DAYS MAX >=90:0  DAYS MIN <=32:0  DAYS MIN  <=0:0  AVG STP:28.925 LWST SLP:29.48 DATE/TIME:290333 HGST SLP:30.30 DATE/TIME:201024 HDD MTH TOT:64 DEP NORM:-35 SEASON(JUL 1-JUN 30):66 DEP NORM:-37 CDD MTH TOT:137 DEP NORM:+49 SEASON(JAN 1-DEC 31):2025 DEP NORM:-13,SOM  ,SOM  ,6.0,6.0,72219013874.0,,,,,,,,,,,,,,,,,,,,,,,,,,,georgia
119,8.1,1973.0,0.0,2021-11-30T23:59:00,0.0,,,,,,,,,,,,,,,,,,,,,,,432.0,364.0,,,,,,,,,,,,,,,,,,5,3,1,0,0.0,0.0,-1.1,-10.0,25.0,0.6,-3.0,-2.78,,0.70,11-11,0,,0.0,,30.48,20.0,1036.0,64.2,52.9,29.92,11.0,1652.0,41.5,30.18,29.07,1.32,,,10.0,339.0,SOM859PCP MTOT:1.32 DEPNRM:-2.66 PCP GT 24HRS:0.70 DATE(S):11 DAYS W/PCP >=.01:5  DAYS W/PCP >=.10:2  DAYS W/ PCP >=.50:1 DAYS W/PCP >=1.00:0 MSDP AMTS W/DATE-TIME TAGS:MIN:5 0.12  11/2003 MIN:10 0.19  11/2007 MIN:15 0.24  11/2010 MIN:20 0.29  11/2019 MIN:30 0.44  11/2027 MIN:45 0.51  11/2039 MIN:60 0.55  11/2045 MIN:80 0.60  11/2114 MIN:100 0.67  11/2129 MIN:120 0.68  11/2129 MIN:150 0.69  11/2154 MIN:180 0.70  11/2154 SN GT DP ON GRND:0 SN GT IN 24HRS:0.0 SN MTOT:0.0 AVG DLY MIN:41.5  AVG DLY MAX:64.2  AVG MLY TMP:52.9  DEP NORM:-1.3  MIN TMP:32 DATE(S):23 MAX TMP:78  DATE(S):09 DAYS MAX <=32:0 DAYS MAX >=90:0  DAYS MIN <=32:1  DAYS MIN  <=0:0  AVG STP:29.070 LWST SLP:29.91 DATE/TIME:111706 HGST SLP:30.48 DATE/TIME:201036 HDD MTH TOT:358 DEP NORM:-22 SEASON(JUL 1-JUN 30):424 DEP NORM:-16 CDD MTH TOT:0 DEP NORM:-8 SEASON(JAN 1-DEC 31):2025 DEP NORM:-21,SOM  ,SOM  ,6.0,6.0,72219013874.0,2021-11-11 20:03,2021-11-11 20:07,2021-11-11 20:10,2021-11-11 20:19,2021-11-11 20:27,2021-11-11 20:39,2021-11-11 20:45,2021-11-11 21:14,2021-11-11 21:29,2021-11-11 21:29,2021-11-11 21:54,2021-11-11 21:54,0.12,0.19,0.24,0.29,0.44,0.51,0.55,0.6,0.67,0.68,0.69,0.70,,,georgia
120,6.9,1983.0,10.0,2021-12-31T23:59:00,0.0,8.0,5.0,,,,,,,,,,,,,,,,,,,,,720.0,288.0,,,,,,,,,,,,,,,,,,11,8,0,0,0.0,0.0,10.7,9.0,-325.0,10.5,11.0,2.18,,2.86,29-30,0,,0.0,,30.48,15.0,1056.0,64.5,56.0,29.85,29.0,1729.0,47.5,30.1,29.0,6.08,,,1.0,613.0,SOM866PCP MTOT:6.08 DEPNRM:+1.51 PCP GT 24HRS:2.86 DATE(S):29-30 DAYS W/PCP >=.01:11 DAYS W/PCP >=.10:8  DAYS W/ PCP >=.50:3 DAYS W/PCP >=1.00:1 MSDP AMTS W/DATE-TIME TAGS:MIN:5 0.24  30/0127 MIN:10 0.30  30/0131 MIN:15 0.35  30/0138 MIN:20 0.47  30/0140 MIN:30 0.61  30/0928 MIN:45 0.74  30/0935 MIN:60 0.76  30/0943 MIN:80 0.80  30/1014 MIN:100 0.93  30/1034 MIN:120 0.99  30/1058 MIN:150 1.17  30/1119 MIN:180 1.17  30/1119 SN GT DP ON GRND:0 SN GT IN 24HRS:0.0 SN MTOT:0.0 AVG DLY MIN:47.5  AVG DLY MAX:64.5  AVG MLY TMP:56.0  DEP NORM:8.7   MIN TMP:34 DATE(S):23 MAX TMP:77  DATE(S):03 DAYS MAX <=32:0 DAYS MAX >=90:0  DAYS MIN <=32:0  DAYS MIN  <=0:0  AVG STP:29.000 LWST SLP:29.85 DATE/TIME:291729 HGST SLP:30.48 DATE/TIME:151056 HDD MTH TOT:282 DEP NORM:-269 SEASON(JUL 1-JUN 30):706 DEP NORM:-255 CDD MTH TOT:12 DEP NORM:+10 SEASON(JAN 1-DEC 31):2037 DEP NORM:-13,SOM  ,SOM  ,6.0,6.0,72219013874.0,2021-12-30 01:27,2021-12-30 01:31,2021-12-30 01:38,2021-12-30 01:40,2021-12-30 09:28,2021-12-30 09:35,2021-12-30 09:43,2021-12-30 10:14,2021-12-30 10:34,2021-12-30 10:58,2021-12-30 11:19,2021-12-30 11:19,0.24,0.3,0.35,0.47,0.61,0.74,0.76,0.8,0.93,0.99,1.17,1.17,,,georgia
